School ID,Name of School,Street Address,City,State,ZIP Code,Phone Number,Network,NWEA: % Above Nat'l Avg Score - All Grades - Reading,NWEA: % Above Nat'l Avg Score - All Grades - Math,NWEA: % Above Nat'l Avg Growth - All Grades - Reading,NWEA: % Above Nat'l Avg Growth - All Grades - Math,ISAT: % Meets/Exceeds - 3rd Grade - Reading,ISAT: % Meets/Exceeds - 5th Grade - Reading/Math Composite,Bilingual %,SpED %,"Free/Reduced
 Lunch %",White %,African American %,Hispanic %,CPS Performance Policy Level,CPS Performance Policy Status,"My Voice, My School Overall Rating",Involved Family,Effective Leaders,Safe,Quality of Facilities,NWEA Reading Growth Percentile All Grades,NWEA Math Growth Percentile All Grades,NWEA Reading Attainment Percentile All Grades,NWEA Math Attainment Percentile All Grades,Suspensions Per 100 students 2013,Percentage Misconducts Resulting in Suspension 2013,Average Length of Suspensions 2013,Student Attendance Percentage 2013,One-Year Drop Out Rate Percentage 2013,Community School
400009,Academy for Global Citizenship Elementary School,4647 W 47th St,Chicago,IL,60632,(773) 582-1100,Charter,-,-,-,-,58%,46%,19.40%,12.00%,79.70%,9%,3%,85%,LEVEL 1,NOT APPLICABLE,NOT ENOUGH DATA,NOT ENOUGH DATA,NOT ENOUGH DATA,NOT ENOUGH DATA,STRONG,,,,,,,,96.50%,,No
400011,Alain Locke Charter Elementary Academy,3141 W Jackson Blvd,Chicago,IL,60612,(773) 265-7232,Charter,-,-,-,-,63%,71%,0.00%,5.10%,93.20%,0%,99%,1%,LEVEL 1,NOT APPLICABLE,NOT ENOUGH DATA,NOT ENOUGH DATA,NOT ENOUGH DATA,NOT ENOUGH DATA,NOT ENOUGH DATA,,,,,,,,94.40%,,No
400017,ASPIRA Charter - Haugan Campus,3729 W Leland Ave,Chicago,IL,60625,(773) 252-0970,Charter,-,-,-,-,-,-,20.70%,11.70%,97.00%,2%,3%,90%,LEVEL 2,NOT APPLICABLE,ORGANIZED,NEUTRAL,NEUTRAL,NEUTRAL,NOT ENOUGH DATA,,,,,,,,94.80%,,No
400019,Bronzeville Lighthouse Charter Elementary School,8 W Root St,Chicago,IL,60609,(773) 535-1460,Charter,44%,44%,66%,65%,40%,36%,0.20%,11.90%,89.80%,0%,98%,0%,LEVEL 3,NOT APPLICABLE,NOT ENOUGH DATA,NOT ENOUGH DATA,NOT ENOUGH DATA,NOT ENOUGH DATA,NOT ENOUGH DATA,74,76,45,57,,,,98.90%,,No
400020,Catalyst Charter ES - Howland,1616 S Spaulding Ave,Chicago,IL,60623,(773) 527-7330 ,Charter,19%,15%,51%,55%,17%,18%,0.20%,10.60%,99.20%,0%,89%,2%,LEVEL 3,NOT APPLICABLE,PARTIALLY ORGANIZED,VERY WEAK,VERY WEAK,NEUTRAL,WEAK,1,3,4,2,,,,92.70%,,No
400021,Catalyst Elementary School - Circle Rock,5608 W Washington Blvd,Chicago,IL,60644,(773) 945-5025,Charter,35%,36%,58%,67%,28%,35%,0.00%,8.60%,95.20%,0%,84%,0%,LEVEL 3,NOT APPLICABLE,PARTIALLY ORGANIZED,WEAK,NEUTRAL,NEUTRAL,STRONG,25,59,25,25,,,,95.30%,,No
400023,Chicago Intl Charter - Avalon / South Shore,1501 E 83rd Pl,Chicago,IL,60619,(773) 721-0858,Charter,65%,50%,79%,80%,61%,36%,0.00%,8.90%,93.50%,1%,98%,1%,LEVEL 2,NOT APPLICABLE,PARTIALLY ORGANIZED,NEUTRAL,WEAK,WEAK,WEAK,99,99,83,60,,,,98.70%,,No
400024,Chicago Intl Charter - Basil,1816 W Garfield Blvd,Chicago,IL,60609,(773) 778-9455,Charter,51%,46%,70%,72%,46%,32%,4.30%,10.50%,95.70%,0%,90%,10%,LEVEL 2,NOT APPLICABLE,NOT YET ORGANIZED,WEAK,VERY WEAK,WEAK,NEUTRAL,98,89,56,48,,,,93.90%,,No
400025,Chicago Intl Charter - Bucktown,2235 N Hamilton Ave,Chicago,IL,60647,(773) 645-3321,Charter,61%,46%,61%,61%,50%,42%,14.40%,11.70%,81.90%,2%,14%,82%,LEVEL 3,NOT APPLICABLE,PARTIALLY ORGANIZED,NEUTRAL,NEUTRAL,NEUTRAL,NEUTRAL,89,41,71,52,,,,94.90%,,No
400026,Chicago Intl Charter - Loomis Primary,9535 S Loomis St,Chicago,IL,60643,(773) 429-8955,Charter,62%,64%,-,-,-,-,0.20%,8.70%,89.10%,0%,96%,1%,NOT ENOUGH DATA,NOT APPLICABLE,PARTIALLY ORGANIZED,NEUTRAL,WEAK,NOT ENOUGH DATA,STRONG,,,84,90,,,,97.80%,,No
400027,Chicago Intl Charter - Irving Park,3820 N Spaulding Ave,Chicago,IL,60618,(773) 433-5000,Charter,77%,75%,63%,61%,75%,68%,10.70%,9.00%,63.50%,13%,7%,62%,LEVEL 1,NOT APPLICABLE,PARTIALLY ORGANIZED,STRONG,WEAK,STRONG,NOT ENOUGH DATA,97,84,97,94,,,,96.70%,,No
400028,Chicago Intl Charter - Prairie,11530 S Prairie Ave,Chicago,IL,60628,(773) 928-0480,Charter,50%,36%,63%,61%,45%,33%,23.20%,12.30%,97.80%,0%,49%,51%,LEVEL 3,NOT APPLICABLE,NOT YET ORGANIZED,WEAK,WEAK,NEUTRAL,VERY WEAK,77,27,58,33,,,,95.30%,,No
400029,Chicago Intl Charter - Washington Park,6105 S Michigan Ave,Chicago,IL,60637,(773) 324-3300,Charter,51%,46%,72%,82%,68%,34%,0.00%,7.70%,96.40%,0%,91%,1%,LEVEL 2,NOT APPLICABLE,NOT YET ORGANIZED,WEAK,WEAK,VERY WEAK,VERY WEAK,98,99,52,48,,,,96.40%,,No
400030,Chicago Intl Charter - West Belden,2245 N McVicker Ave,Chicago,IL,60639,(773) 637-9430,Charter,65%,62%,63%,67%,47%,48%,32.60%,16.40%,95.20%,1%,8%,91%,LEVEL 2,NOT APPLICABLE,PARTIALLY ORGANIZED,NEUTRAL,WEAK,NEUTRAL,WEAK,91,76,86,80,,,,96.70%,,No
400031,Chicago Intl Charter - Wrightwood,8130 S California Ave,Chicago,IL,60652,(773) 434-4575,Charter,60%,55%,62%,61%,63%,48%,0.10%,9.40%,86.90%,1%,93%,2%,LEVEL 2,NOT APPLICABLE,MODERATELY ORGANIZED,NEUTRAL,NEUTRAL,NEUTRAL,WEAK,72,56,73,65,,,,96.30%,,No
400039,Erie Elementary Charter School,1405 N Washtenaw Ave,Chicago,IL,60622,(773) 486-7161,Charter,44%,27%,61%,43%,44%,45%,28.70%,15.10%,89.40%,2%,17%,78%,LEVEL 1,NOT APPLICABLE,WELL-ORGANIZED,STRONG,STRONG,NEUTRAL,NEUTRAL,22,0,34,11,,,,95.60%,,No
400040,Frazier Preparatory Academy Elementary School,4027 W Grenshaw St,Chicago,IL,60624,(773) 534-6776,Charter,36%,29%,47%,47%,48%,30%,0.00%,4.60%,90.60%,0%,90%,1%,LEVEL 3,ON PROBATION,ORGANIZED,STRONG,NEUTRAL,WEAK,WEAK,1,0,13,11,0.2,,,95.60%,,No
400041,Galapagos Elementary Charter School,3814 W Iowa St,Chicago,IL,60651,(773) 384-9400,Charter,-,-,-,-,31%,36%,0.60%,6.90%,96.00%,0%,86%,5%,LEVEL 2,NOT APPLICABLE,PARTIALLY ORGANIZED,WEAK,NEUTRAL,NOT ENOUGH DATA,NOT ENOUGH DATA,,,,,,,,96.10%,,No
400043,Hope Institute Learning Academy,1628 W Washington,Chicago,IL,60612,(773) 534-7405,Contract,27%,17%,-,57%,30%,25%,4.30%,21.40%,83.40%,2%,86%,9%,LEVEL 2,NOT ON PROBATION,PARTIALLY ORGANIZED,NEUTRAL,NEUTRAL,NOT ENOUGH DATA,VERY STRONG,,5,2,3,19.2,45.40%,1.1,93.80%,,No
400044,KIPP Ascend Academy Charter Elementary School,1616 S Avers Ave,Chicago,IL,60623,(773) 521-4399,Charter,-,-,-,-,-,41%,1.30%,10.20%,95.20%,0%,93%,5%,LEVEL 3,NOT APPLICABLE,ORGANIZED,NEUTRAL,STRONG,WEAK,NEUTRAL,,,,,,,,94.50%,,No
400045,Kwame Nkrumah Academy Elementary School,8524 S Greene St,Chicago,IL,60620,(773) 966-1600,Charter,53%,46%,64%,63%,74%,53%,0.00%,9.70%,82.00%,0%,99%,1%,LEVEL 2,NOT APPLICABLE,MODERATELY ORGANIZED,STRONG,WEAK,NOT ENOUGH DATA,NEUTRAL,90,41,78,50,6.3,60%,2.9,96.10%,,No
400046,LEARN Charter ES - Romano Butler Campus,1132 S Homan Ave,Chicago,IL,60624,(773) 826-6330,Charter,-,-,-,-,41%,63%,0.00%,5.70%,93.70%,0%,95%,1%,LEVEL 2,NOT APPLICABLE,PARTIALLY ORGANIZED,NEUTRAL,WEAK,NEUTRAL,NOT ENOUGH DATA,,,,,,,,95.40%,,No
400047,LEARN Charter ES - Charles and Dorothy Campbell,212 S Francisco Ave,Chicago,IL,60612,(773) 826-0370,Charter,-,-,-,-,41%,34%,0.00%,9.30%,98.20%,0%,99%,1%,LEVEL 3,NOT APPLICABLE,PARTIALLY ORGANIZED,WEAK,NEUTRAL,STRONG,NOT ENOUGH DATA,,,,,,,,94.80%,,No
400048,LEARN Charter ES - Excel,2401 W Congress Pkwy,Chicago,IL,60612,(312) 243-7001,Charter,-,-,-,-,52%,34%,0.00%,9.20%,91.50%,0%,92%,2%,LEVEL 2,NOT APPLICABLE,PARTIALLY ORGANIZED,WEAK,NEUTRAL,NEUTRAL,NOT ENOUGH DATA,,,,,,,,94.70%,,No
400049,Legacy Charter Elementary School,4217 W 18th St,Chicago,IL,60623,(773) 542-1640,Charter,41%,38%,54%,62%,47%,36%,0.40%,11.70%,94.00%,0%,91%,3%,LEVEL 2,NOT APPLICABLE,PARTIALLY ORGANIZED,NEUTRAL,WEAK,WEAK,NOT ENOUGH DATA,15,27,33,33,21.8,88.50%,1.3,95.50%,,No
400050,Namaste Charter Elementary School,3737 S Paulina St,Chicago,IL,60609,(773) 715-9558,Charter,-,-,-,-,62%,66%,23.00%,16.80%,84.50%,9%,4%,85%,LEVEL 2,NOT APPLICABLE,WELL-ORGANIZED,STRONG,STRONG,STRONG,NOT ENOUGH DATA,,,,,8.8,80.40%,1.9,96.90%,,No
400060,Asian Human Services - Passages Charter School,1643 W Bryn Mawr Ave,Chicago,IL,60660,(773) 433-3530,Charter,67%,57%,80%,80%,66%,37%,28.20%,8.40%,87.00%,6%,49%,21%,LEVEL 1,NOT APPLICABLE,NOT ENOUGH DATA,NOT ENOUGH DATA,NOT ENOUGH DATA,NOT ENOUGH DATA,NOT ENOUGH DATA,99,99,86,79,,,,94.10%,,No
400068,Plato Learning Academy Elementary School,5545 W Harrison St,Chicago,IL,60644,(773) 413-3090 x 111,Contract,42%,23%,60%,56%,41%,37%,0.00%,10.30%,98.30%,0%,100%,0%,LEVEL 3,ON PROBATION,NOT YET ORGANIZED,VERY WEAK,WEAK,NEUTRAL,NEUTRAL,29,11,27,9,36.4,90.90%,2.6,93.30%,,No
400069,Polaris Charter Academy Elementary School,620 N Sawyer Ave,Chicago,IL,60624,(773) 534-0820,Charter,33%,34%,64%,60%,48%,40%,0.00%,12.00%,90.50%,0%,90%,8%,LEVEL 2,NOT APPLICABLE,WELL-ORGANIZED,NEUTRAL,STRONG,STRONG,VERY STRONG,38,18,23,28,,,,94.90%,,No
400071,Providence Englewood Charter - Bunche,6515 S Ashland Ave,Chicago,IL,60636,(773) 434-0202,Charter,-,-,-,-,58%,49%,0.40%,8.50%,86.80%,0%,90%,2%,LEVEL 1,NOT APPLICABLE,NOT ENOUGH DATA,NOT ENOUGH DATA,NOT ENOUGH DATA,NOT ENOUGH DATA,STRONG,,,,,,,,98%,,No
400072,Betty Shabazz Intl Charter,7823 S Ellis Ave,Chicago,IL,60619,(773) 651-1221,Charter,41%,36%,57%,58%,37%,38%,0.30%,9.00%,88.60%,0%,81%,0%,LEVEL 2,NOT APPLICABLE,NOT ENOUGH DATA,NOT ENOUGH DATA,NOT ENOUGH DATA,NOT ENOUGH DATA,NOT ENOUGH DATA,53,9,31,28,,,,94.90%,,No
400074,Betty Shabazz Intl Charter - Barbara A Sizemore,6936 S Hermitage Ave,Chicago,IL,60636,(773) 535-9144,Charter,23%,12%,42%,44%,24%,19%,0.30%,9.10%,94.80%,0%,92%,1%,LEVEL 3,NOT APPLICABLE,NOT ENOUGH DATA,NOT ENOUGH DATA,NOT ENOUGH DATA,NOT ENOUGH DATA,NOT ENOUGH DATA,0,0,2,2,,,,94.90%,,No
400075,University of Chicago Charter - Donoghue,707 E 37th St,Chicago,IL,60653,(773) 285-5301,Charter,48%,44%,61%,65%,64%,49%,0.20%,6.40%,68.20%,0%,96%,1%,LEVEL 2,NOT APPLICABLE,PARTIALLY ORGANIZED,NEUTRAL,NEUTRAL,NOT ENOUGH DATA,NOT ENOUGH DATA,73,43,53,37,,,,95.40%,,No
400076,University of Chicago Charter - NKO,1119 E 46th St,Chicago,IL,60653,(773) 536-2399,Charter,67%,60%,70%,68%,63%,69%,0.30%,5.90%,77.90%,2%,94%,2%,LEVEL 1,NOT APPLICABLE,ORGANIZED,NEUTRAL,NEUTRAL,NOT ENOUGH DATA,NEUTRAL,97,75,90,79,,,,96.80%,,No
400078,University of Chicago Charter - Carter G Woodson,4444 S Evans Ave,Chicago,IL,60653,(773) 624-0700,Charter,42%,30%,44%,50%,-,-,0.00%,10.20%,82.80%,0%,95%,0%,LEVEL 2,NOT APPLICABLE,NOT YET ORGANIZED,WEAK,WEAK,WEAK,NOT ENOUGH DATA,1,2,27,21,,,,94.40%,,No
400079,UNO Charter School - SPC Daniel Zizumbo Campus,4248 W 47th St,Chicago,IL,60632,(773) 579-3470 x 222,Charter,-,-,-,-,55%,52%,19.70%,6.90%,92.50%,1%,0%,91%,LEVEL 1,NOT APPLICABLE,ORGANIZED,STRONG,NEUTRAL,NOT ENOUGH DATA,NOT ENOUGH DATA,,,,,,,,97.20%,,No
400080,UNO Charter School - PFC Omar E.Torres Campus,4248 W 47th St,Chicago,IL,60632,(773) 579-3475,Charter,-,-,-,-,56%,54%,28.10%,8.00%,92.80%,1%,1%,94%,LEVEL 1,NOT APPLICABLE,PARTIALLY ORGANIZED,NEUTRAL,VERY WEAK,STRONG,NOT ENOUGH DATA,,,,,,,,97%,,No
400081,UNO Charter - Bartolome de Las Casas,1641 W 16th St,Chicago,IL,60608,(312) 432-3224,Charter,-,-,-,-,43%,63%,35.70%,8.40%,95.80%,0%,1%,98%,LEVEL 2,NOT APPLICABLE,WELL-ORGANIZED,VERY STRONG,NEUTRAL,VERY STRONG,NOT ENOUGH DATA,,,,,,,,97.50%,,No
400082,UNO Charter - Carlos Fuentes,2845 W Barry Ave,Chicago,IL,60618,(773) 279-9826,Charter,-,-,-,-,63%,48%,26.70%,7.30%,94.10%,1%,0%,97%,LEVEL 1,NOT APPLICABLE,PARTIALLY ORGANIZED,STRONG,WEAK,STRONG,NOT ENOUGH DATA,,,,,,,,97%,,No
400083,UNO Charter - Octavio Paz Campus,2651 W 23rd St,Chicago,IL,60608,(773) 890-1054,Charter,-,-,-,-,28%,36%,33.10%,8.40%,98.60%,1%,8%,86%,LEVEL 2,NOT APPLICABLE,PARTIALLY ORGANIZED,NEUTRAL,VERY WEAK,NEUTRAL,NOT ENOUGH DATA,,,,,,,,97.30%,,No
400084,UNO Charter - Rufino Tamayo,5135 S California Ave,Chicago,IL,60632,(773) 434-6355,Charter,-,-,-,-,41%,30%,37.80%,9.40%,96.50%,1%,0%,99%,LEVEL 3,NOT APPLICABLE,PARTIALLY ORGANIZED,NEUTRAL,NEUTRAL,NEUTRAL,NOT ENOUGH DATA,,,,,,,,97.30%,,No
400089,UNO Charter School - Officer Donald J. Marquez,2916 W 47th St,Chicago,IL,60632,(773) 321-2200,Charter,-,-,-,-,31%,59%,35.70%,6.60%,97.40%,0%,1%,94%,LEVEL 2,NOT APPLICABLE,PARTIALLY ORGANIZED,NEUTRAL,WEAK,STRONG,NOT ENOUGH DATA,,,,,,,,96.80%,,No
400092,Chicago Intl Charter - Lloyd Bond,13300 S Langley Ave,Chicago,IL,60827,(773) 468-1300,Charter,40%,39%,58%,60%,31%,43%,0.30%,12.40%,99.10%,0%,98%,1%,LEVEL 3,NOT APPLICABLE,PARTIALLY ORGANIZED,NEUTRAL,WEAK,WEAK,WEAK,42,42,37,34,,,,92.90%,,No
400096,Rowe Elementary School,1424 N Cleaver St,Chicago,IL,60642,(312) 445-5870,Charter,-,-,-,-,55%,31%,18.20%,9.40%,87.60%,3%,13%,78%,LEVEL 2,NOT APPLICABLE,ORGANIZED,STRONG,NEUTRAL,NOT ENOUGH DATA,VERY STRONG,,,89,82,,,,96.10%,,No
400101,UNO Charter - Sandra Cisneros,2744 W Pershing Rd,Chicago,IL,60632,(312) 376-8830 ,Charter,-,-,-,-,47%,38%,35.90%,5.90%,97.70%,0%,1%,94%,LEVEL 2,NOT APPLICABLE,MODERATELY ORGANIZED,NEUTRAL,WEAK,STRONG,NOT ENOUGH DATA,,,,,,,,97.40%,,No
400107,LEARN  Charter School-South Chicago Campus,8914 S Buffalo Ave,Chicago,IL,60617,(773) 722-8577,Charter,-,-,-,-,47%,29%,7.00%,10.20%,95.80%,0%,78%,8%,LEVEL 3,NOT APPLICABLE,NOT YET ORGANIZED,WEAK,WEAK,NOT ENOUGH DATA,NOT ENOUGH DATA,,,,,,,,93.60%,,No
400111,LEARN Charter School - Hunter Perkins,1700 W 83rd St,Chicago,IL,60620,(773) 722-0200,Charter,-,-,-,-,50%,-,0.00%,8.80%,94.20%,0%,77%,1%,NOT ENOUGH DATA,NOT APPLICABLE,PARTIALLY ORGANIZED,NEUTRAL,WEAK,NOT ENOUGH DATA,NOT ENOUGH DATA,,,,,,,,96.50%,,No
400112,UNO 51st and Homan Charter Elementary School,5050 S Homan Ave,Chicago,IL,60632,(312) 455-5450 ,Charter,-,-,-,-,44%,45%,31.60%,6.60%,97.60%,1%,0%,97%,NOT ENOUGH DATA,NOT APPLICABLE,WELL-ORGANIZED,STRONG,NEUTRAL,VERY STRONG,NOT ENOUGH DATA,,,,,,,,97.70%,,No
400114,UNO Charter Elementary School St Marks,2510 W Cortez St,Chicago,IL,60622,(312) 455-5410 ,Charter,-,-,-,-,34%,56%,38.80%,12.60%,95.70%,1%,4%,94%,NOT ENOUGH DATA,NOT APPLICABLE,WELL-ORGANIZED,VERY STRONG,STRONG,STRONG,NOT ENOUGH DATA,,,,,,,,96.50%,,No
400115,Catalyst-Maria Charter School,6727 S California Ave,Chicago,IL,60629,(773) 993-1770 ,Charter,35%,33%,59%,72%,43%,38%,11.40%,13.50%,94.20%,1%,46%,45%,NOT ENOUGH DATA,NOT APPLICABLE,PARTIALLY ORGANIZED,WEAK,WEAK,WEAK,STRONG,24,68,22,26,,,,96.20%,1.20%,No
400116,The Montessori School of Englewood Charter,6550 S Seeley Ave,Chicago,IL,60636,(773) 306-1759,Charter,-,15%,-,-,-,-,0.00%,12.20%,80.50%,0%,83%,4%,NOT ENOUGH DATA,NOT APPLICABLE,NOT ENOUGH DATA,NOT ENOUGH DATA,NOT ENOUGH DATA,NOT ENOUGH DATA,STRONG,,,,3,,,,91.40%,,No
400120,UNO Charter - Near West Elementary,2050 N Natchez Ave,Chicago,IL,60707,(312) 455-5425 ,Charter,-,-,-,-,24%,30%,28.10%,7.60%,96.00%,1%,5%,91%,NOT ENOUGH DATA,NOT APPLICABLE,ORGANIZED,STRONG,NEUTRAL,STRONG,NOT ENOUGH DATA,,,,,,,,97.20%,,No
400121,UNO Charter - Rogers Park ES,7416 N Ridge Blvd,Chicago,IL,60645,(312) 455-5440 ,Charter,-,-,-,-,42%,48%,32.20%,10.70%,97.00%,1%,10%,85%,NOT ENOUGH DATA,NOT APPLICABLE,PARTIALLY ORGANIZED,NEUTRAL,VERY WEAK,STRONG,NOT ENOUGH DATA,,,,,,,,96.70%,,No
400146,KIPP Charter Create,4837 W Erie St,Chicago,IL,60644,(773) 938-8553 ,Charter,-,-,-,-,-,34%,0.60%,10.20%,95.80%,0%,96%,4%,NOT ENOUGH DATA,NOT APPLICABLE,NOT ENOUGH DATA,NOT ENOUGH DATA,NOT ENOUGH DATA,NOT ENOUGH DATA,VERY STRONG,,,,,,,,95.60%,,No
400151,Learn Charter 7 ES,3021 W Caroll Ave,Chicago,IL,60612,,Charter,-,-,-,-,-,-,0.50%,4.50%,86.60%,0%,85%,3%,NOT ENOUGH DATA,NOT APPLICABLE,NOT ENOUGH DATA,NOT ENOUGH DATA,NOT ENOUGH DATA,NOT ENOUGH DATA,,,,,,,,,,,No
400153,UNO Charter 15 ES,4420 S Fairfield Ave,Chicago,IL,60632,,Charter,-,-,-,-,-,-,36.30%,9.70%,93.70%,0%,1%,98%,NOT ENOUGH DATA,NOT APPLICABLE,NOT ENOUGH DATA,NOT ENOUGH DATA,NOT ENOUGH DATA,NOT ENOUGH DATA,,,,,,,,,,,No
400161,Chicago Charter Collegiate HS,11816 S Indiana Ave,Chicago,IL,60628,,Charter,-,-,-,-,-,-,1.70%,13.90%,92.20%,0%,97%,3%,NOT ENOUGH DATA,NOT APPLICABLE,NOT ENOUGH DATA,NOT ENOUGH DATA,NOT ENOUGH DATA,NOT ENOUGH DATA,,,,,,,,,,,No
400163,KIPP Charter Bloom,5515 S Lowe Ave,Chicago,IL,60621,,Charter,-,-,-,-,-,-,0.00%,11.90%,88.10%,0%,96%,0%,NOT ENOUGH DATA,NOT APPLICABLE,NOT ENOUGH DATA,NOT ENOUGH DATA,NOT ENOUGH DATA,NOT ENOUGH DATA,,,,,,,,,,,No
400165,LEARN Charter - Middle School Campus,3021 W Caroll Ave,Chicago,IL,60612,,Charter,-,-,-,-,-,-,0.00%,15.50%,100.00%,0%,96%,2%,NOT ENOUGH DATA,NOT APPLICABLE,NOT ENOUGH DATA,NOT ENOUGH DATA,NOT ENOUGH DATA,NOT ENOUGH DATA,,,,,,,,,,,No
609772,Jane Addams Elementary School,10810 S Avenue H,Chicago,IL,60617,(773) 535-6210,Network 13,47%,60%,64%,81%,50%,55%,25.90%,7.20%,91.80%,2%,1%,96%,LEVEL 1,NOT ON PROBATION,ORGANIZED,NEUTRAL,NEUTRAL,STRONG,NEUTRAL,80,99,52,77,1.1,33.30%,2.5,95.20%,,No
609773,Louis A Agassiz Elementary School,2851 N Seminary Ave,Chicago,IL,60657,(773) 534-5725,Network 4,58%,56%,53%,73%,75%,66%,8.90%,21.10%,44.80%,35%,25%,33%,LEVEL 1,NOT ON PROBATION,ORGANIZED,NEUTRAL,STRONG,NEUTRAL,NEUTRAL,23,89,74,64,7.1,39.50%,2.7,94.70%,,No
609774,Louisa May Alcott Elementary School,2625 N Orchard St,Chicago,IL,60614,(773) 534-5460,Network 4,77%,78%,64%,83%,71%,88%,3.90%,9.20%,17.50%,64%,9%,15%,LEVEL 1,NOT ON PROBATION,WELL-ORGANIZED,VERY STRONG,NEUTRAL,VERY STRONG,NOT ENOUGH DATA,96,99,97,97,0.4,2.10%,1,95.60%,,No
609777,Phillip D Armour Elementary School,950 W 33rd Pl,Chicago,IL,60608,(773) 535-4530,Network 6,37%,29%,67%,72%,23%,30%,27.80%,11.70%,94.80%,9%,3%,85%,LEVEL 3,ON PROBATION,ORGANIZED,NEUTRAL,NEUTRAL,NEUTRAL,NEUTRAL,56,78,24,20,6.4,56.10%,2.1,92.60%,,No
609779,George Armstrong International Studies ES,2110 W Greenleaf Ave,Chicago,IL,60645,(773) 534-2150,Network 2,53%,53%,63%,83%,43%,56%,27.60%,11.80%,93.10%,8%,29%,43%,LEVEL 1,NOT ON PROBATION,WELL-ORGANIZED,STRONG,STRONG,NEUTRAL,STRONG,70,99,53,66,7.7,80.60%,2.4,95.20%,,No
609780,Ames Middle School,1920 N Hamlin Ave,Chicago,IL,60647,(773) 534-4970,Network 4,27%,29%,63%,75%,-,-,21.40%,10.70%,98.30%,0%,5%,94%,LEVEL 3,ON PROBATION,NOT YET ORGANIZED,WEAK,NEUTRAL,NEUTRAL,NOT ENOUGH DATA,46,95,7,12,19.7,11.40%,2.2,91.40%,,No
609781,Crispus Attucks Elementary School,5055 S State St,Chicago,IL,60615,(773) 535-1270,Network 9,12%,6%,50%,45%,38%,22%,0.00%,13.10%,100.00%,0%,99%,1%,LEVEL 3,ON PROBATION,ORGANIZED,STRONG,STRONG,WEAK,NEUTRAL,0,0,0,0,96.5,66.80%,2.8,90.60%,,No
609782,John J Audubon Elementary School,3500 N Hoyne Ave,Chicago,IL,60618,(773) 534-5470,Network 4,64%,71%,58%,63%,68%,71%,5.10%,7.40%,31.00%,58%,3%,29%,LEVEL 1,NOT ON PROBATION,ORGANIZED,STRONG,WEAK,STRONG,NOT ENOUGH DATA,62,68,83,92,5.8,73.90%,2,94.80%,,No
609786,Avalon Park Elementary School,8045 S Kenwood Ave,Chicago,IL,60619,(773) 535-6615,Network 12,18%,13%,51%,65%,29%,33%,0.00%,7.10%,98.40%,0%,98%,1%,LEVEL 3,ON PROBATION,NOT YET ORGANIZED,WEAK,WEAK,WEAK,WEAK,1,40,2,1,37.1,48.50%,2.8,89.90%,,No
609788,Alice L Barnard Computer Math & Science Ctr ES,10354 S Charles St,Chicago,IL,60643,(773) 535-2625,OS4,48%,34%,69%,69%,38%,34%,0.00%,11.00%,79.40%,0%,96%,2%,LEVEL 2,NOT ON PROBATION,NOT YET ORGANIZED,NEUTRAL,NEUTRAL,STRONG,WEAK,89,66,48,31,9,19%,1.3,95%,,No
609789,John Barry Elementary School,2828 N Kilbourn Ave,Chicago,IL,60641,(773) 534-3455,Network 4,30%,48%,49%,73%,38%,46%,43.00%,9.10%,96.50%,2%,1%,95%,LEVEL 2,NOT ON PROBATION,WELL-ORGANIZED,STRONG,STRONG,STRONG,NEUTRAL,0,94,12,53,3,55.60%,1.3,95.20%,,No
609790,Clara Barton Elementary School,7650 S Wolcott Ave,Chicago,IL,60620,(773) 535-3260,Network 11,20%,14%,52%,46%,27%,22%,0.00%,12.40%,80.50%,0%,99%,1%,LEVEL 3,ON PROBATION,MODERATELY ORGANIZED,NEUTRAL,STRONG,WEAK,STRONG,0,0,2,1,92.9,91.90%,1.6,90.90%,,No
609791,Perkins Bass Elementary School,1140 W 66th St,Chicago,IL,60621,(773) 535-3275,Network 11,23%,24%,67%,67%,31%,36%,0.40%,10.60%,98.10%,0%,98%,2%,LEVEL 3,ON PROBATION,NOT YET ORGANIZED,WEAK,WEAK,VERY WEAK,NOT ENOUGH DATA,60,55,4,4,47.5,74.80%,3,91.20%,,No
609792,Newton Bateman Elementary School,4220 N Richmond St,Chicago,IL,60618,(773) 534-5055,Network 1,56%,44%,68%,71%,50%,46%,36.00%,11.60%,91.90%,9%,3%,80%,LEVEL 1,NOT ON PROBATION,PARTIALLY ORGANIZED,NEUTRAL,WEAK,NEUTRAL,NEUTRAL,91,84,65,46,0.6,10.50%,3.7,94.60%,,No
609793,Nicholson Technology Academy,6006 S Peoria St,Chicago,IL,60621,(773) 535-3285,Network 11,30%,41%,47%,64%,68%,51%,0.00%,9.80%,96.80%,0%,98%,1%,LEVEL 2,NOT ON PROBATION,WELL-ORGANIZED,NEUTRAL,STRONG,NEUTRAL,STRONG,0,39,10,37,25.5,89.40%,2.9,92.90%,,No
609794,Thomas A Edison Regional Gifted Center ES,4929 N Sawyer Ave,Chicago,IL,60625,(773) 534-0540,Network 1,100%,96%,58%,75%,100%,98%,0.70%,5.80%,10.10%,52%,4%,15%,LEVEL 1,NOT ON PROBATION,WELL-ORGANIZED,STRONG,STRONG,VERY STRONG,NOT ENOUGH DATA,99,99,99,99,0.4,,,96.30%,,No
609795,George Rogers Clark Elementary School,1045 S Monitor Ave,Chicago,IL,60644,(773) 534-6225,Network 3,60%,69%,72%,84%,70%,68%,12.50%,14.70%,94.60%,2%,61%,33%,LEVEL 1,NOT ON PROBATION,ORGANIZED,STRONG,NEUTRAL,NEUTRAL,NEUTRAL,99,99,75,86,10,35.40%,1.7,95.30%,,No
609796,Jean Baptiste Beaubien Elementary School,5025 N Laramie Ave,Chicago,IL,60630,(773) 534-3500,Network 1,74%,71%,66%,79%,74%,72%,15.40%,8.10%,53.90%,38%,2%,39%,LEVEL 1,NOT ON PROBATION,ORGANIZED,STRONG,VERY STRONG,STRONG,NOT ENOUGH DATA,99,99,97,97,5.6,69.10%,1.8,94.80%,,No
609797,Jacob Beidler Elementary School,3151 W Walnut St,Chicago,IL,60612,(773) 534-6811,OS4,40%,54%,74%,89%,34%,54%,0.20%,12.50%,99.40%,0%,98%,2%,LEVEL 2,NOT ON PROBATION,MODERATELY ORGANIZED,NEUTRAL,WEAK,NEUTRAL,STRONG,99,99,19,56,37.1,88.40%,2.1,93.50%,,No
609798,Hiram H Belding Elementary School,4257 N Tripp Ave,Chicago,IL,60641,(773) 534-3590,Network 1,61%,59%,64%,73%,70%,56%,23.10%,9.70%,71.90%,34%,7%,49%,LEVEL 1,NOT ON PROBATION,WELL-ORGANIZED,STRONG,NEUTRAL,STRONG,NEUTRAL,79,91,76,73,9.5,80.50%,1.4,94.50%,,No
609799,Alexander Graham Bell Elementary School,3730 N Oakley Ave,Chicago,IL,60618,(773) 534-5150,Network 4,84%,80%,55%,66%,87%,79%,4.10%,11.10%,15.10%,61%,2%,22%,LEVEL 1,NOT ON PROBATION,ORGANIZED,VERY STRONG,NEUTRAL,VERY STRONG,NOT ENOUGH DATA,93,93,99,99,1.3,3.80%,1.5,95.50%,,No
609800,Frank I Bennett Elementary School,10115 S Prairie Ave,Chicago,IL,60628,(773) 535-5460,Network 13,29%,17%,53%,49%,29%,38%,0.00%,10.50%,95.70%,0%,97%,2%,LEVEL 3,ON PROBATION,PARTIALLY ORGANIZED,WEAK,WEAK,WEAK,NOT ENOUGH DATA,3,1,8,3,36.3,29.20%,1.9,92.20%,,No
609803,James G Blaine Elementary School,1420 W Grace St,Chicago,IL,60613,(773) 534-5750,Network 4,82%,85%,67%,79%,94%,88%,5.60%,8.50%,15.00%,60%,5%,26%,LEVEL 1,NOT ON PROBATION,ORGANIZED,STRONG,NEUTRAL,VERY STRONG,NOT ENOUGH DATA,99,99,98,99,2,63.30%,2,95.80%,,No
609804,Daniel Boone Elementary School,6710 N Washtenaw Ave,Chicago,IL,60645,(773) 534-2160,Network 2,47%,49%,58%,73%,58%,49%,38.90%,10.60%,91.90%,22%,10%,45%,LEVEL 2,NOT ON PROBATION,WELL-ORGANIZED,STRONG,STRONG,NEUTRAL,NEUTRAL,38,93,40,48,3.8,29.60%,1.8,95.10%,,No
609805,Scott Joplin Elementary School,7931 S Honore St,Chicago,IL,60620,(773) 535-3425,OS4,30%,33%,67%,71%,20%,54%,0.20%,14.00%,97.10%,0%,98%,1%,LEVEL 3,ON PROBATION,PARTIALLY ORGANIZED,WEAK,NEUTRAL,VERY WEAK,NEUTRAL,62,81,8,11,36,60.70%,2,93.30%,,No
609806,Myra Bradwell Communications Arts & Sciences ES,7736 S Burnham Ave,Chicago,IL,60649,(773) 535-6600,AUSL,25%,24%,62%,67%,22%,25%,0.20%,13.30%,89.10%,1%,98%,1%,LEVEL 3,ON PROBATION,PARTIALLY ORGANIZED,VERY WEAK,NEUTRAL,WEAK,STRONG,7,59,2,6,130.9,94.80%,1.8,93.90%,,No
609807,Lionel Hampton Fine & Performing Arts ES,3434 W 77th St,Chicago,IL,60652,(773) 535-4030,Network 10,30%,19%,55%,63%,35%,36%,22.00%,14.00%,95.10%,0%,50%,46%,LEVEL 3,ON PROBATION,NOT YET ORGANIZED,WEAK,WEAK,VERY WEAK,NOT ENOUGH DATA,10,24,11,6,21.6,21.40%,1.9,94.10%,,Yes
609808,Alex Haley Elementary Academy,11411 S Eggleston Ave,Chicago,IL,60628,(773) 535-5340,Network 13,18%,16%,52%,62%,21%,31%,0.60%,10.60%,98.20%,0%,97%,2%,LEVEL 3,ON PROBATION,NOT YET ORGANIZED,WEAK,NEUTRAL,WEAK,NOT ENOUGH DATA,1,29,1,1,10,52.60%,2.8,95%,,No
609809,Lorenz Brentano Math & Science Academy ES,2723 N Fairfield Ave,Chicago,IL,60647,(773) 534-4100,OS4,52%,53%,79%,81%,49%,64%,37.70%,15.10%,89.80%,5%,4%,86%,LEVEL 1,NOT ON PROBATION,WELL-ORGANIZED,VERY STRONG,NEUTRAL,VERY STRONG,STRONG,99,99,45,54,2.6,73.30%,2.3,95.50%,,No
609810,Norman A Bridge Elementary School,3800 N New England Ave,Chicago,IL,60634,(773) 534-3718,Network 1,52%,61%,71%,80%,66%,58%,29.10%,10.80%,74.50%,51%,1%,44%,LEVEL 1,NOT ON PROBATION,WELL-ORGANIZED,STRONG,STRONG,STRONG,NOT ENOUGH DATA,97,99,59,77,3.1,33.70%,1.3,95.10%,,No
609811,Orville T Bright Elementary School,10740 S Calhoun Ave,Chicago,IL,60617,(773) 535-6215,Network 13,30%,30%,59%,65%,32%,16%,9.30%,28.30%,99.30%,0%,69%,31%,LEVEL 3,ON PROBATION,MODERATELY ORGANIZED,NEUTRAL,NEUTRAL,WEAK,NOT ENOUGH DATA,27,63,8,13,53.5,68.40%,2.5,91%,,No
609812,William H Brown Elementary School,54 N Hermitage Ave,Chicago,IL,60612,(773) 534-7250,OS4,24%,22%,61%,57%,53%,21%,0.00%,24.10%,98.20%,0%,96%,2%,LEVEL 3,ON PROBATION,WELL-ORGANIZED,VERY STRONG,STRONG,STRONG,NOT ENOUGH DATA,24,8,3,7,22.3,42.90%,1.9,92.10%,,No
609813,Charles S Brownell Elementary School,6741 S Michigan Ave,Chicago,IL,60637,(773) 535-3030,Network 12,32%,27%,65%,69%,45%,29%,0.00%,8.00%,99.60%,0%,100%,0%,LEVEL 2,NOT ON PROBATION,NOT YET ORGANIZED,WEAK,WEAK,VERY WEAK,STRONG,29,65,8,8,21.8,78.50%,2.2,94.20%,,No
609815,Edward A Bouchet Math & Science Academy ES,7355 S Jeffery Blvd,Chicago,IL,60649,(773) 535-0501,Network 12,31%,24%,60%,72%,36%,25%,1.50%,13.30%,99.40%,0%,99%,0%,LEVEL 2,ON PROBATION,WELL-ORGANIZED,VERY STRONG,VERY STRONG,STRONG,STRONG,23,92,7,7,13,62.50%,2.2,92.90%,,No
609817,Lyman A Budlong Elementary School,2701 W Foster Ave,Chicago,IL,60625,(773) 534-2591,Network 2,62%,55%,64%,78%,54%,65%,44.50%,7.20%,86.30%,25%,6%,45%,LEVEL 1,NOT ON PROBATION,MODERATELY ORGANIZED,NEUTRAL,NEUTRAL,NEUTRAL,NOT ENOUGH DATA,90,99,76,74,1.7,77.80%,1.8,94.80%,,No
609818,Luther Burbank Elementary School,2035 N Mobile Ave,Chicago,IL,60639,(773) 534-3000,Network 3,34%,27%,62%,70%,45%,55%,43.70%,12.10%,97.00%,2%,5%,92%,LEVEL 2,NOT ON PROBATION,WELL-ORGANIZED,VERY STRONG,VERY STRONG,STRONG,STRONG,44,80,17,14,3.9,49.40%,2.5,93.90%,,No
609819,Edmond Burke Elementary School,5356 S King Dr,Chicago,IL,60615,(773) 535-1325,OS4,25%,14%,77%,73%,12%,38%,0.00%,9.50%,96.20%,0%,99%,1%,LEVEL 3,ON PROBATION,ORGANIZED,NEUTRAL,STRONG,WEAK,VERY WEAK,99,95,2,3,12.4,45.10%,4.2,88.10%,,No
609820,Augustus H Burley Elementary School,1630 W Barry Ave,Chicago,IL,60657,(773) 534-5475,Network 4,73%,73%,54%,70%,79%,82%,4.70%,14.40%,20.70%,56%,3%,28%,LEVEL 1,NOT ON PROBATION,WELL-ORGANIZED,VERY STRONG,STRONG,VERY STRONG,NEUTRAL,85,94,95,93,2.8,57.10%,1.6,95.80%,,No
609821,Burnham Elementary Inclusive Academy,9928 S Crandon Ave,Chicago,IL,60617,(773) 535-6530,Network 13,52%,44%,54%,77%,62%,59%,1.50%,9.60%,93.80%,0%,98%,2%,LEVEL 2,NOT ON PROBATION,WELL-ORGANIZED,STRONG,STRONG,NEUTRAL,NEUTRAL,66,98,57,46,23.4,71.80%,1.3,94.80%,,No
609826,Rosario Castellanos Elementary School,2524 S Central Park Ave,Chicago,IL,60623,(773) 534-1620,Network 7,41%,35%,75%,68%,-,39%,22.90%,13.70%,99.00%,0%,5%,95%,LEVEL 2,NOT ON PROBATION,NOT YET ORGANIZED,WEAK,VERY WEAK,NEUTRAL,WEAK,97,79,29,25,3,61.50%,2.3,95.70%,,No
609827,Burnside Elementary Scholastic Academy,650 E 91st Pl,Chicago,IL,60619,(773) 535-3300,Network 12,43%,31%,58%,59%,46%,43%,0.30%,12.10%,85.40%,0%,98%,2%,LEVEL 3,ON PROBATION,NOT YET ORGANIZED,WEAK,WEAK,WEAK,NOT ENOUGH DATA,43,18,35,17,6.5,65.30%,2.5,93.80%,,No
609828,Jonathan Burr Elementary School,1621 W Wabansia Ave,Chicago,IL,60622,(773) 534-4090,Network 6,53%,43%,71%,73%,48%,67%,5.20%,9.00%,43.80%,37%,9%,49%,LEVEL 1,NOT ON PROBATION,WELL-ORGANIZED,VERY STRONG,STRONG,VERY STRONG,NOT ENOUGH DATA,88,86,64,48,0.9,,,95.90%,,No
609829,John C Burroughs Elementary School,3542 S Washtenaw Ave,Chicago,IL,60632,(773) 535-7226,Network 8,58%,65%,67%,75%,55%,57%,34.70%,9.80%,95.80%,4%,1%,95%,LEVEL 2,NOT ON PROBATION,WELL-ORGANIZED,STRONG,STRONG,STRONG,NEUTRAL,89,99,68,86,0.6,,,94.50%,,No
609830,Milton Brunson Math & Science Specialty ES,932 N Central Ave,Chicago,IL,60651,(773) 534-6025,Network 3,18%,16%,55%,62%,28%,26%,2.00%,11.20%,99.10%,0%,95%,4%,LEVEL 3,ON PROBATION,MODERATELY ORGANIZED,NEUTRAL,NEUTRAL,WEAK,VERY STRONG,14,54,1,1,4.7,60.40%,2.7,91.50%,,No
609832,Michael M Byrne Elementary School,5329 S Oak Park Ave,Chicago,IL,60638,(773) 535-2170,Network 10,52%,43%,54%,63%,57%,68%,7.60%,13.40%,59.00%,40%,1%,58%,LEVEL 2,NOT ON PROBATION,PARTIALLY ORGANIZED,STRONG,WEAK,NEUTRAL,NOT ENOUGH DATA,22,55,50,48,4.2,16.70%,2,94.40%,,No
609833,Charles P Caldwell Academy of Math & Science ES,8546 S Cregier,Chicago,IL,60617,(773) 535-6300,Network 12,24%,17%,52%,55%,58%,42%,0.00%,13.40%,96.50%,0%,98%,1%,LEVEL 3,ON PROBATION,NOT YET ORGANIZED,WEAK,WEAK,WEAK,WEAK,0,6,3,2,27.7,80.30%,2.7,90.70%,,No
609834,Little Village Elementary School,2620 S Lawndale Ave,Chicago,IL,60623,(773) 534-1880,Network 7,34%,29%,55%,67%,26%,30%,52.60%,8.80%,98.50%,0%,0%,100%,LEVEL 2,NOT ON PROBATION,ORGANIZED,NEUTRAL,NEUTRAL,NEUTRAL,NEUTRAL,17,55,22,18,2.2,100%,2.8,95.80%,,No
609835,Daniel R Cameron Elementary School,1234 N Monticello Ave,Chicago,IL,60651,(773) 534-4290,Network 5,37%,42%,77%,82%,46%,40%,25.20%,10.60%,99.10%,1%,36%,63%,LEVEL 2,NOT ON PROBATION,ORGANIZED,NEUTRAL,NEUTRAL,WEAK,NEUTRAL,99,99,21,37,28,74.70%,2.5,94.10%,,No
609836,Arthur E Canty Elementary School,3740 N Panama Ave,Chicago,IL,60634,(773) 534-1238,Network 1,68%,73%,71%,79%,76%,76%,12.80%,10.50%,47.70%,54%,1%,37%,LEVEL 1,NOT ON PROBATION,WELL-ORGANIZED,STRONG,NEUTRAL,STRONG,NOT ENOUGH DATA,99,99,85,93,0.3,,,95.30%,,No
609837,Andrew Carnegie Elementary School,1414 E 61st Pl,Chicago,IL,60637,(773) 535-0530,OS4,42%,38%,54%,65%,68%,49%,0.10%,6.30%,85.10%,1%,98%,1%,LEVEL 3,ON PROBATION,NOT YET ORGANIZED,WEAK,NEUTRAL,WEAK,WEAK,16,49,35,28,11.3,70.60%,3.8,94.50%,,No
609839,Carroll-Rosenwald Specialty Elementary School,2929 W 83rd St,Chicago,IL,60652,(773) 535-9414,Network 10,27%,29%,49%,59%,60%,44%,0.20%,14.30%,90.40%,0%,96%,3%,LEVEL 2,NOT ON PROBATION,ORGANIZED,STRONG,NEUTRAL,NEUTRAL,NEUTRAL,1,25,9,13,10.4,43.60%,1.9,95.50%,,Yes
609842,Rachel Carson Elementary School,5516 S Maplewood Ave,Chicago,IL,60629,(773) 535-9222,Network 8,41%,46%,67%,70%,33%,37%,50.70%,7.20%,98.40%,0%,3%,96%,LEVEL 2,NOT ON PROBATION,PARTIALLY ORGANIZED,NEUTRAL,WEAK,NEUTRAL,NEUTRAL,81,79,34,49,1.1,3.50%,3,96.90%,,No
609844,William W Carter Elementary School,5740 S Michigan Ave,Chicago,IL,60637,(773) 535-0860,AUSL,22%,13%,51%,50%,34%,9%,0.00%,9.30%,89.30%,0%,98%,2%,LEVEL 3,ON PROBATION,ORGANIZED,STRONG,STRONG,WEAK,NOT ENOUGH DATA,1,0,2,1,25.4,97.80%,2.3,88.30%,,No
609845,George Washington Carver Primary School,901 E 133rd Pl,Chicago,IL,60827,(773) 535-5674,OS4,27%,21%,71%,65%,32%,31%,0.00%,10.30%,99.60%,1%,98%,1%,LEVEL 3,ON PROBATION,NOT YET ORGANIZED,WEAK,NEUTRAL,WEAK,STRONG,91,25,3,3,10.9,23.80%,3.2,90.50%,,No
609848,Ira F Aldridge Elementary School,630 E 131st St,Chicago,IL,60827,(773) 535-5614,OS4,18%,10%,33%,37%,28%,21%,0.00%,7.10%,99.20%,0%,100%,0%,LEVEL 3,ON PROBATION,PARTIALLY ORGANIZED,WEAK,NEUTRAL,WEAK,NEUTRAL,0,0,2,0,9.3,96%,3.1,93.30%,,No
609849,George F Cassell Elementary School,11314 S Spaulding Ave,Chicago,IL,60655,(773) 535-2640,Network 10,69%,56%,75%,68%,70%,69%,3.80%,18.50%,25.60%,77%,9%,11%,LEVEL 1,NOT ON PROBATION,WELL-ORGANIZED,VERY STRONG,VERY STRONG,VERY STRONG,NEUTRAL,99,82,80,68,8,90.30%,1.5,94.20%,,No
609850,Horace Greeley Elementary School,832 W Sheridan Rd,Chicago,IL,60613,(773) 534-5800,Network 4,55%,62%,61%,85%,68%,72%,22.90%,11.00%,85.90%,11%,14%,71%,LEVEL 1,NOT ON PROBATION,ORGANIZED,NEUTRAL,NEUTRAL,STRONG,STRONG,71,99,60,81,0.8,17.90%,2,95.60%,,No
609851,Thomas Chalmers Specialty Elementary School,2745 W Roosevelt Rd,Chicago,IL,60608,(773) 534-1720,AUSL,21%,20%,55%,64%,34%,20%,0.00%,14.50%,98.80%,0%,95%,4%,LEVEL 2,ON PROBATION,WELL-ORGANIZED,VERY STRONG,VERY STRONG,STRONG,VERY STRONG,1,17,1,3,4,83.30%,4.3,95.40%,,No
609852,Eliza Chappell Elementary School,2135 W Foster Ave,Chicago,IL,60625,(773) 534-2390,Network 2,59%,59%,60%,67%,49%,71%,35.90%,20.70%,80.60%,13%,5%,62%,LEVEL 1,NOT ON PROBATION,WELL-ORGANIZED,VERY STRONG,STRONG,STRONG,NOT ENOUGH DATA,48,83,70,79,6.6,84.20%,2.4,94.80%,,No
609853,Salmon P Chase Elementary School,2021 N Point St,Chicago,IL,60647,(773) 534-4185,Network 4,46%,53%,74%,83%,28%,55%,42.60%,18.10%,97.00%,3%,2%,94%,LEVEL 2,NOT ON PROBATION,WELL-ORGANIZED,STRONG,STRONG,STRONG,NEUTRAL,95,99,38,62,6.2,66.70%,1.9,94.80%,,No
609854,Frederic Chopin Elementary School,2450 W Rice St,Chicago,IL,60622,(773) 534-4080,Network 5,43%,48%,64%,86%,95%,66%,21.20%,19.70%,94.60%,6%,20%,70%,LEVEL 2,NOT ON PROBATION,MODERATELY ORGANIZED,NEUTRAL,NEUTRAL,STRONG,STRONG,96,99,29,56,0.7,20%,4,94%,,No
609855,Walter S Christopher Elementary School,5042 S Artesian Ave,Chicago,IL,60632,(773) 535-9375,Network 8,48%,36%,55%,62%,27%,35%,40.80%,60.60%,92.80%,6%,26%,67%,,,NOT YET ORGANIZED,WEAK,VERY WEAK,STRONG,NOT ENOUGH DATA,29,50,34,31,3,27.30%,2.4,82.60%,,Yes
609856,Henry Clay Elementary School,13231 S Burley Ave,Chicago,IL,60633,(773) 535-5600,Network 13,38%,45%,71%,83%,30%,35%,29.40%,10.20%,95.40%,11%,8%,77%,LEVEL 3,ON PROBATION,ORGANIZED,NOT ENOUGH DATA,NOT ENOUGH DATA,NEUTRAL,NOT ENOUGH DATA,94,99,23,40,0.2,,,95%,,No
609857,Grover Cleveland Elementary School,3121 W Byron St,Chicago,IL,60618,(773) 534-5130,Network 1,46%,51%,58%,71%,47%,51%,37.70%,17.90%,90.00%,6%,4%,81%,LEVEL 2,NOT ON PROBATION,MODERATELY ORGANIZED,NEUTRAL,NEUTRAL,NEUTRAL,NEUTRAL,46,94,48,67,4.2,68.20%,1.8,94.60%,,No
609859,DeWitt Clinton Elementary School,6110 N Fairfield Ave,Chicago,IL,60659,(773) 534-2025,Network 2,49%,58%,66%,80%,47%,53%,43.00%,6.50%,90.80%,16%,12%,31%,LEVEL 1,NOT ON PROBATION,WELL-ORGANIZED,STRONG,NEUTRAL,VERY STRONG,NOT ENOUGH DATA,83,99,41,81,2.1,28.60%,1.4,95.50%,,No
609861,Henry R Clissold Elementary School,2350 W 110th Pl,Chicago,IL,60643,(773) 535-2560,Network 10,58%,56%,67%,70%,60%,64%,0.90%,14.50%,42.00%,30%,63%,5%,LEVEL 2,NOT ON PROBATION,WELL-ORGANIZED,VERY STRONG,STRONG,VERY STRONG,NEUTRAL,88,83,73,66,1.3,29.20%,1.9,95%,,No
609862,Edward Coles Elementary Language Academy,8441 S Yates Blvd,Chicago,IL,60617,(773) 535-6550,Network 12,33%,58%,63%,75%,59%,52%,0.20%,9.50%,84.10%,0%,97%,2%,LEVEL 2,NOT ON PROBATION,NOT YET ORGANIZED,NEUTRAL,WEAK,WEAK,WEAK,44,99,16,70,30.1,65.20%,2.7,93%,,No
609863,Christopher Columbus Elementary School,1003 N Leavitt St,Chicago,IL,60622,(773) 534-4350,Network 5,47%,56%,68%,76%,43%,64%,25.50%,5.10%,75.90%,55%,5%,36%,LEVEL 1,NOT ON PROBATION,WELL-ORGANIZED,STRONG,WEAK,STRONG,NEUTRAL,85,99,55,76,4.1,36.40%,1.6,94.60%,,No
609864,John W Cook Elementary School,8150 S Bishop St,Chicago,IL,60620,(773) 535-3315,Network 11,29%,30%,71%,80%,24%,24%,0.00%,16.20%,99.50%,0%,97%,1%,LEVEL 2,NOT ON PROBATION,ORGANIZED,NEUTRAL,NEUTRAL,WEAK,NEUTRAL,61,99,8,16,27.2,63.10%,2.6,92.70%,,No
609865,Jordan Elementary Community School,7414 N Wolcott Ave,Chicago,IL,60626,(773) 534-2220,Network 2,26%,35%,46%,62%,35%,36%,38.10%,12.50%,98.00%,2%,37%,57%,LEVEL 2,NOT ON PROBATION,NOT YET ORGANIZED,WEAK,NEUTRAL,NEUTRAL,STRONG,1,31,10,16,10,43.20%,2.2,94.70%,,No
609866,John C Coonley Elementary School,4046 N Leavitt St,Chicago,IL,60618,(773) 534-5140,Network 2,77%,77%,58%,68%,90%,87%,9.40%,13.80%,29.20%,58%,1%,30%,LEVEL 1,NOT ON PROBATION,WELL-ORGANIZED,VERY STRONG,STRONG,VERY STRONG,NEUTRAL,92,96,99,99,0.3,20%,1,95.60%,,No
609867,Peter Cooper Elementary Dual Language Academy,1624 W 19th St,Chicago,IL,60608,(773) 534-7205,Network 7,34%,43%,65%,63%,25%,39%,61.90%,14.60%,97.80%,1%,2%,96%,LEVEL 2,NOT ON PROBATION,PARTIALLY ORGANIZED,NEUTRAL,WEAK,NOT ENOUGH DATA,NOT ENOUGH DATA,46,37,25,42,1.1,,,95.50%,,No
609869,Anna R. Langford Community Academy,6010 S Throop St,Chicago,IL,60636,(773) 535-9180,Network 11,22%,17%,71%,58%,19%,50%,0.00%,9.70%,99.30%,0%,100%,1%,LEVEL 3,ON PROBATION,WELL-ORGANIZED,STRONG,STRONG,VERY WEAK,NEUTRAL,53,4,1,2,10.1,64.20%,2.4,91.10%,,No
609870,Daniel J Corkery Elementary School,2510 S Kildare Ave,Chicago,IL,60623,(773) 534-1650,Network 7,34%,37%,63%,74%,32%,46%,40.40%,11.00%,96.70%,1%,18%,80%,LEVEL 3,ON PROBATION,ORGANIZED,NEUTRAL,STRONG,NEUTRAL,WEAK,56,91,19,31,11.9,60.70%,1.5,94.40%,,No
609871,Barbara Vick Early Childhood & Family Center,2554 W 113th St,Chicago,IL,60655,(773) 535-2671,Network 10,-,-,-,-,-,-,27.00%,36.50%,50.30%,42%,14%,39%,,,WELL-ORGANIZED,VERY STRONG,STRONG,NOT ENOUGH DATA,STRONG,,,,,,,,87.90%,,No
609872,Manuel Perez Elementary School,1241 W 19th St,Chicago,IL,60608,(773) 534-7650,Network 7,55%,55%,79%,94%,47%,46%,40.10%,10.60%,100.00%,0%,1%,98%,LEVEL 1,NOT ON PROBATION,ORGANIZED,NEUTRAL,STRONG,NEUTRAL,STRONG,99,99,63,65,3,55%,3.7,95.70%,,No
609873,Crown Community Academy of Fine Arts Center ES,2128 S Saint Louis Ave,Chicago,IL,60623,(773) 534-1680,OS4,26%,30%,70%,80%,33%,32%,1.10%,14.00%,96.60%,0%,96%,4%,LEVEL 3,ON PROBATION,ORGANIZED,NEUTRAL,NEUTRAL,WEAK,STRONG,90,97,6,14,37.4,32.30%,2.1,92%,,No
609874,Everett McKinley Dirksen Elementary School,8601 W Foster Ave,Chicago,IL,60656,(773) 534-1090,Network 1,54%,61%,65%,64%,66%,60%,43.60%,11.60%,76.20%,65%,3%,12%,LEVEL 1,NOT ON PROBATION,PARTIALLY ORGANIZED,WEAK,STRONG,NEUTRAL,NOT ENOUGH DATA,95,82,66,81,4,28.20%,1.9,95.40%,,No
609875,Charles R Darwin Elementary School,3116 W Belden Ave,Chicago,IL,60647,(773) 534-4110,Network 4,45%,41%,68%,72%,38%,65%,39.60%,15.20%,92.20%,4%,11%,78%,LEVEL 2,NOT ON PROBATION,WELL-ORGANIZED,VERY STRONG,NEUTRAL,VERY STRONG,VERY STRONG,97,99,45,48,6.4,53.50%,2,94.40%,,No
609876,Nathan S Davis Elementary School,3014 W 39th Pl,Chicago,IL,60632,(773) 535-4540,Network 8,34%,32%,57%,61%,23%,25%,53.40%,8.50%,99.00%,2%,1%,96%,LEVEL 3,ON PROBATION,PARTIALLY ORGANIZED,NEUTRAL,NEUTRAL,NEUTRAL,NEUTRAL,24,35,18,19,2.4,28%,3.7,94.70%,,No
609879,Charles Gates Dawes Elementary School,3810 W 81st Pl,Chicago,IL,60652,(773) 535-2350,Network 10,49%,49%,68%,76%,45%,32%,18.60%,13.10%,96.70%,1%,20%,77%,LEVEL 2,NOT ON PROBATION,WELL-ORGANIZED,STRONG,STRONG,VERY STRONG,NOT ENOUGH DATA,88,98,51,57,7,84.90%,2.8,95.70%,,Yes
609880,Stephen Decatur Classical Elementary School,7030 N Sacramento Ave,Chicago,IL,60645,(773) 534-2201,Network 2,99%,96%,47%,60%,100%,98%,0.00%,6.60%,11.20%,42%,6%,14%,LEVEL 1,NOT ON PROBATION,WELL-ORGANIZED,VERY STRONG,STRONG,VERY STRONG,WEAK,99,93,99,99,,,,95.70%,,No
609883,Charles S Deneen Elementary School,7240 S Wabash Ave,Chicago,IL,60619,(773) 535-3035,AUSL,35%,31%,73%,83%,29%,33%,0.20%,15.20%,99.00%,1%,98%,1%,LEVEL 2,ON PROBATION,PARTIALLY ORGANIZED,WEAK,VERY WEAK,NEUTRAL,NOT ENOUGH DATA,93,99,10,17,8.8,100%,2.4,95.40%,,No
609884,William E Dever Elementary School,3436 N Osceola Ave,Chicago,IL,60634,(773) 534-3090,Network 1,58%,70%,70%,78%,55%,62%,26.10%,12.80%,62.80%,48%,2%,44%,LEVEL 1,NOT ON PROBATION,ORGANIZED,STRONG,NEUTRAL,STRONG,NOT ENOUGH DATA,95,99,70,90,3.3,31.80%,1.5,95%,,No
609885,Dewey Elementary Academy of Fine Arts,5415 S Union Ave,Chicago,IL,60609,(773) 535-1666,AUSL,11%,9%,57%,66%,19%,8%,0.80%,12.50%,99.20%,0%,96%,3%,LEVEL 3,ON PROBATION,NOT YET ORGANIZED,WEAK,VERY WEAK,WEAK,VERY STRONG,1,13,0,0,53.9,85.30%,2.5,90%,,No
609887,Arthur Dixon Elementary School,8306 S Saint Lawrence Ave,Chicago,IL,60619,(773) 535-3834,Network 12,51%,50%,63%,73%,52%,54%,0.20%,9.50%,88.20%,0%,99%,1%,LEVEL 1,NOT ON PROBATION,ORGANIZED,NEUTRAL,NEUTRAL,NEUTRAL,STRONG,82,94,51,56,29.6,71.80%,3.2,94.60%,,No
609888,Mary Mapes Dodge Elementary Renaissance Academy,431 N Troy St,Chicago,IL,60612,(773) 534-6640,AUSL,41%,44%,65%,67%,33%,52%,0.00%,9.30%,92.30%,0%,99%,1%,LEVEL 3,ON PROBATION,PARTIALLY ORGANIZED,WEAK,WEAK,NEUTRAL,STRONG,86,87,28,40,18.9,96.40%,2.3,93%,,No
609891,James R Doolittle Jr Elementary School,535 E 35th St,Chicago,IL,60616,(773) 535-1040,Network 9,13%,12%,48%,62%,17%,14%,0.30%,11.20%,97.40%,0%,98%,2%,LEVEL 3,ON PROBATION,PARTIALLY ORGANIZED,NEUTRAL,NEUTRAL,WEAK,WEAK,0,19,0,1,72.4,43.90%,2.6,89.20%,,No
609893,John C Dore Elementary School,6108 S Natoma Ave,Chicago,IL,60638,(773) 535-2080,Network 10,61%,63%,78%,83%,64%,51%,16.90%,16.90%,58.50%,34%,3%,61%,LEVEL 1,NOT ON PROBATION,ORGANIZED,STRONG,WEAK,STRONG,NOT ENOUGH DATA,99,99,75,82,3.3,18.40%,2.1,95.40%,,Yes
609894,John B Drake Elementary School,2710 S Dearborn St,Chicago,IL,60616,(773) 534-9129,Network 9,42%,34%,81%,86%,44%,32%,0.80%,17.40%,92.30%,0%,96%,2%,LEVEL 2,ON PROBATION,WELL-ORGANIZED,STRONG,STRONG,NEUTRAL,NEUTRAL,99,99,32,20,37.3,41.30%,3,93%,,No
609895,Turner-Drew Elementary Language Academy,9300 S Princeton Ave,Chicago,IL,60620,(773) 535-5720,Network 11,57%,49%,69%,78%,85%,62%,0.00%,15.00%,83.60%,0%,97%,3%,LEVEL 1,NOT ON PROBATION,PARTIALLY ORGANIZED,WEAK,NEUTRAL,NEUTRAL,NEUTRAL,94,92,63,49,41.2,100%,1.6,95.70%,,No
609896,Thomas Drummond Elementary School,1845 W Cortland St,Chicago,IL,60622,(773) 534-4120,Network 6,67%,55%,55%,58%,83%,74%,8.00%,10.30%,29.20%,39%,6%,41%,LEVEL 1,NOT ON PROBATION,WELL-ORGANIZED,VERY STRONG,VERY STRONG,VERY STRONG,NEUTRAL,61,28,86,65,1.4,17.90%,2.2,94.60%,,No
609897,Charles W Earle Elementary School,2040 W 62nd St,Chicago,IL,60636,(773) 535-9130,Network 11,34%,45%,75%,90%,31%,43%,0.20%,12.30%,97.20%,0%,97%,3%,LEVEL 3,ON PROBATION,ORGANIZED,NEUTRAL,NEUTRAL,VERY WEAK,WEAK,99,99,14,44,70.7,56.10%,2.6,90.70%,,No
609898,John F Eberhart Elementary School,3400 W 65th Pl,Chicago,IL,60629,(773) 535-9190,Network 10,38%,39%,60%,73%,32%,39%,40.00%,8.30%,97.80%,2%,4%,94%,LEVEL 2,NOT ON PROBATION,PARTIALLY ORGANIZED,NEUTRAL,NEUTRAL,WEAK,NOT ENOUGH DATA,40,86,30,35,10.5,40.30%,2.7,94.80%,,No
609899,Christian Ebinger Elementary School,7350 W Pratt Ave,Chicago,IL,60631,(773) 534-1070,Network 1,74%,79%,78%,85%,79%,84%,5.20%,13.70%,17.30%,73%,1%,20%,LEVEL 1,NOT ON PROBATION,WELL-ORGANIZED,VERY STRONG,VERY STRONG,VERY STRONG,NOT ENOUGH DATA,99,99,96,95,2.4,42.50%,1.1,94.80%,,No
609900,George W Curtis Elementary School,32 E 115th St,Chicago,IL,60628,(773) 535-5050,AUSL,24%,24%,65%,73%,19%,27%,2.10%,11.30%,98.60%,0%,96%,3%,LEVEL 2,ON PROBATION,NOT YET ORGANIZED,VERY WEAK,VERY WEAK,WEAK,NOT ENOUGH DATA,17,89,2,10,22.1,88.10%,3.1,92.50%,,No
609901,Edgebrook Elementary School,6525 N Hiawatha Ave,Chicago,IL,60646,(773) 534-1194,Network 1,82%,71%,64%,66%,97%,88%,1.00%,13.50%,11.50%,68%,3%,15%,LEVEL 1,NOT ON PROBATION,WELL-ORGANIZED,VERY STRONG,VERY STRONG,VERY STRONG,NEUTRAL,94,67,98,90,1.8,45%,1.6,96.20%,,No
609902,Ralph H Metcalfe Elementary Community Academy,12339 S Normal Ave,Chicago,IL,60628,(773) 535-5590,Network 13,28%,31%,60%,62%,31%,30%,0.00%,8.50%,79.80%,0%,99%,1%,LEVEL 3,ON PROBATION,MODERATELY ORGANIZED,NEUTRAL,WEAK,NEUTRAL,NEUTRAL,26,44,10,10,39.3,48.40%,3,96.70%,,No
609903,Richard Edwards Elementary School,4815 S Karlov Ave,Chicago,IL,60632,(773) 535-4875,Network 8,31%,47%,62%,59%,35%,56%,47.90%,8.40%,96.60%,3%,1%,94%,LEVEL 2,NOT ON PROBATION,ORGANIZED,STRONG,NEUTRAL,NEUTRAL,WEAK,38,57,12,54,3.9,39.10%,2.3,95.50%,,Yes
609904,Edward K Ellington Elementary School,243 N Parkside Ave,Chicago,IL,60644,(773) 534-6361,Network 3,40%,36%,72%,77%,61%,21%,1.10%,17.30%,98.10%,0%,96%,3%,LEVEL 1,NOT ON PROBATION,WELL-ORGANIZED,STRONG,STRONG,VERY STRONG,VERY STRONG,95,99,24,22,3.3,36.70%,2.1,96.20%,,No
609907,Leif Ericson Elementary Scholastic Academy,3600 W 5th Ave,Chicago,IL,60624,(773) 534-6660,OS4,32%,58%,63%,78%,47%,38%,0.00%,4.90%,98.20%,0%,93%,1%,LEVEL 2,ON PROBATION,ORGANIZED,STRONG,NEUTRAL,STRONG,STRONG,75,99,16,69,4.7,57.50%,2.4,94.70%,,No
609908,Esmond Elementary School,1865 W Montvale,Chicago,IL,60643,(773) 535-2650,OS4,36%,31%,59%,42%,66%,34%,0.00%,13.50%,96.90%,0%,97%,3%,LEVEL 2,NOT ON PROBATION,ORGANIZED,NEUTRAL,NEUTRAL,NEUTRAL,NEUTRAL,43,0,17,12,18.5,90%,2,91.70%,,No
609909,Edward Everett Elementary School,3419 S Bell Ave,Chicago,IL,60608,(773) 535-4550,Network 8,36%,37%,71%,81%,21%,30%,42.20%,10.90%,94.50%,4%,2%,92%,LEVEL 3,ON PROBATION,MODERATELY ORGANIZED,NEUTRAL,STRONG,VERY WEAK,STRONG,95,92,33,36,10.7,16.50%,1.6,94%,,No
609910,Laughlin Falconer Elementary School,3020 N Lamon Ave,Chicago,IL,60641,(773) 534-3560,Network 3,46%,53%,69%,79%,43%,53%,45.00%,11.00%,96.40%,4%,2%,92%,LEVEL 1,NOT ON PROBATION,PARTIALLY ORGANIZED,WEAK,NEUTRAL,NEUTRAL,STRONG,81,99,41,62,1.7,39.10%,2.4,95.90%,,No
609912,James B Farnsworth Elementary School,5414 N Linder Ave,Chicago,IL,60630,(773) 534-3535,Network 1,62%,56%,65%,72%,55%,73%,26.60%,22.90%,60.50%,42%,2%,41%,LEVEL 1,NOT ON PROBATION,WELL-ORGANIZED,STRONG,STRONG,STRONG,NOT ENOUGH DATA,84,91,76,75,0.8,,,92.90%,,No
609917,Fernwood Elementary School,10041 S Union Ave,Chicago,IL,60628,(773) 535-2700,Network 13,46%,51%,83%,87%,62%,17%,0.00%,11.60%,97.40%,0%,99%,0%,LEVEL 2,NOT ON PROBATION,WELL-ORGANIZED,STRONG,NEUTRAL,STRONG,STRONG,99,99,53,49,,,,94.10%,,No
609918,Eugene Field Elementary School,7019 N Ashland Ave,Chicago,IL,60626,(773) 534-2030,Network 2,45%,50%,74%,78%,-,30%,24.40%,13.80%,94.10%,2%,36%,51%,LEVEL 2,NOT ON PROBATION,ORGANIZED,NEUTRAL,STRONG,NEUTRAL,NOT ENOUGH DATA,99,99,33,51,,,,94.90%,,No
609919,John Fiske Elementary School,6020 S Langley Ave,Chicago,IL,60637,(773) 535-0990,Network 9,28%,21%,73%,79%,38%,21%,0.00%,9.30%,99.60%,0%,99%,1%,LEVEL 3,ON PROBATION,ORGANIZED,NEUTRAL,STRONG,NEUTRAL,NEUTRAL,82,58,6,4,26.2,57%,3.3,93.70%,,No
609920,Gerald Delgado Kanoon Elementary Magnet School,2233 S Kedzie Ave,Chicago,IL,60623,(773) 534-1736,Network 7,31%,34%,69%,64%,21%,36%,51.30%,12.20%,99.60%,0%,1%,99%,LEVEL 2,ON PROBATION,PARTIALLY ORGANIZED,WEAK,NEUTRAL,NEUTRAL,NOT ENOUGH DATA,79,64,12,21,5.7,67.70%,2.1,95.10%,,No
609921,Telpochcalli Elementary School,2832 W 24th Blvd,Chicago,IL,60623,(773) 534-1402,OS4,36%,39%,61%,42%,27%,43%,43.80%,18.50%,95.50%,1%,2%,97%,LEVEL 2,ON PROBATION,PARTIALLY ORGANIZED,NOT ENOUGH DATA,NOT ENOUGH DATA,STRONG,NEUTRAL,64,1,21,28,2.6,17.50%,1.1,95.30%,,No
609922,Belmont-Cragin Elementary School,5252 W Palmer St,Chicago,IL,60639,(773) 534-2900,Network 3,40%,41%,62%,77%,46%,29%,67.50%,12.60%,94.20%,3%,4%,91%,LEVEL 1,NOT ON PROBATION,WELL-ORGANIZED,VERY STRONG,STRONG,VERY STRONG,STRONG,79,99,30,38,0.3,4.70%,7.5,95%,,No
609924,Fort Dearborn Elementary School,9025 S Throop St,Chicago,IL,60620,(773) 535-2680,Network 11,41%,32%,72%,69%,55%,36%,0.00%,10.80%,96.40%,0%,99%,0%,LEVEL 3,ON PROBATION,NOT YET ORGANIZED,WEAK,WEAK,WEAK,NEUTRAL,89,74,20,17,14.3,81%,2.3,91.20%,,No
609925,Joseph Kellman Corporate Community ES,751 S Sacramento Blvd,Chicago,IL,60612,(773) 534-6602,Network 5,37%,43%,62%,73%,45%,57%,0.00%,6.40%,94.30%,0%,98%,1%,LEVEL 2,NOT ON PROBATION,ORGANIZED,NEUTRAL,NEUTRAL,NEUTRAL,VERY STRONG,47,94,23,37,17.2,74.60%,1.4,95.30%,,No
609926,Franklin Elementary Fine Arts Center,225 W Evergreen Ave,Chicago,IL,60610,(773) 534-8510,Network 4,73%,71%,60%,74%,83%,80%,3.20%,12.40%,41.00%,33%,37%,20%,LEVEL 1,NOT ON PROBATION,WELL-ORGANIZED,STRONG,STRONG,STRONG,WEAK,89,99,92,97,9.1,40.20%,1.8,95.50%,,No
609927,Foster Park Elementary School,8530 S Wood St,Chicago,IL,60620,(773) 535-2725,Network 11,38%,38%,66%,79%,30%,35%,0.30%,21.50%,92.40%,0%,98%,2%,LEVEL 3,ON PROBATION,ORGANIZED,STRONG,NEUTRAL,WEAK,STRONG,96,99,18,32,17.8,88.60%,1.9,92.10%,,No
609928,Melville W Fuller Elementary School,4214 S Saint Lawrence Ave,Chicago,IL,60653,(773) 535-1687,AUSL,20%,15%,64%,76%,9%,12%,0.00%,15.40%,94.30%,0%,97%,3%,LEVEL 3,ON PROBATION,ORGANIZED,NEUTRAL,STRONG,NEUTRAL,VERY STRONG,11,64,1,1,29.7,71.40%,2.2,91.60%,,No
609929,Robert Fulton Elementary School,5300 S Hermitage Ave,Chicago,IL,60609,(773) 535-9000,Network 11,22%,50%,64%,68%,33%,41%,16.50%,9.80%,98.80%,1%,62%,37%,LEVEL 2,ON PROBATION,ORGANIZED,WEAK,STRONG,WEAK,STRONG,19,97,3,51,9.7,64.30%,3.2,94.70%,,No
609930,Frederick Funston Elementary School,2010 N Central Park,Chicago,IL,60647,(773) 534-4125,Network 4,31%,30%,62%,62%,38%,29%,37.10%,14.70%,97.30%,1%,12%,86%,LEVEL 3,ON PROBATION,NOT YET ORGANIZED,VERY WEAK,VERY WEAK,WEAK,NEUTRAL,30,18,13,15,11,71.30%,2.4,94%,,No
609933,Stephen F Gale Elementary Community Academy,1631 W Jonquil Ter,Chicago,IL,60626,(773) 534-2100,Network 2,22%,10%,60%,53%,33%,28%,25.10%,15.60%,96.50%,4%,62%,24%,LEVEL 3,ON PROBATION,WELL-ORGANIZED,STRONG,STRONG,NEUTRAL,NOT ENOUGH DATA,10,6,4,1,15.3,55.10%,2.2,91.20%,,No
609935,Matthew Gallistel Elementary Language Academy,10347 S Ewing Ave,Chicago,IL,60617,(773) 535-6540,Network 13,34%,41%,58%,78%,36%,24%,26.10%,8.30%,95.90%,1%,2%,96%,LEVEL 3,ON PROBATION,NOT YET ORGANIZED,WEAK,WEAK,WEAK,WEAK,18,98,18,42,4.1,47.90%,3.1,94.30%,,No
609937,John W Garvy Elementary School,5225 N Oak Park Ave,Chicago,IL,60656,(773) 534-1185,Network 1,66%,64%,62%,73%,74%,60%,15.70%,14.00%,40.80%,60%,1%,27%,LEVEL 1,NOT ON PROBATION,WELL-ORGANIZED,VERY STRONG,VERY STRONG,STRONG,STRONG,84,92,81,81,4.7,21.60%,1.3,95.40%,,No
609938,Joseph E Gary Elementary School,3740 W 31st St,Chicago,IL,60623,(773) 534-1455,Network 7,36%,36%,59%,61%,27%,38%,40.90%,13.20%,98.40%,0%,0%,99%,LEVEL 2,NOT ON PROBATION,NOT YET ORGANIZED,WEAK,WEAK,WEAK,WEAK,21,42,18,24,11.4,33.80%,1.6,95.80%,,No
609939,Frank L Gillespie Elementary School,9301 S State St,Chicago,IL,60619,(773) 535-5065,Network 12,37%,34%,72%,89%,44%,42%,0.70%,15.30%,94.70%,0%,99%,1%,LEVEL 2,NOT ON PROBATION,NOT ENOUGH DATA,NOT ENOUGH DATA,NOT ENOUGH DATA,NOT ENOUGH DATA,NOT ENOUGH DATA,99,99,19,26,2,57.10%,3,93.10%,,No
609941,Asa Philip Randolph Elementary School,7316 S Hoyne Ave,Chicago,IL,60636,(773) 535-9015,Network 11,25%,32%,79%,79%,22%,46%,0.80%,11.60%,99.00%,0%,96%,3%,LEVEL 3,ON PROBATION,PARTIALLY ORGANIZED,WEAK,NEUTRAL,WEAK,NEUTRAL,99,99,8,18,60.9,57.90%,1.7,92.20%,,No
609942,Johann W von Goethe Elementary School,2236 N Rockwell St,Chicago,IL,60647,(773) 534-4135,Network 4,56%,58%,80%,84%,56%,64%,24.40%,10.00%,81.20%,12%,2%,81%,LEVEL 1,NOT ON PROBATION,WELL-ORGANIZED,VERY STRONG,VERY STRONG,STRONG,NEUTRAL,99,99,67,77,0.8,60%,4.2,94.60%,,No
609943,Samuel Gompers Fine Arts Options ES,12302 S State St,Chicago,IL,60628,(773) 535-5475,Network 13,26%,41%,48%,57%,-,41%,0.00%,15.60%,89.40%,0%,97%,1%,LEVEL 3,ON PROBATION,WELL-ORGANIZED,NEUTRAL,STRONG,WEAK,STRONG,0,24,6,21,45.1,45.50%,2.7,93.80%,,No
609944,Virgil Grissom Elementary School,12810 S Escanaba Ave,Chicago,IL,60633,(773) 535-5380,Network 13,55%,65%,54%,72%,83%,62%,23.30%,10.90%,71.10%,21%,6%,71%,LEVEL 1,NOT ON PROBATION,PARTIALLY ORGANIZED,NOT ENOUGH DATA,NOT ENOUGH DATA,WEAK,WEAK,56,96,68,82,1.8,11.80%,1.7,95.40%,,No
609945,William C Goudy Elementary School,5120 N Winthrop Ave,Chicago,IL,60640,(773) 534-2480,Network 2,57%,62%,83%,84%,64%,60%,39.40%,11.20%,92.70%,7%,22%,31%,LEVEL 1,NOT ON PROBATION,WELL-ORGANIZED,STRONG,STRONG,STRONG,STRONG,99,99,67,81,7.2,42.90%,1.6,96.30%,,No
609947,Alexander Graham Elementary School,4436 S Union Ave,Chicago,IL,60609,(773) 535-1308,Network 6,38%,45%,59%,72%,31%,59%,11.30%,10.90%,94.70%,31%,27%,42%,LEVEL 2,NOT ON PROBATION,WELL-ORGANIZED,VERY STRONG,STRONG,VERY STRONG,NOT ENOUGH DATA,57,88,21,48,30,85.50%,1.7,92.30%,,No
609949,William P Gray Elementary School,3730 N Laramie Ave,Chicago,IL,60641,(773) 534-3520,Network 1,59%,65%,71%,83%,50%,58%,25.90%,10.20%,92.30%,11%,1%,84%,LEVEL 1,NOT ON PROBATION,ORGANIZED,NEUTRAL,NEUTRAL,STRONG,NOT ENOUGH DATA,98,99,68,84,4,78.50%,1.3,95.30%,,No
609950,Josefa Ortiz De Dominguez Elementary School,3000 S Lawndale Ave,Chicago,IL,60623,(773) 534-1600,Network 7,51%,49%,-,-,-,-,75.10%,10.70%,97.80%,1%,0%,98%,NOT ENOUGH DATA,NOT APPLICABLE,MODERATELY ORGANIZED,STRONG,WEAK,NOT ENOUGH DATA,NEUTRAL,,,57,59,0.8,25%,2.3,94.70%,,No
609951,Ariel Elementary Community Academy,1119 E 46th St,Chicago,IL,60653,(773) 535-1996,Network 9,49%,45%,78%,81%,60%,70%,0.00%,10.60%,80.20%,0%,97%,2%,LEVEL 1,NOT ON PROBATION,ORGANIZED,STRONG,STRONG,WEAK,NEUTRAL,99,99,53,51,3.1,37.80%,2.5,95%,,No
609952,Nathanael Greene Elementary School,3525 S Honore,Chicago,IL,60609,(773) 535-4560,Network 8,42%,59%,86%,80%,38%,49%,47.40%,8.10%,95.80%,5%,3%,90%,LEVEL 2,NOT ON PROBATION,ORGANIZED,STRONG,STRONG,NOT ENOUGH DATA,VERY STRONG,99,99,37,68,2.6,72.70%,1.8,95%,,No
609954,John Milton Gregory Elementary School,3715 W Polk St,Chicago,IL,60624,(773) 534-6820,Network 5,37%,50%,81%,86%,47%,79%,0.00%,13.30%,98.40%,0%,99%,1%,LEVEL 1,NOT ON PROBATION,MODERATELY ORGANIZED,NEUTRAL,STRONG,NEUTRAL,STRONG,99,99,14,56,3.9,81.30%,4.6,95.30%,,No
609955,Walter Q Gresham Elementary School,8524 S Green St,Chicago,IL,60620,(773) 535-3350,Network 11,17%,16%,56%,64%,17%,21%,0.30%,12.60%,96.20%,0%,99%,0%,LEVEL 3,ON PROBATION,ORGANIZED,STRONG,STRONG,WEAK,NEUTRAL,0,18,1,1,33.8,29.70%,2.3,92.40%,,No
609956,Robert L Grimes Elementary School,5450 W 64th Pl,Chicago,IL,60638,(773) 535-2364,Network 10,51%,47%,70%,77%,48%,56%,32.30%,9.00%,89.50%,13%,1%,85%,LEVEL 2,NOT ON PROBATION,ORGANIZED,STRONG,STRONG,STRONG,NEUTRAL,99,99,56,52,3.4,44.40%,1.6,94.80%,,No
609958,Frank W Gunsaulus Elementary Scholastic Academy,4420 S Sacramento Ave,Chicago,IL,60632,(773) 535-7215,Network 8,51%,53%,69%,80%,56%,58%,28.90%,7.80%,82.50%,2%,5%,88%,LEVEL 2,NOT ON PROBATION,PARTIALLY ORGANIZED,NEUTRAL,NEUTRAL,NEUTRAL,NEUTRAL,94,99,50,60,1.1,3.60%,1.2,96.50%,,No
609959,John Charles Haines Elementary School,247 W 23rd Pl,Chicago,IL,60616,(773) 534-9200,Network 6,62%,74%,62%,76%,57%,65%,27.40%,5.10%,93.80%,0%,13%,2%,LEVEL 1,NOT ON PROBATION,PARTIALLY ORGANIZED,NEUTRAL,WEAK,WEAK,VERY WEAK,85,99,77,96,,,,98.50%,,No
609960,Nathan Hale Elementary School,6140 S Melvina,Chicago,IL,60638,(773) 535-2265,Network 10,52%,46%,75%,78%,50%,48%,16.10%,14.90%,78.30%,29%,1%,67%,LEVEL 2,NOT ON PROBATION,WELL-ORGANIZED,STRONG,STRONG,STRONG,NEUTRAL,99,99,60,53,3.7,28.90%,1.9,94.30%,,Yes
609961,Ninos Heroes Elementary Academic Center,8344 S Commercial Ave,Chicago,IL,60617,(773) 535-6694,Network 12,33%,36%,57%,66%,35%,44%,6.40%,9.40%,97.50%,1%,79%,19%,LEVEL 3,ON PROBATION,PARTIALLY ORGANIZED,WEAK,VERY WEAK,NEUTRAL,NEUTRAL,13,90,11,23,23.8,44.30%,2.7,93.20%,,No
609963,Alexander Hamilton Elementary School,1650 W Cornelia Ave,Chicago,IL,60657,(773) 534-5484,Network 4,67%,57%,63%,73%,81%,46%,6.80%,13.10%,35.20%,50%,11%,29%,LEVEL 1,NOT ON PROBATION,WELL-ORGANIZED,VERY STRONG,STRONG,VERY STRONG,STRONG,97,85,91,80,4.3,37.20%,1.4,94.70%,,No
609964,John H Hamline Elementary School,4747 S Bishop St,Chicago,IL,60609,(773) 535-4565,Network 8,30%,36%,58%,63%,26%,43%,53.60%,10.60%,98.10%,1%,10%,87%,LEVEL 2,NOT ON PROBATION,NOT YET ORGANIZED,VERY WEAK,VERY WEAK,WEAK,NEUTRAL,13,52,8,33,5.5,33.60%,1.6,94.20%,,No
609966,Charles G Hammond Elementary School,2819 W 21st Pl,Chicago,IL,60623,(773) 535-4580,OS4,22%,23%,70%,78%,25%,26%,46.80%,14.60%,97.70%,1%,10%,89%,LEVEL 3,ON PROBATION,PARTIALLY ORGANIZED,WEAK,NEUTRAL,WEAK,NEUTRAL,57,99,2,4,16.1,5.40%,2.1,92.60%,,No
609967,William F Finkl Elementary School,2332 S Western Ave,Chicago,IL,60608,(773) 535-5850,Network 7,37%,40%,57%,61%,37%,38%,34.40%,20.40%,99.40%,3%,9%,86%,LEVEL 2,NOT ON PROBATION,PARTIALLY ORGANIZED,WEAK,VERY WEAK,NEUTRAL,NEUTRAL,24,34,23,34,11.9,74.40%,1.7,94.50%,,No
609968,Sharon Christa McAuliffe Elementary School,1841 N Springfield Ave,Chicago,IL,60647,(773) 534-4400,Network 4,25%,31%,58%,63%,24%,31%,41.70%,10.80%,96.90%,3%,5%,90%,LEVEL 3,ON PROBATION,NOT YET ORGANIZED,WEAK,WEAK,NEUTRAL,STRONG,3,60,5,20,14.2,20.90%,2,94%,,No
609969,Bret Harte Elementary School,1556 E 56th St,Chicago,IL,60637,(773) 535-0870,Network 9,54%,48%,72%,64%,49%,59%,3.90%,17.60%,78.20%,4%,84%,8%,LEVEL 2,NOT ON PROBATION,PARTIALLY ORGANIZED,WEAK,WEAK,NEUTRAL,NEUTRAL,94,42,53,41,11.3,20.60%,1.7,94.30%,,No
609971,John Harvard Elementary School of Excellence,7525 S Harvard,Chicago,IL,60620,(773) 535-3045,AUSL,31%,40%,58%,76%,42%,19%,0.00%,14.80%,98.40%,0%,99%,0%,LEVEL 3,ON PROBATION,PARTIALLY ORGANIZED,WEAK,WEAK,STRONG,NEUTRAL,2,94,6,29,27,75.20%,2.5,92.80%,,No
609972,Helge A Haugan Elementary School,4540 N Hamlin Ave,Chicago,IL,60625,(773) 534-5040,Network 1,46%,44%,72%,76%,29%,46%,60.20%,11.90%,97.00%,6%,3%,83%,LEVEL 1,NOT ON PROBATION,NOT YET ORGANIZED,WEAK,WEAK,NEUTRAL,NEUTRAL,99,99,44,47,2.6,12.30%,1.6,95.10%,,No
609973,Emiliano Zapata Elementary Academy,2728 S Kostner Ave,Chicago,IL,60623,(773) 534-1390,Network 7,40%,54%,71%,74%,38%,49%,48.40%,10.80%,97.60%,0%,1%,99%,LEVEL 2,NOT ON PROBATION,ORGANIZED,NEUTRAL,NEUTRAL,STRONG,WEAK,94,91,36,65,1.1,84.60%,2.2,95.70%,,No
609974,Hawthorne Elementary Scholastic Academy,3319 N Clifton Ave,Chicago,IL,60657,(773) 534-5550,Network 4,82%,86%,54%,81%,95%,88%,2.40%,10.10%,19.50%,50%,10%,23%,LEVEL 1,NOT ON PROBATION,MODERATELY ORGANIZED,STRONG,WEAK,VERY STRONG,NEUTRAL,88,99,99,99,1.7,41.70%,2.3,96.10%,,No
609975,John Hay Elementary Community Academy,1018 N Laramie Ave,Chicago,IL,60651,(773) 534-6000,Network 3,26%,30%,55%,67%,38%,41%,2.00%,10.20%,98.20%,0%,91%,8%,LEVEL 3,ON PROBATION,NOT YET ORGANIZED,WEAK,NEUTRAL,WEAK,NEUTRAL,4,87,1,10,45.2,26%,1.4,91.80%,,No
609976,Stephen K Hayt Elementary School,1518 W Granville Ave,Chicago,IL,60660,(773) 534-2040,Network 2,56%,50%,63%,72%,49%,61%,38.30%,12.50%,91.60%,11%,17%,49%,LEVEL 1,NOT ON PROBATION,ORGANIZED,NEUTRAL,NEUTRAL,STRONG,STRONG,77,87,63,60,5,24.60%,2.1,95.10%,,No
609977,Woodlawn Community Elementary School,6657 S Kimbark Ave,Chicago,IL,60637,(773) 535-0801,Network 9,46%,23%,60%,52%,85%,43%,0.00%,3.90%,95.70%,0%,99%,0%,LEVEL 2,NOT ON PROBATION,WELL-ORGANIZED,STRONG,STRONG,NEUTRAL,NEUTRAL,39,1,39,12,26.7,63.70%,2,92.10%,,No
609978,Wendell Smith Elementary School,744 E 103rd St,Chicago,IL,60628,(773) 535-5689,Network 13,22%,21%,64%,69%,19%,31%,0.00%,13.40%,96.20%,1%,99%,1%,LEVEL 3,ON PROBATION,NOT YET ORGANIZED,WEAK,WEAK,WEAK,NEUTRAL,18,82,3,5,73.2,43.20%,1.8,91.60%,,No
609979,Robert Healy Elementary School,3010 S Parnell Ave,Chicago,IL,60616,(773) 534-9190,Network 6,71%,78%,73%,82%,69%,75%,22.40%,6.10%,90.30%,10%,1%,25%,LEVEL 1,NOT ON PROBATION,ORGANIZED,STRONG,STRONG,NEUTRAL,NOT ENOUGH DATA,99,99,91,99,4.8,30.50%,1.2,96.10%,,No
609981,Phobe Apperson Hearst Elementary School,4640 S Lamon Ave,Chicago,IL,60638,(773) 535-2376,Network 10,22%,18%,66%,77%,13%,21%,31.20%,20.70%,98.00%,1%,46%,52%,LEVEL 2,ON PROBATION,NOT YET ORGANIZED,NEUTRAL,VERY WEAK,WEAK,WEAK,44,87,3,4,10.6,78%,1.7,91.20%,,No
609983,James Hedges Elementary School,4747 S Winchester Ave,Chicago,IL,60609,(773) 535-7360,Network 8,36%,38%,75%,76%,22%,38%,58.00%,11.30%,98.00%,2%,3%,94%,LEVEL 2,NOT ON PROBATION,NOT YET ORGANIZED,WEAK,WEAK,WEAK,NEUTRAL,98,99,20,28,2.4,34.40%,1.4,94.80%,,No
609985,Helen M Hefferan Elementary School,4409 W Wilcox St,Chicago,IL,60624,(773) 534-6192,Network 5,42%,46%,69%,77%,55%,50%,0.00%,11.50%,95.30%,1%,98%,1%,LEVEL 2,NOT ON PROBATION,WELL-ORGANIZED,STRONG,NEUTRAL,NEUTRAL,STRONG,99,99,31,45,20.3,77.30%,2.4,93.20%,,No
609986,Charles R Henderson Elementary School,5650 S Wolcott Ave,Chicago,IL,60636,(773) 535-9080,Network 11,20%,25%,66%,73%,40%,23%,1.10%,11.40%,98.40%,0%,96%,4%,LEVEL 2,ON PROBATION,ORGANIZED,NEUTRAL,STRONG,VERY WEAK,NOT ENOUGH DATA,9,86,1,5,55.9,64.40%,1.6,90.30%,,No
609987,Thomas A Hendricks Elementary Community Academy,4316 S Princeton Ave,Chicago,IL,60609,(773) 535-1696,Network 9,23%,34%,68%,67%,28%,27%,1.50%,17.00%,97.40%,0%,91%,6%,LEVEL 2,ON PROBATION,WELL-ORGANIZED,STRONG,NEUTRAL,NEUTRAL,STRONG,37,58,2,8,42.7,46.20%,2.2,90.70%,,No
609988,Patrick Henry Elementary School,4250 N Saint Louis Ave,Chicago,IL,60618,(773) 534-5060,Network 1,53%,66%,73%,85%,46%,54%,47.30%,10.10%,97.40%,5%,5%,75%,LEVEL 1,NOT ON PROBATION,WELL-ORGANIZED,VERY STRONG,STRONG,VERY STRONG,NEUTRAL,99,99,58,85,3,30.80%,1.9,95.10%,,No
609990,South Loop Elementary School,1212 S Plymouth Ct,Chicago,IL,60605,(773) 534-8690,Network 6,79%,69%,62%,75%,79%,83%,6.30%,4.50%,30.80%,27%,45%,10%,LEVEL 1,NOT ON PROBATION,ORGANIZED,STRONG,STRONG,STRONG,VERY WEAK,96,99,98,94,8.9,62.10%,2,95.40%,,No
609991,Theodore Herzl Elementary School,3711 W Douglas Blvd,Chicago,IL,60623,(773) 534-1480,AUSL,17%,25%,76%,86%,16%,25%,0.40%,15.00%,98.90%,0%,96%,3%,LEVEL 3,ON PROBATION,WELL-ORGANIZED,NEUTRAL,NEUTRAL,NEUTRAL,STRONG,85,99,1,7,46.5,59.70%,2.6,91.40%,,No
609993,Agustin Lara Elementary Academy,4619 S Wolcott Ave,Chicago,IL,60609,(773) 535-4389,Network 8,45%,44%,72%,77%,27%,43%,43.30%,8.10%,98.90%,2%,3%,95%,LEVEL 2,NOT ON PROBATION,PARTIALLY ORGANIZED,NEUTRAL,WEAK,NEUTRAL,STRONG,98,99,37,49,6,86.80%,2.7,94.40%,,No
609994,William G Hibbard Elementary School,3244 W Ainslie St,Chicago,IL,60625,(773) 534-5191,Network 1,41%,41%,67%,75%,30%,37%,41.50%,11.50%,97.10%,5%,6%,78%,LEVEL 2,NOT ON PROBATION,PARTIALLY ORGANIZED,WEAK,WEAK,NEUTRAL,NEUTRAL,76,96,39,44,1.5,64.30%,1.7,96.20%,,No
609995,Rufus M Hitch Elementary School,5625 N McVicker Ave,Chicago,IL,60646,(773) 534-1189,Network 1,58%,59%,67%,77%,60%,62%,21.80%,13.00%,65.70%,45%,1%,39%,LEVEL 1,NOT ON PROBATION,WELL-ORGANIZED,VERY STRONG,STRONG,STRONG,NEUTRAL,90,99,70,69,1.8,21.70%,2.9,95.40%,,No
609996,Charles N Holden Elementary School,1104 W 31st St,Chicago,IL,60608,(773) 535-7200,Network 6,42%,41%,68%,67%,41%,51%,23.50%,11.40%,95.50%,10%,7%,64%,LEVEL 3,ON PROBATION,NOT YET ORGANIZED,WEAK,WEAK,NEUTRAL,NOT ENOUGH DATA,83,71,33,40,5.4,64%,2.9,92.80%,,No
609997,Oliver Wendell Holmes Elementary School,955 W Garfield Blvd,Chicago,IL,60621,(773) 535-9025,OS4,10%,9%,53%,44%,21%,17%,0.00%,11.70%,87.20%,0%,98%,1%,LEVEL 3,ON PROBATION,NOT YET ORGANIZED,VERY WEAK,VERY WEAK,WEAK,STRONG,0,0,0,0,96.3,58.80%,2.1,86.30%,,No
610000,Julia Ward Howe Elementary School of Excellence,720 N Lorel Ave,Chicago,IL,60644,(773) 534-6060,AUSL,25%,46%,70%,87%,22%,39%,0.00%,14.40%,97.80%,0%,96%,3%,LEVEL 2,ON PROBATION,PARTIALLY ORGANIZED,WEAK,WEAK,NEUTRAL,VERY STRONG,88,99,9,50,12.8,70%,2.5,95.30%,,No
610002,Thomas Hoyne Elementary School,8905 S Crandon Ave,Chicago,IL,60617,(773) 535-6425,Network 12,45%,39%,63%,74%,56%,55%,0.00%,12.60%,89.30%,0%,96%,3%,LEVEL 3,ON PROBATION,PARTIALLY ORGANIZED,NEUTRAL,WEAK,NEUTRAL,STRONG,86,80,33,25,5.2,70%,2.4,94.70%,,No
610003,Paul Cuffe Math-Science Technology Academy ES,8324 S Racine Ave,Chicago,IL,60620,(773) 535-8250,Network 11,36%,35%,71%,68%,35%,38%,0.00%,13.10%,93.20%,0%,98%,2%,LEVEL 2,NOT ON PROBATION,WELL-ORGANIZED,STRONG,NEUTRAL,NEUTRAL,STRONG,92,79,19,24,34.8,90.20%,1.3,93.30%,,No
610004,Countee Cullen Elementary School,10650 S Eberhart Ave,Chicago,IL,60628,(773) 535-5375,Network 13,30%,37%,73%,85%,50%,58%,0.00%,10.70%,96.90%,0%,97%,2%,LEVEL 3,ON PROBATION,NOT YET ORGANIZED,WEAK,WEAK,WEAK,NEUTRAL,99,99,9,27,41.8,88%,1.6,93.90%,,No
610005,Charles Evans Hughes Elementary School,4247 W 15th St,Chicago,IL,60623,(773) 534-1762,Network 5,23%,39%,60%,71%,48%,49%,0.90%,9.70%,99.10%,1%,96%,2%,LEVEL 3,ON PROBATION,WELL-ORGANIZED,STRONG,STRONG,WEAK,NOT ENOUGH DATA,11,88,3,23,1.7,,,95%,,No
610006,Edward N Hurley Elementary School,3849 W 69th Pl,Chicago,IL,60629,(773) 535-2068,Network 10,38%,43%,66%,67%,36%,46%,31.60%,10.30%,49.60%,0%,1%,99%,LEVEL 2,NOT ON PROBATION,WELL-ORGANIZED,VERY STRONG,NEUTRAL,VERY STRONG,WEAK,73,76,33,46,2.3,32.80%,1.3,96.20%,,No
610009,Galileo Math & Science Scholastic Academy ES,820 S Carpenter St,Chicago,IL,60607,(773) 534-7070,Network 6,62%,72%,71%,89%,70%,67%,8.80%,9.10%,71.70%,5%,23%,65%,LEVEL 1,NOT ON PROBATION,WELL-ORGANIZED,STRONG,STRONG,NEUTRAL,NOT ENOUGH DATA,99,99,82,93,4.1,100%,2.5,95.20%,,No
610010,Friedrich Ludwig Jahn Elementary School,3149 N Wolcott Ave,Chicago,IL,60657,(773) 534-5500,Network 4,44%,40%,61%,63%,52%,41%,18.80%,13.20%,77.40%,11%,14%,71%,LEVEL 3,ON PROBATION,PARTIALLY ORGANIZED,NEUTRAL,NEUTRAL,STRONG,NEUTRAL,47,56,36,30,3.5,23.90%,2.8,93.90%,,No
610011,Minnie Mars Jamieson Elementary School,5650 N Mozart St,Chicago,IL,60659,(773) 534-2395,Network 2,66%,65%,64%,77%,62%,52%,23.90%,11.80%,72.90%,31%,5%,33%,LEVEL 1,NOT ON PROBATION,WELL-ORGANIZED,STRONG,STRONG,STRONG,NOT ENOUGH DATA,92,98,83,86,4.5,75.50%,1.1,95.30%,,No
610012,Edward Jenner Elementary Academy of the Arts,1119 N Cleveland Ave,Chicago,IL,60610,(773) 534-8440,Network 6,9%,6%,56%,57%,3%,17%,0.40%,21.60%,98.60%,0%,98%,2%,LEVEL 3,ON PROBATION,PARTIALLY ORGANIZED,NEUTRAL,NEUTRAL,NEUTRAL,NOT ENOUGH DATA,0,3,0,0,1.9,,,91.70%,,No
610013,Pilsen Elementary Community Academy,1420 W 17th St,Chicago,IL,60608,(773) 534-7675,Network 7,31%,36%,61%,69%,33%,37%,44.20%,27.10%,97.70%,0%,8%,91%,LEVEL 3,ON PROBATION,PARTIALLY ORGANIZED,STRONG,WEAK,NEUTRAL,NEUTRAL,51,99,15,29,3.7,45%,1.3,94.60%,,No
610015,Joseph Jungman Elementary School,1746 S Miller St,Chicago,IL,60608,(773) 534-7375,Network 7,52%,36%,84%,76%,44%,47%,50.40%,17.30%,84.20%,0%,3%,95%,LEVEL 2,NOT ON PROBATION,ORGANIZED,NOT ENOUGH DATA,NOT ENOUGH DATA,STRONG,NOT ENOUGH DATA,99,97,54,32,13.8,38.90%,2.2,95.20%,,No
610016,Kate S Kellogg Elementary School,9241 S Leavitt St,Chicago,IL,60620,(773) 535-2590,Network 10,67%,49%,69%,64%,59%,59%,0.00%,14.70%,47.20%,11%,79%,5%,LEVEL 2,NOT ON PROBATION,WELL-ORGANIZED,STRONG,STRONG,STRONG,NEUTRAL,99,74,86,64,20.2,91.50%,1.9,95.80%,,No
610017,Maria Saucedo Elementary Scholastic Academy,2850 W 24th Blvd,Chicago,IL,60623,(773) 534-1770,Network 7,44%,57%,55%,75%,41%,53%,43.70%,8.60%,96.50%,0%,2%,96%,LEVEL 1,NOT ON PROBATION,NOT YET ORGANIZED,WEAK,WEAK,NEUTRAL,WEAK,40,99,41,76,1.5,7.20%,3.4,96.20%,,No
610018,Miriam G Canter Middle School,4959 S Blackstone Ave,Chicago,IL,60615,(773) 535-1410,Network 9,30%,34%,39%,59%,-,-,1.10%,21.10%,90.50%,2%,94%,3%,LEVEL 3,ON PROBATION,WELL-ORGANIZED,STRONG,STRONG,STRONG,NEUTRAL,0,30,9,16,7.6,85%,3.5,93.20%,,No
610019,Joshua D Kershaw Elementary School,6450 S Lowe Ave,Chicago,IL,60621,(773) 535-3050,Network 11,51%,38%,80%,80%,52%,44%,0.00%,14.10%,94.20%,0%,99%,1%,LEVEL 3,ON PROBATION,MODERATELY ORGANIZED,NEUTRAL,NEUTRAL,NEUTRAL,NOT ENOUGH DATA,99,99,55,35,6.7,77.30%,2.2,94.70%,,No
610021,Pablo Casals Elementary School,3501 W Potomac Ave,Chicago,IL,60651,(773) 534-4444,AUSL,30%,44%,80%,86%,17%,44%,16.20%,14.10%,98.30%,1%,51%,48%,LEVEL 2,ON PROBATION,WELL-ORGANIZED,NEUTRAL,STRONG,STRONG,STRONG,99,99,16,42,24.5,72.50%,1.8,92.90%,,No
610022,Joyce Kilmer Elementary School,6700 N Greenview Ave,Chicago,IL,60626,(773) 534-2115,Network 2,37%,35%,56%,56%,41%,38%,47.40%,16.20%,95.10%,4%,26%,57%,LEVEL 3,ON PROBATION,NOT YET ORGANIZED,WEAK,VERY WEAK,NEUTRAL,WEAK,4,21,13,18,9,23.80%,2.7,93.60%,,No
610024,Lazaro Cardenas Elementary School,2345 S Millard Ave,Chicago,IL,60623,(773) 534-1465,Network 7,54%,71%,79%,88%,55%,-,46.00%,8.10%,98.70%,1%,4%,95%,LEVEL 1,NOT ON PROBATION,WELL-ORGANIZED,STRONG,STRONG,NOT ENOUGH DATA,NEUTRAL,94,97,72,82,0.6,12.10%,2,95.90%,,No
610026,John H Kinzie Elementary School,5625 S Mobile Ave,Chicago,IL,60638,(773) 535-2425,Network 10,47%,56%,56%,54%,44%,59%,16.20%,23.80%,67.40%,31%,4%,64%,LEVEL 1,NOT ON PROBATION,ORGANIZED,STRONG,NEUTRAL,STRONG,NEUTRAL,17,21,33,59,2.3,51.60%,1.3,95%,,No
610027,Rudyard Kipling Elementary School,9351 S Lowe Ave,Chicago,IL,60620,(773) 535-3151,Network 11,48%,44%,53%,79%,63%,66%,0.50%,15.40%,86.60%,0%,98%,1%,LEVEL 2,NOT ON PROBATION,NOT YET ORGANIZED,WEAK,VERY WEAK,NEUTRAL,NEUTRAL,11,99,35,44,18.3,85.90%,1.7,94.50%,,No
610029,Rodolfo Lozano Bilingual & International Ctr ES,1501 N Greenview Ave,Chicago,IL,60642,(773) 534-4750,Network 6,45%,32%,62%,78%,33%,27%,44.80%,22.10%,54.50%,3%,11%,85%,LEVEL 3,ON PROBATION,WELL-ORGANIZED,VERY STRONG,STRONG,VERY STRONG,STRONG,63,95,45,30,4.7,45.20%,1.4,94%,,No
610030,Charles Kozminski Elementary Community Academy,936 E 54th St,Chicago,IL,60615,(773) 535-0980,Network 9,34%,29%,68%,71%,40%,31%,0.30%,9.90%,88.60%,1%,96%,2%,LEVEL 3,ON PROBATION,ORGANIZED,STRONG,NEUTRAL,NEUTRAL,NEUTRAL,74,82,18,14,35.6,43.30%,3.1,92.30%,,No
610032,Wendell E Green Elementary School,1150 W 96th St,Chicago,IL,60643,(773) 535-2575,Network 11,43%,45%,67%,69%,27%,65%,0.00%,14.60%,94.00%,0%,97%,1%,LEVEL 2,NOT ON PROBATION,WELL-ORGANIZED,STRONG,STRONG,STRONG,STRONG,81,90,26,50,6.4,50%,2.6,93.70%,,No
610033,LaSalle Elementary Language Academy,1734 N Orleans St,Chicago,IL,60614,(773) 534-8470,Network 4,74%,74%,61%,73%,79%,82%,6.10%,11.40%,24.90%,34%,28%,21%,LEVEL 1,NOT ON PROBATION,WELL-ORGANIZED,VERY STRONG,STRONG,VERY STRONG,NEUTRAL,96,99,96,97,4.4,34.70%,1.2,95.90%,,No
610034,Lawndale Elementary Community Academy,3500 W Douglas Blvd,Chicago,IL,60623,(773) 534-1635,OS4,15%,12%,36%,46%,10%,13%,0.00%,9.80%,97.50%,0%,99%,1%,LEVEL 3,ON PROBATION,NOT YET ORGANIZED,WEAK,VERY WEAK,NOT ENOUGH DATA,NOT ENOUGH DATA,0,0,0,0,26.5,79.40%,2.3,90.60%,,No
610036,Leslie Lewis Elementary School,1431 N Leamington Ave,Chicago,IL,60651,(773) 534-3060,AUSL,19%,6%,59%,54%,18%,23%,8.00%,10.90%,97.50%,1%,81%,16%,LEVEL 3,ON PROBATION,NOT YET ORGANIZED,VERY WEAK,VERY WEAK,WEAK,NOT ENOUGH DATA,4,0,0,0,41.5,84.40%,2.3,90.80%,,No
610037,Arthur A Libby Elementary School,5300 S Loomis Blvd,Chicago,IL,60609,(773) 535-9050,Network 11,18%,16%,66%,59%,25%,8%,9.20%,15.70%,98.80%,0%,85%,15%,LEVEL 3,ON PROBATION,WELL-ORGANIZED,NEUTRAL,STRONG,NEUTRAL,STRONG,31,6,2,4,27.4,62.30%,3.3,90.10%,,No
610038,Abraham Lincoln Elementary School,615 W Kemper Pl,Chicago,IL,60614,(773) 534-5720,Network 4,83%,84%,58%,67%,92%,90%,5.60%,5.80%,12.70%,64%,11%,9%,LEVEL 1,NOT ON PROBATION,WELL-ORGANIZED,VERY STRONG,STRONG,VERY STRONG,WEAK,98,99,99,99,0.6,26.30%,1.4,95.20%,,No
610039,Carl von Linne Elementary School,3221 N Sacramento Ave,Chicago,IL,60618,(773) 534-5262,Network 4,47%,47%,65%,71%,45%,55%,32.20%,12.90%,94.40%,3%,1%,87%,LEVEL 2,NOT ON PROBATION,WELL-ORGANIZED,STRONG,STRONG,NEUTRAL,STRONG,87,95,46,48,1.5,90.90%,4.1,95.80%,,No
610040,Henry D Lloyd Elementary School,2103 N Lamon Ave,Chicago,IL,60639,(773) 534-3070,Network 3,33%,40%,73%,84%,26%,48%,62.50%,11.20%,96.00%,1%,2%,96%,LEVEL 2,ON PROBATION,MODERATELY ORGANIZED,NEUTRAL,NEUTRAL,NOT ENOUGH DATA,NEUTRAL,95,99,17,40,1.6,95.50%,1,95.60%,,No
610041,Josephine C Locke Elementary School,2828 N Oak Park Ave,Chicago,IL,60634,(773) 534-3300,Network 3,40%,41%,48%,63%,42%,41%,32.80%,13.40%,89.90%,11%,2%,82%,LEVEL 2,NOT ON PROBATION,MODERATELY ORGANIZED,NEUTRAL,NEUTRAL,NEUTRAL,NEUTRAL,8,41,31,39,6.3,89.20%,1.9,95.40%,,No
610043,Joseph Lovett Elementary School,6333 W Bloomingdale Ave,Chicago,IL,60639,(773) 534-3130,Network 3,28%,20%,52%,62%,43%,44%,2.80%,13.40%,94.50%,0%,84%,15%,LEVEL 2,NOT ON PROBATION,PARTIALLY ORGANIZED,NEUTRAL,NEUTRAL,NEUTRAL,WEAK,3,61,6,6,15.3,89%,2.5,95.70%,,No
610044,James Russell Lowell Elementary School,3320 W Hirsch St,Chicago,IL,60651,(773) 534-4300,Network 5,39%,37%,74%,80%,54%,49%,24.20%,23.10%,96.10%,2%,26%,71%,LEVEL 1,NOT ON PROBATION,ORGANIZED,NEUTRAL,WEAK,NEUTRAL,STRONG,98,99,17,34,8.8,35.20%,3.3,94.30%,,No
610046,Mary Lyon Elementary School,2941 N McVicker Ave,Chicago,IL,60634,(773) 534-3120,Network 3,55%,64%,73%,81%,56%,56%,29.40%,10.10%,94.70%,6%,2%,89%,LEVEL 1,NOT ON PROBATION,ORGANIZED,STRONG,NEUTRAL,NEUTRAL,NOT ENOUGH DATA,99,99,61,81,3.9,46.60%,2.8,95.10%,,No
610047,James Madison Elementary School,7433 S Dorchester Ave,Chicago,IL,60619,(773) 535-0551,Network 12,29%,25%,57%,72%,22%,61%,0.00%,13.30%,98.70%,0%,99%,1%,LEVEL 2,ON PROBATION,WELL-ORGANIZED,STRONG,NEUTRAL,NEUTRAL,NOT ENOUGH DATA,0,87,3,8,17,51.70%,3.1,94.90%,,No
610048,George Manierre Elementary School,1420 N Hudson Ave,Chicago,IL,60610,(773) 534-8456,OS4,24%,25%,74%,73%,25%,19%,0.00%,15.90%,98.90%,0%,97%,2%,LEVEL 3,ON PROBATION,ORGANIZED,NEUTRAL,NEUTRAL,NEUTRAL,VERY STRONG,73,95,5,15,6.5,25.60%,2,90.10%,,No
610051,Northwest Middle School,5252 W Palmer St,Chicago,IL,60639,(773) 534-3250,Network 3,30%,30%,56%,70%,-,-,25.60%,9.30%,97.80%,2%,4%,94%,LEVEL 3,ON PROBATION,NOT YET ORGANIZED,WEAK,WEAK,WEAK,NEUTRAL,23,84,11,11,96,96.50%,1.7,92.30%,,No
610052,Horace Mann Elementary School,8050 S Chappel Ave,Chicago,IL,60617,(773) 535-6640,Network 12,20%,14%,46%,59%,35%,16%,0.50%,17.30%,96.70%,0%,99%,0%,LEVEL 3,ON PROBATION,NOT YET ORGANIZED,WEAK,WEAK,VERY WEAK,WEAK,0,6,1,1,24.4,50.70%,3.1,93%,,No
610053,Marquette Elementary School,6550 S Richmond St,Chicago,IL,60629,(773) 535-9260,AUSL,28%,22%,74%,76%,24%,24%,34.10%,10.30%,98.40%,1%,41%,57%,LEVEL 2,ON PROBATION,ORGANIZED,NEUTRAL,NEUTRAL,NEUTRAL,VERY STRONG,95,94,8,10,31.6,76.10%,2.9,93.50%,,No
610054,John L Marsh Elementary School,9822 S Exchange Ave,Chicago,IL,60617,(773) 535-6430,Network 13,42%,41%,59%,67%,48%,45%,28.70%,12.80%,92.30%,1%,7%,91%,LEVEL 2,NOT ON PROBATION,PARTIALLY ORGANIZED,NEUTRAL,WEAK,STRONG,STRONG,49,57,36,39,1.5,31.70%,2,95.40%,,No
610055,Michael Faraday Elementary School,3250 W Monroe St,Chicago,IL,60624,(773) 534-6670,Network 5,55%,61%,86%,86%,60%,52%,0.00%,14.40%,100.00%,0%,97%,1%,LEVEL 1,NOT ON PROBATION,WELL-ORGANIZED,NEUTRAL,NEUTRAL,NEUTRAL,NOT ENOUGH DATA,99,99,61,78,35.5,80.70%,3.2,93.60%,,No
610057,Fairfield Elementary Academy,6201 S Fairfield Ave,Chicago,IL,60629,(773) 535-9500,Network 10,19%,16%,59%,57%,40%,18%,41.60%,8.90%,99.70%,1%,33%,64%,LEVEL 3,ON PROBATION,NOT YET ORGANIZED,WEAK,WEAK,WEAK,VERY WEAK,3,8,1,3,9.3,47.80%,2.9,93.80%,,No
610059,Oscar F Mayer Elementary School,2250 N Clifton Ave,Chicago,IL,60614,(773) 534-5535,Network 4,59%,60%,65%,65%,76%,67%,1.30%,8.80%,27.70%,55%,16%,20%,LEVEL 1,NOT ON PROBATION,ORGANIZED,STRONG,NEUTRAL,STRONG,NOT ENOUGH DATA,70,79,78,75,11.9,97.30%,1.6,94.60%,,No
610060,Andrew Jackson Elementary Language Academy,1340 W Harrison St,Chicago,IL,60607,(773) 534-7000,Network 6,84%,83%,64%,77%,95%,82%,4.10%,5.60%,39.50%,22%,27%,28%,LEVEL 1,NOT ON PROBATION,WELL-ORGANIZED,STRONG,NEUTRAL,VERY STRONG,NOT ENOUGH DATA,99,99,99,99,0.4,7.40%,1,97.20%,,No
610062,George B McClellan Elementary School,3527 S Wallace St,Chicago,IL,60609,(773) 535-1732,Network 6,41%,43%,75%,86%,57%,32%,14.00%,25.60%,94.20%,14%,25%,51%,LEVEL 1,ON PROBATION,ORGANIZED,STRONG,STRONG,STRONG,NEUTRAL,99,99,38,46,6.3,44.70%,2.1,93.30%,,No
610063,Cyrus H McCormick Elementary School,2712 S Sawyer Ave,Chicago,IL,60623,(773) 535-7252,Network 7,33%,44%,76%,76%,27%,60%,50.50%,7.80%,98.40%,1%,0%,99%,LEVEL 2,NOT ON PROBATION,ORGANIZED,STRONG,NEUTRAL,NOT ENOUGH DATA,NEUTRAL,99,99,20,49,1,20%,1.4,95.80%,,No
610065,Emmett Louis Till Math and Science Academy,6543 S Champlain Ave,Chicago,IL,60637,(773) 535-0570,Network 9,19%,21%,60%,62%,18%,21%,0.00%,16.20%,99.50%,0%,99%,0%,LEVEL 3,ON PROBATION,NOT YET ORGANIZED,WEAK,WEAK,VERY WEAK,WEAK,8,36,1,3,67.6,57.90%,1.8,88.80%,,No
610066,James E McDade Elementary Classical School,8801 S Indiana Ave,Chicago,IL,60619,(773) 535-3669,Network 12,96%,97%,72%,82%,100%,91%,0.50%,2.60%,39.70%,2%,95%,2%,LEVEL 1,NOT ON PROBATION,ORGANIZED,STRONG,NEUTRAL,STRONG,NEUTRAL,99,99,99,99,,,,96.70%,,No
610067,Francis M McKay Elementary School,6901 S Fairfield Ave,Chicago,IL,60629,(773) 535-9340,Network 10,23%,27%,69%,70%,32%,34%,6.00%,11.80%,98.60%,0%,86%,13%,LEVEL 2,NOT ON PROBATION,WELL-ORGANIZED,NEUTRAL,STRONG,WEAK,STRONG,76,65,3,8,24.4,66.30%,2.4,96.40%,,Yes
610068,Hanson Park Elementary School,5411 W Fullerton Ave,Chicago,IL,60639,(773) 534-3100,Network 3,30%,29%,54%,65%,38%,37%,40.60%,17.80%,97.80%,1%,3%,96%,LEVEL 2,NOT ON PROBATION,MODERATELY ORGANIZED,NEUTRAL,NEUTRAL,STRONG,NEUTRAL,9,45,11,16,3.4,19.30%,2.8,94.10%,,No
610070,James B McPherson Elementary School,4728 N Wolcott Ave,Chicago,IL,60640,(773) 534-2625,Network 2,41%,39%,52%,63%,40%,42%,22.70%,22.10%,90.30%,13%,6%,70%,LEVEL 2,NOT ON PROBATION,ORGANIZED,STRONG,NEUTRAL,STRONG,STRONG,6,52,32,36,1.7,57.10%,2.7,95.90%,,No
610073,Ellen Mitchell Elementary School,2233 W Ohio St,Chicago,IL,60612,(773) 534-7655,Network 5,51%,58%,69%,81%,47%,50%,20.20%,13.50%,70.70%,23%,9%,63%,LEVEL 2,NOT ON PROBATION,WELL-ORGANIZED,VERY STRONG,VERY STRONG,VERY STRONG,NOT ENOUGH DATA,94,99,62,81,3.2,35.50%,1.1,95.90%,,No
610074,James Monroe Elementary School,3651 W Schubert Ave,Chicago,IL,60647,(773) 534-4155,Network 4,35%,32%,53%,55%,41%,42%,35.10%,9.20%,97.50%,2%,1%,96%,LEVEL 3,ON PROBATION,PARTIALLY ORGANIZED,NEUTRAL,NEUTRAL,NEUTRAL,WEAK,8,7,21,19,5.5,19.20%,1.8,94.80%,,No
610075,Moses Montefiore Special Elementary School,1310 S Ashland Ave,Chicago,IL,60608,(773) 534-7825,Network 6,17%,29%,64%,75%,-,-,6.90%,100.00%,98.30%,0%,78%,22%,,,PARTIALLY ORGANIZED,NEUTRAL,STRONG,WEAK,VERY STRONG,84,38,0,1,339.9,40.40%,1.2,82.20%,,No
610076,Bernhard Moos Elementary School,1711 N California Ave,Chicago,IL,60647,(773) 534-4340,Network 5,35%,46%,74%,86%,21%,44%,31.60%,11.00%,97.20%,2%,14%,82%,LEVEL 2,ON PROBATION,WELL-ORGANIZED,STRONG,VERY STRONG,STRONG,STRONG,91,99,17,39,5.4,59%,2.4,93.40%,,No
610077,Donald Morrill Math & Science Elementary School,6011 S Rockwell St,Chicago,IL,60629,(773) 535-9288,Network 10,27%,25%,72%,68%,33%,38%,34.30%,10.00%,75.20%,1%,44%,55%,LEVEL 3,ON PROBATION,MODERATELY ORGANIZED,WEAK,STRONG,VERY WEAK,WEAK,96,98,6,11,12,17.20%,3.4,95%,,Yes
610078,Inter-American Elementary Magnet School,851 W Waveland Ave,Chicago,IL,60613,(773) 534-5490,Network 4,50%,52%,52%,64%,56%,53%,17.20%,6.40%,50.80%,11%,2%,84%,LEVEL 2,NOT ON PROBATION,WELL-ORGANIZED,STRONG,VERY STRONG,VERY STRONG,NOT ENOUGH DATA,12,43,56,64,2.9,38.50%,2,95.40%,,No
610081,Mark Sheridan Elementary Math & Science Academy,533 W 27th St,Chicago,IL,60616,(773) 534-9120,Network 6,77%,79%,65%,85%,87%,81%,6.60%,7.00%,55.20%,29%,18%,21%,LEVEL 1,NOT ON PROBATION,WELL-ORGANIZED,STRONG,STRONG,VERY STRONG,WEAK,97,99,94,97,0.4,11.80%,1,95.90%,,No
610082,Mount Greenwood Elementary School,10841 S Homan Ave,Chicago,IL,60655,(773) 535-2786,Network 10,83%,75%,74%,73%,81%,71%,0.00%,10.20%,22.70%,82%,2%,14%,LEVEL 1,NOT ON PROBATION,WELL-ORGANIZED,VERY STRONG,STRONG,VERY STRONG,NEUTRAL,99,99,97,94,0.5,45.50%,2.2,95.20%,,No
610083,Daniel C Beard Elementary School,6445 W Strong St,Chicago,IL,60656,(773) 534-1228,Network 1,-,-,-,-,-,-,46.70%,85.80%,60.90%,36%,6%,45%,,,ORGANIZED,VERY STRONG,NEUTRAL,NOT ENOUGH DATA,NOT ENOUGH DATA,,,0,0,0.6,,,92.60%,,No
610084,Annie Keller Elementary Gifted Magnet School,3020 W 108th St,Chicago,IL,60655,(773) 535-2636,Network 10,100%,99%,54%,70%,100%,100%,0.40%,6.00%,16.90%,36%,38%,13%,LEVEL 1,NOT ON PROBATION,ORGANIZED,VERY STRONG,STRONG,VERY STRONG,STRONG,99,98,99,99,1.2,,,97%,,No
610086,Mount Vernon Elementary School,10540 S Morgan St,Chicago,IL,60643,(773) 535-2825,Network 13,34%,25%,75%,78%,48%,38%,0.00%,16.30%,94.70%,0%,100%,0%,LEVEL 2,NOT ON PROBATION,PARTIALLY ORGANIZED,WEAK,VERY WEAK,NEUTRAL,STRONG,93,99,8,10,17,23.90%,2.1,93.40%,,No
610087,Blair Early Childhood Center,6751 W 63rd Pl,Chicago,IL,60638,(773) 535-2076,Network 10,-,-,-,-,-,-,43.20%,86.50%,74.00%,17%,20%,63%,,,MODERATELY ORGANIZED,NEUTRAL,NEUTRAL,NOT ENOUGH DATA,VERY STRONG,,,,,,,,84.40%,,No
610088,Wolfgang A Mozart Elementary School,2200 N Hamlin Ave,Chicago,IL,60647,(773) 534-4160,Network 4,34%,31%,64%,70%,22%,31%,44.50%,9.90%,98.30%,1%,5%,91%,LEVEL 3,ON PROBATION,ORGANIZED,NEUTRAL,NEUTRAL,VERY STRONG,STRONG,53,77,21,16,7.4,24.50%,2.6,94.80%,,No
610089,John B Murphy Elementary School,3539 W Grace St,Chicago,IL,60618,(773) 534-5223,Network 1,43%,48%,62%,69%,49%,46%,34.20%,14.40%,81.40%,10%,2%,81%,LEVEL 2,NOT ON PROBATION,ORGANIZED,STRONG,NEUTRAL,STRONG,STRONG,63,94,41,54,4.7,42.40%,2.2,95.50%,,No
610090,Phillip Murray Elementary Language Academy,5335 S Kenwood Ave,Chicago,IL,60615,(773) 535-0585,Network 9,60%,55%,49%,54%,83%,64%,0.60%,7.10%,58.70%,6%,81%,5%,LEVEL 2,NOT ON PROBATION,NOT YET ORGANIZED,WEAK,WEAK,NEUTRAL,NEUTRAL,9,30,70,70,6.8,68.60%,2.1,95.40%,,No
610091,Ronald Brown Elementary Community Academy,12607 S Union Ave,Chicago,IL,60628,(773) 535-5385,Network 13,39%,22%,72%,75%,62%,44%,0.00%,16.40%,96.60%,0%,99%,1%,LEVEL 1,NOT ON PROBATION,WELL-ORGANIZED,VERY STRONG,STRONG,STRONG,STRONG,98,97,30,6,39.7,91.90%,2,95%,,No
610092,Henry H Nash Elementary School,4837 W Erie St,Chicago,IL,60644,(773) 534-6125,Network 3,24%,26%,55%,64%,47%,22%,0.50%,10.40%,99.00%,0%,94%,4%,LEVEL 2,NOT ON PROBATION,NOT YET ORGANIZED,VERY WEAK,WEAK,NOT ENOUGH DATA,VERY WEAK,3,61,3,5,49.6,83.30%,2,95.90%,,No
610093,Jane A Neil Elementary School,8555 S Michigan Ave,Chicago,IL,60619,(773) 535-3000,Network 12,30%,27%,57%,72%,28%,34%,1.40%,41.00%,89.60%,0%,97%,2%,LEVEL 3,ON PROBATION,NOT YET ORGANIZED,VERY WEAK,VERY WEAK,VERY WEAK,NEUTRAL,10,88,11,8,8.9,13.50%,2.2,88.40%,,No
610094,Louis Nettelhorst Elementary School,3252 N Broadway St,Chicago,IL,60657,(773) 534-5810,Network 4,71%,64%,55%,70%,78%,77%,10.90%,10.20%,27.00%,60%,10%,17%,LEVEL 1,NOT ON PROBATION,WELL-ORGANIZED,STRONG,NEUTRAL,VERY STRONG,STRONG,68,89,92,81,1.1,5.60%,2.5,95.10%,,No
610095,Walter L Newberry Math & Science Academy ES,700 W Willow St,Chicago,IL,60614,(773) 534-8000,Network 4,61%,68%,63%,72%,67%,66%,5.00%,14.90%,62.30%,23%,39%,29%,LEVEL 1,NOT ON PROBATION,ORGANIZED,STRONG,NEUTRAL,VERY STRONG,NEUTRAL,87,96,78,88,5.6,50%,1.7,94.20%,,No
610096,Florence Nightingale Elementary School,5250 S Rockwell St,Chicago,IL,60632,(773) 535-9270,Network 8,42%,41%,74%,76%,38%,43%,54.20%,11.10%,97.90%,1%,0%,99%,LEVEL 1,NOT ON PROBATION,WELL-ORGANIZED,STRONG,STRONG,NEUTRAL,NEUTRAL,99,98,37,42,6.5,81.30%,1.9,95.30%,,Yes
610097,William P Nixon Elementary School,2121 N Keeler Ave,Chicago,IL,60639,(773) 534-4375,Network 4,23%,20%,53%,63%,22%,25%,47.30%,9.30%,98.90%,1%,2%,95%,LEVEL 3,ON PROBATION,WELL-ORGANIZED,STRONG,STRONG,STRONG,STRONG,1,22,6,7,3.4,36.30%,1.8,94.80%,,No
610098,Alfred Nobel Elementary School,4127 W Hirsch St,Chicago,IL,60651,(773) 534-4365,Network 5,36%,51%,67%,86%,28%,37%,36.30%,9.30%,98.90%,0%,14%,83%,LEVEL 1,NOT ON PROBATION,WELL-ORGANIZED,STRONG,STRONG,STRONG,NEUTRAL,51,99,13,51,8.7,47.70%,1.8,94.30%,,No
610099,Norwood Park Elementary School,5900 N Nina Ave,Chicago,IL,60631,(773) 534-1198,Network 1,72%,71%,65%,60%,67%,81%,5.20%,17.70%,18.30%,62%,1%,28%,LEVEL 1,NOT ON PROBATION,PARTIALLY ORGANIZED,NEUTRAL,WEAK,VERY STRONG,VERY WEAK,93,35,91,91,0.6,4.70%,1,94.80%,,No
610100,West Park Elementary Academy,1425 N Tripp Ave,Chicago,IL,60651,(773) 534-4940,Network 5,29%,49%,70%,88%,57%,36%,30.20%,10.20%,98.30%,1%,28%,71%,LEVEL 2,NOT ON PROBATION,NOT YET ORGANIZED,WEAK,WEAK,WEAK,STRONG,96,99,10,48,7.5,43.80%,3.3,93.50%,,No
610101,William B Ogden Elementary School,24 W Walton St,Chicago,IL,60610,(773) 534-8110,Network 6,69%,74%,67%,65%,74%,73%,10.80%,8.50%,16.40%,49%,14%,14%,LEVEL 1,NOT ON PROBATION,PARTIALLY ORGANIZED,NEUTRAL,WEAK,NOT ENOUGH DATA,NOT ENOUGH DATA,96,66,91,91,2.9,67.70%,1.1,94.70%,,No
610102,Richard J Oglesby Elementary School,7646 S Green St,Chicago,IL,60620,(773) 535-3060,Network 11,31%,20%,69%,61%,28%,25%,0.00%,10.40%,97.70%,0%,99%,1%,LEVEL 3,ON PROBATION,PARTIALLY ORGANIZED,WEAK,WEAK,NEUTRAL,NOT ENOUGH DATA,86,50,10,6,25,60.90%,1.8,93.80%,,No
610103,Isabelle C O'Keeffe Elementary School,6940 S Merrill Ave,Chicago,IL,60649,(773) 535-0600,AUSL,17%,10%,50%,51%,39%,33%,0.00%,10.00%,97.40%,0%,98%,2%,LEVEL 3,ON PROBATION,NOT YET ORGANIZED,VERY WEAK,VERY WEAK,VERY WEAK,WEAK,0,0,0,0,41.2,55.70%,3.3,89.80%,,No
610104,William J Onahan Elementary School,6634 W Raven St,Chicago,IL,60631,(773) 534-1180,Network 1,63%,67%,58%,67%,69%,78%,12.20%,11.00%,37.20%,63%,1%,30%,LEVEL 2,NOT ON PROBATION,WELL-ORGANIZED,VERY STRONG,VERY STRONG,STRONG,NOT ENOUGH DATA,67,80,84,86,0.5,14.30%,2.3,94.20%,,No
610105,Oriole Park Elementary School,5424 N Oketo Ave,Chicago,IL,60656,(773) 534-1201,Network 1,77%,84%,62%,77%,82%,91%,7.00%,9.70%,19.50%,70%,1%,20%,LEVEL 1,NOT ON PROBATION,WELL-ORGANIZED,VERY STRONG,STRONG,VERY STRONG,NOT ENOUGH DATA,96,99,95,99,1.1,20%,1,95.60%,,No
610106,Brian Piccolo Elementary Specialty School,1040 N Keeler Ave,Chicago,IL,60651,(773) 534-4425,AUSL,25%,33%,77%,90%,21%,7%,14.70%,12.10%,98.30%,1%,61%,37%,LEVEL 2,ON PROBATION,WELL-ORGANIZED,NEUTRAL,NEUTRAL,VERY STRONG,VERY STRONG,95,99,3,14,32.6,89.90%,3.3,95%,,No
610107,James Otis Elementary School,525 N Armour St,Chicago,IL,60642,(773) 534-7665,Network 6,40%,37%,52%,65%,52%,36%,31.30%,21.10%,95.70%,3%,20%,75%,LEVEL 3,ON PROBATION,WELL-ORGANIZED,VERY STRONG,STRONG,VERY STRONG,NEUTRAL,23,47,35,34,1.3,54.50%,2,93.80%,,No
610108,Luke O'Toole Elementary School,6550 S Seeley Ave,Chicago,IL,60636,(773) 535-9040,Network 11,26%,32%,75%,78%,49%,32%,1.00%,10.00%,99.50%,0%,95%,5%,LEVEL 3,ON PROBATION,PARTIALLY ORGANIZED,WEAK,NEUTRAL,VERY WEAK,NOT ENOUGH DATA,90,99,3,12,7.7,62.30%,2.5,89.60%,,No
610109,William Bishop Owen Scholastic Academy ES,8247 S Christiana Ave,Chicago,IL,60652,(773) 535-9330,Network 10,61%,59%,51%,65%,62%,67%,0.40%,9.50%,67.10%,2%,88%,8%,LEVEL 1,NOT ON PROBATION,WELL-ORGANIZED,STRONG,STRONG,STRONG,NEUTRAL,20,88,76,72,1.2,30%,2.3,96.10%,,No
610110,Ida B Wells Preparatory Elementary Academy,249 E 37th St,Chicago,IL,60653,(773) 535-1204,Network 9,32%,30%,65%,73%,29%,44%,0.40%,7.80%,90.20%,0%,86%,2%,LEVEL 2,ON PROBATION,WELL-ORGANIZED,STRONG,STRONG,WEAK,NEUTRAL,55,96,19,19,30.7,57.40%,2.6,93%,,No
610111,John Palmer Elementary School,5051 N Kenneth Ave,Chicago,IL,60630,(773) 534-3704,Network 1,47%,52%,57%,67%,52%,47%,31.80%,10.70%,84.80%,30%,1%,47%,LEVEL 2,NOT ON PROBATION,PARTIALLY ORGANIZED,WEAK,WEAK,NEUTRAL,NOT ENOUGH DATA,24,81,44,64,1,10.20%,2.9,95%,,No
610112,Francis W Parker Elementary Community Academy,6800 S Stewart Ave,Chicago,IL,60621,(773) 535-3375,Network 11,20%,15%,50%,54%,23%,17%,0.00%,8.30%,99.60%,0%,97%,3%,LEVEL 3,ON PROBATION,PARTIALLY ORGANIZED,NEUTRAL,NEUTRAL,WEAK,STRONG,0,3,1,1,35.4,60.70%,2.2,90.40%,,No
610115,Park Manor Elementary School,7037 S Rhodes Ave,Chicago,IL,60637,(773) 535-3070,Network 12,25%,34%,66%,76%,22%,24%,0.00%,7.00%,99.70%,0%,98%,1%,LEVEL 2,NOT ON PROBATION,WELL-ORGANIZED,STRONG,STRONG,STRONG,NEUTRAL,22,98,4,16,5.1,36.20%,4.2,95.40%,,No
610116,Parkside Elementary Community Academy,6938 S East End Ave,Chicago,IL,60649,(773) 535-0940,Network 12,21%,12%,61%,58%,31%,21%,0.00%,11.50%,100.00%,0%,98%,1%,LEVEL 3,ON PROBATION,PARTIALLY ORGANIZED,WEAK,STRONG,WEAK,WEAK,4,6,1,1,86.9,63.50%,2.3,87.60%,,No
610117,Louis Pasteur Elementary School,5825 S Kostner Ave,Chicago,IL,60629,(773) 535-2270,Network 8,50%,39%,75%,68%,46%,52%,36.40%,8.90%,94.60%,5%,1%,92%,LEVEL 2,NOT ON PROBATION,MODERATELY ORGANIZED,NEUTRAL,NEUTRAL,NEUTRAL,WEAK,99,83,52,36,3.4,79.20%,2.4,95.50%,,Yes
610120,Ferdinand Peck Elementary School,3826 W 58th St,Chicago,IL,60629,(773) 535-2450,Network 8,40%,44%,55%,65%,43%,46%,48.20%,7.90%,96.80%,2%,1%,96%,LEVEL 2,NOT ON PROBATION,WELL-ORGANIZED,STRONG,NEUTRAL,NEUTRAL,WEAK,21,52,33,42,1,72.70%,2.9,96%,,No
610121,Washington Irving Elementary School,749 S Oakley Blvd,Chicago,IL,60612,(773) 534-7295,Network 6,39%,36%,64%,71%,55%,63%,9.80%,14.10%,90.40%,2%,64%,28%,LEVEL 2,NOT ON PROBATION,PARTIALLY ORGANIZED,WEAK,NEUTRAL,NEUTRAL,STRONG,66,80,22,23,14.8,50.40%,1.9,94.20%,,No
610122,Helen Peirce International Studies ES,1423 W Bryn Mawr Ave,Chicago,IL,60660,(773) 534-2440,Network 2,56%,44%,61%,71%,68%,55%,19.60%,8.50%,71.70%,20%,8%,60%,LEVEL 1,NOT ON PROBATION,ORGANIZED,STRONG,WEAK,STRONG,NEUTRAL,63,84,64,49,3,11.80%,3.2,95.80%,,No
610123,William Penn Elementary School,1616 S Avers Ave,Chicago,IL,60623,(773) 534-1665,Network 5,25%,15%,71%,71%,26%,28%,8.20%,29.00%,93.10%,0%,87%,12%,LEVEL 2,ON PROBATION,ORGANIZED,STRONG,STRONG,WEAK,NEUTRAL,96,77,4,2,10.2,53.50%,3.7,93.50%,,No
610124,Harold Washington Elementary School,9130 S University Ave,Chicago,IL,60619,(773) 535-6225,Network 12,33%,33%,55%,67%,56%,53%,0.00%,13.50%,96.20%,0%,99%,1%,LEVEL 3,ON PROBATION,PARTIALLY ORGANIZED,NEUTRAL,WEAK,WEAK,NEUTRAL,30,70,12,26,10,55.80%,2.6,94.10%,,No
610125,Irma C Ruiz Elementary School,2410 S Leavitt St,Chicago,IL,60608,(773) 535-4825,Network 7,35%,23%,59%,49%,31%,38%,33.40%,9.30%,95.80%,2%,0%,97%,LEVEL 2,NOT ON PROBATION,ORGANIZED,NEUTRAL,NEUTRAL,NEUTRAL,NOT ENOUGH DATA,32,1,26,12,3.1,9.10%,2.4,94.20%,,No
610126,John J Pershing Elementary Humanities Magnet,3200 S Calumet Ave,Chicago,IL,60616,(773) 534-9272,Network 9,59%,46%,70%,68%,60%,-,1.30%,11.90%,74.90%,1%,94%,3%,LEVEL 1,NOT ON PROBATION,NOT YET ORGANIZED,WEAK,WEAK,NOT ENOUGH DATA,STRONG,83,49,68,45,9.5,100%,1.5,95.10%,,No
610127,Mary Gage Peterson Elementary School,5510 N Christiana Ave,Chicago,IL,60625,(773) 534-5070,Network 1,50%,59%,62%,71%,60%,46%,23.80%,9.40%,78.60%,26%,5%,36%,LEVEL 1,NOT ON PROBATION,MODERATELY ORGANIZED,NEUTRAL,WEAK,STRONG,NOT ENOUGH DATA,66,92,54,76,3.8,52.50%,2.3,94.90%,,No
610128,Marcus Moziah Garvey Elementary School,10309 S Morgan St,Chicago,IL,60643,(773) 535-2763,Network 13,50%,38%,70%,65%,50%,41%,0.00%,11.30%,97.60%,0%,100%,0%,LEVEL 2,NOT ON PROBATION,ORGANIZED,NEUTRAL,NEUTRAL,STRONG,VERY STRONG,85,50,45,24,9.9,96.70%,2.2,94%,,No
610129,Josiah Pickard Elementary School,2301 W 21st Pl,Chicago,IL,60608,(773) 535-7280,Network 7,36%,36%,60%,73%,47%,22%,48.20%,13.50%,99.20%,1%,3%,95%,LEVEL 2,NOT ON PROBATION,NOT YET ORGANIZED,WEAK,WEAK,NEUTRAL,STRONG,42,80,23,32,4.1,78.80%,1.5,94.90%,,No
610130,John T Pirie Fine Arts & Academic Center ES,650 E 85th St,Chicago,IL,60619,(773) 535-3435,Network 12,28%,21%,50%,63%,49%,36%,0.80%,9.40%,90.60%,0%,99%,0%,LEVEL 2,NOT ON PROBATION,WELL-ORGANIZED,STRONG,NEUTRAL,STRONG,NOT ENOUGH DATA,0,12,8,6,12.4,83.60%,1.7,94.30%,,No
610131,Ambrose Plamondon Elementary School,2642 W 15th Pl,Chicago,IL,60608,(773) 534-1789,Network 5,35%,43%,67%,65%,68%,33%,23.90%,13.50%,99.40%,0%,23%,76%,LEVEL 2,NOT ON PROBATION,ORGANIZED,NEUTRAL,WEAK,STRONG,NOT ENOUGH DATA,77,80,31,37,7.6,77.80%,1.6,96.40%,,No
610132,Edgar Allan Poe Elementary Classical School,10538 S Langley Ave,Chicago,IL,60628,(773) 535-5525,Network 13,90%,94%,57%,78%,100%,95%,0.00%,4.10%,42.50%,2%,94%,3%,LEVEL 1,NOT ON PROBATION,MODERATELY ORGANIZED,NOT ENOUGH DATA,NOT ENOUGH DATA,STRONG,NOT ENOUGH DATA,91,99,99,99,2.6,,,97.50%,,No
610133,Laura S Ward Elementary School,646 N Lawndale Ave,Chicago,IL,60624,(773) 534-6440,Network 5,52%,62%,82%,85%,38%,65%,0.70%,9.50%,99.30%,0%,96%,3%,LEVEL 1,NOT ON PROBATION,WELL-ORGANIZED,STRONG,STRONG,STRONG,VERY STRONG,99,99,54,81,8,50.80%,2.6,95.80%,,No
610135,Portage Park Elementary School,5330 W Berteau Ave,Chicago,IL,60641,(773) 534-3576,Network 1,49%,46%,57%,63%,48%,52%,11.90%,12.00%,83.90%,31%,2%,62%,LEVEL 2,NOT ON PROBATION,PARTIALLY ORGANIZED,NEUTRAL,NEUTRAL,STRONG,NEUTRAL,47,48,52,50,4.3,34.50%,2.1,93.80%,,No
610136,William H Prescott Elementary School,1632 W Wrightwood Ave,Chicago,IL,60614,(773) 534-5505,Network 4,54%,58%,79%,84%,67%,83%,20.10%,15.30%,60.10%,34%,14%,42%,LEVEL 1,NOT ON PROBATION,WELL-ORGANIZED,VERY STRONG,STRONG,VERY STRONG,NEUTRAL,99,99,60,70,3.7,6.90%,1.7,94.70%,,No
610137,Ernst Prussing Elementary School,4650 N Menard Ave,Chicago,IL,60630,(773) 534-3460,Network 1,60%,64%,58%,72%,69%,66%,30.70%,11.40%,79.20%,47%,2%,37%,LEVEL 1,NOT ON PROBATION,MODERATELY ORGANIZED,NEUTRAL,NEUTRAL,NOT ENOUGH DATA,NEUTRAL,71,95,77,88,4.3,18.40%,2,95%,,No
610138,Pulaski International School of Chicago,2230 W McLean Ave,Chicago,IL,60647,(773) 534-4391,Network 6,64%,53%,71%,76%,65%,53%,21.10%,6.50%,82.70%,11%,1%,83%,LEVEL 1,NOT ON PROBATION,WELL-ORGANIZED,STRONG,NEUTRAL,STRONG,WEAK,99,99,79,67,1.8,30.20%,2.1,95.50%,,No
610139,George M Pullman Elementary School,11311 S Forrestville Ave,Chicago,IL,60628,(773) 535-5395,Network 13,43%,57%,47%,74%,29%,59%,7.90%,9.80%,95.70%,0%,75%,20%,LEVEL 2,NOT ON PROBATION,ORGANIZED,NEUTRAL,NEUTRAL,NEUTRAL,WEAK,16,99,42,69,3.6,,,90.50%,,No
610141,Ravenswood Elementary School,4332 N Paulina St,Chicago,IL,60613,(773) 534-5525,Network 2,56%,66%,61%,75%,64%,56%,14.60%,11.40%,50.00%,39%,10%,42%,LEVEL 1,NOT ON PROBATION,WELL-ORGANIZED,STRONG,NEUTRAL,VERY STRONG,VERY WEAK,70,99,70,86,3.8,64.30%,1.7,95.70%,,No
610142,William H Ray Elementary School,5631 S Kimbark Ave,Chicago,IL,60637,(773) 535-0970,Network 9,53%,52%,54%,63%,70%,63%,9.70%,11.40%,49.80%,20%,55%,8%,LEVEL 2,NOT ON PROBATION,NOT YET ORGANIZED,STRONG,WEAK,STRONG,WEAK,18,44,63,65,3.9,40.60%,2.9,94.90%,,No
610143,William C Reavis Math & Science Specialty ES,834 E 50th St,Chicago,IL,60615,(773) 535-1060,OS4,27%,16%,48%,51%,19%,14%,0.70%,14.80%,96.70%,0%,97%,1%,LEVEL 3,ON PROBATION,NOT YET ORGANIZED,NEUTRAL,NEUTRAL,VERY WEAK,NOT ENOUGH DATA,0,1,4,3,92.2,21.80%,2.5,92%,,No
610144,Frank W Reilly Elementary School,3650 W School St,Chicago,IL,60618,(773) 534-5250,Network 4,37%,50%,57%,66%,42%,32%,47.30%,10.80%,96.30%,4%,1%,92%,LEVEL 2,NOT ON PROBATION,NOT YET ORGANIZED,WEAK,WEAK,NEUTRAL,NOT ENOUGH DATA,26,76,20,57,1.9,27.80%,3.3,96.40%,,No
610145,Peter A Reinberg Elementary School,3425 N Major Ave,Chicago,IL,60634,(773) 534-3465,Network 1,46%,53%,57%,69%,52%,62%,36.40%,20.60%,88.70%,29%,1%,66%,LEVEL 1,NOT ON PROBATION,MODERATELY ORGANIZED,NEUTRAL,NEUTRAL,NEUTRAL,NOT ENOUGH DATA,33,94,42,62,2.4,41.20%,1.8,94.80%,,No
610146,Paul Revere Elementary School,1010 E 72nd St,Chicago,IL,60619,(773) 535-0618,Network 12,25%,12%,63%,51%,34%,17%,0.00%,10.50%,99.40%,0%,99%,0%,LEVEL 3,ON PROBATION,PARTIALLY ORGANIZED,WEAK,NEUTRAL,WEAK,WEAK,20,0,2,1,46.7,46.20%,2.2,91%,,No
610147,Philip Rogers Elementary School,7345 N Washtenaw Ave,Chicago,IL,60645,(773) 534-2125,Network 2,63%,56%,70%,85%,65%,65%,31.80%,11.20%,80.50%,18%,17%,41%,LEVEL 1,NOT ON PROBATION,WELL-ORGANIZED,STRONG,STRONG,STRONG,NEUTRAL,96,99,79,77,1.2,81.80%,1.6,95%,,No
610148,Cesar E Chavez Multicultural Academic Center ES,4747 S Marshfield Ave,Chicago,IL,60609,(773) 535-4600,Network 8,38%,73%,76%,86%,43%,55%,50.40%,10.10%,98.20%,1%,4%,95%,LEVEL 1,NOT ON PROBATION,WELL-ORGANIZED,STRONG,VERY STRONG,NEUTRAL,NEUTRAL,99,99,31,91,7.8,50.30%,2.1,95.40%,,No
610152,Martha Ruggles Elementary School,7831 S Prairie Ave,Chicago,IL,60619,(773) 535-3085,Network 12,28%,19%,67%,55%,42%,23%,0.00%,11.70%,98.00%,0%,99%,1%,LEVEL 3,ON PROBATION,PARTIALLY ORGANIZED,WEAK,WEAK,WEAK,NEUTRAL,75,6,9,4,20.6,77.10%,2.2,93.50%,,No
610153,William H Ryder Math & Science Specialty ES,8716 S Wallace St,Chicago,IL,60620,(773) 535-3843,Network 11,20%,22%,34%,45%,13%,42%,0.20%,23.40%,97.60%,0%,96%,1%,LEVEL 3,ON PROBATION,ORGANIZED,STRONG,NEUTRAL,NEUTRAL,WEAK,0,0,0,2,29,91%,2.1,91.30%,,No
610155,Sauganash Elementary School,6040 N Kilpatrick Ave,Chicago,IL,60646,(773) 534-3470,Network 1,81%,79%,70%,75%,84%,77%,12.10%,11.40%,30.90%,52%,2%,25%,LEVEL 1,NOT ON PROBATION,WELL-ORGANIZED,VERY STRONG,STRONG,VERY STRONG,STRONG,99,99,97,97,0.4,15.40%,1,95.60%,,No
610157,Sidney Sawyer Elementary School,5248 S Sawyer Ave,Chicago,IL,60632,(773) 535-0440,Network 8,43%,41%,62%,68%,38%,46%,37.50%,6.30%,97.90%,1%,1%,98%,LEVEL 1,NOT ON PROBATION,PARTIALLY ORGANIZED,NEUTRAL,WEAK,NEUTRAL,NOT ENOUGH DATA,56,65,34,40,2.3,74.10%,3.5,96%,,Yes
610158,Harriet E Sayre Elementary Language Academy,1850 N Newland Ave,Chicago,IL,60707,(773) 534-3351,Network 3,55%,51%,64%,80%,54%,48%,12.40%,10.00%,78.30%,12%,39%,43%,LEVEL 1,NOT ON PROBATION,MODERATELY ORGANIZED,NOT ENOUGH DATA,NOT ENOUGH DATA,STRONG,NEUTRAL,80,99,55,61,12.5,79.60%,1.7,95.70%,,No
610159,Jonathan Y Scammon Elementary School,4201 W Henderson St,Chicago,IL,60641,(773) 534-3475,Network 1,51%,51%,72%,76%,36%,52%,40.40%,9.40%,95.00%,6%,1%,89%,LEVEL 1,NOT ON PROBATION,MODERATELY ORGANIZED,NEUTRAL,NEUTRAL,NEUTRAL,NOT ENOUGH DATA,97,99,48,59,3.4,83.30%,2.9,95.20%,,No
610163,Frederick Stock Elementary School,7507 W Birchwood Ave,Chicago,IL,60631,(773) 534-1215,Network 1,-,-,-,-,-,-,22.40%,41.90%,27.80%,52%,3%,14%,,,ORGANIZED,STRONG,STRONG,VERY WEAK,VERY STRONG,,,,,,,,68.60%,,No
610165,Franz Peter Schubert Elementary School,2727 N Long Ave,Chicago,IL,60639,(773) 534-3080,Network 3,35%,43%,61%,78%,29%,47%,64.90%,6.80%,96.80%,3%,1%,95%,LEVEL 2,NOT ON PROBATION,NOT YET ORGANIZED,WEAK,WEAK,NOT ENOUGH DATA,NEUTRAL,42,99,18,54,1.7,9%,1.2,94.70%,,No
610167,William H Seward Communication Arts Academy ES,4600 S Hermitage Ave,Chicago,IL,60609,(773) 535-4890,Network 8,36%,37%,60%,70%,30%,35%,45.20%,8.70%,99.30%,1%,1%,98%,LEVEL 3,ON PROBATION,WELL-ORGANIZED,NEUTRAL,NEUTRAL,NEUTRAL,NEUTRAL,40,49,29,32,0.2,7.40%,5,95.80%,,No
610170,Columbia Explorers Elementary Academy,4520 S Kedzie Ave,Chicago,IL,60632,(773) 535-4050,Network 8,51%,52%,79%,81%,42%,46%,39.90%,8.10%,98.00%,1%,1%,98%,LEVEL 2,NOT ON PROBATION,WELL-ORGANIZED,STRONG,STRONG,NEUTRAL,VERY STRONG,99,99,48,61,6.3,45.50%,2.6,94.40%,,No
610171,Arnold Mireles Elementary Academy,9000 S Exchange Ave,Chicago,IL,60617,(773) 535-6360,Network 12,27%,32%,52%,78%,16%,26%,28.80%,10.50%,97.80%,1%,50%,49%,LEVEL 2,ON PROBATION,NOT YET ORGANIZED,WEAK,WEAK,WEAK,NEUTRAL,0,98,2,15,16.9,83%,2.7,91.80%,,No
610172,William T Sherman Elementary School,1000 W 52nd St,Chicago,IL,60609,(773) 535-1757,AUSL,21%,26%,55%,64%,23%,41%,0.50%,8.70%,99.20%,0%,95%,5%,LEVEL 3,ON PROBATION,PARTIALLY ORGANIZED,WEAK,WEAK,STRONG,STRONG,2,44,2,11,28.1,40.20%,2.1,92.50%,,No
610173,Jesse Sherwood Elementary School,245 W 57th St,Chicago,IL,60621,(773) 535-0829,Network 11,29%,34%,66%,65%,41%,22%,0.20%,18.90%,99.00%,0%,97%,2%,LEVEL 2,NOT ON PROBATION,WELL-ORGANIZED,STRONG,NEUTRAL,NEUTRAL,STRONG,83,73,7,18,7.4,44%,3.1,92.20%,,No
610174,James Shields Elementary School,4250 S Rockwell St,Chicago,IL,60632,(773) 535-7285,Network 8,37%,41%,66%,80%,28%,-,46.30%,8.30%,99.30%,2%,1%,97%,LEVEL 2,NOT ON PROBATION,ORGANIZED,STRONG,NEUTRAL,NOT ENOUGH DATA,NEUTRAL,63,95,26,43,2.3,29.50%,1.5,95.40%,,No
610175,Beulah Shoesmith Elementary School,1330 E 50th St,Chicago,IL,60615,(773) 535-1764,Network 9,50%,48%,67%,88%,54%,44%,0.30%,12.50%,82.20%,1%,95%,2%,LEVEL 2,NOT ON PROBATION,WELL-ORGANIZED,STRONG,NEUTRAL,STRONG,NEUTRAL,96,99,41,60,26.1,78.30%,1.6,93.60%,,No
610176,John D Shoop Math-Science Technical Academy ES,11140 S Bishop St,Chicago,IL,60643,(773) 535-2715,Network 13,26%,26%,62%,61%,32%,37%,0.00%,9.00%,92.20%,0%,99%,1%,LEVEL 3,ON PROBATION,NOT YET ORGANIZED,WEAK,WEAK,WEAK,NEUTRAL,49,38,5,9,8.1,39.30%,2.1,93.30%,,No
610177,Mark Skinner Elementary School,1260 W Adams St,Chicago,IL,60607,(773) 534-7790,Network 6,93%,90%,55%,61%,90%,93%,3.70%,6.80%,24.70%,23%,39%,12%,LEVEL 1,NOT ON PROBATION,MODERATELY ORGANIZED,NOT ENOUGH DATA,NOT ENOUGH DATA,VERY STRONG,NOT ENOUGH DATA,98,90,99,99,0.1,,,96.50%,,No
610178,Theophilus Schmid Elementary School,9755 S Greenwood Ave,Chicago,IL,60628,(773) 535-6235,Network 12,31%,29%,60%,84%,20%,22%,0.00%,19.70%,96.20%,1%,94%,4%,LEVEL 3,ON PROBATION,ORGANIZED,STRONG,NEUTRAL,WEAK,NEUTRAL,32,99,8,17,26,80.60%,2.1,91.60%,,No
610179,Washington D Smyser Elementary School,4310 N Melvina Ave,Chicago,IL,60634,(773) 534-3711,Network 1,64%,65%,67%,83%,72%,67%,19.70%,6.90%,79.10%,38%,1%,57%,LEVEL 1,NOT ON PROBATION,ORGANIZED,STRONG,STRONG,NEUTRAL,NEUTRAL,91,99,82,84,1.5,50%,1.7,94.80%,,No
610180,John M Smyth Elementary School,1059 W 13th St,Chicago,IL,60608,(773) 534-7180,OS4,19%,23%,51%,42%,24%,29%,0.80%,17.20%,97.90%,2%,92%,5%,LEVEL 3,ON PROBATION,PARTIALLY ORGANIZED,NEUTRAL,WEAK,WEAK,NEUTRAL,0,0,1,3,26,90.80%,2,92.30%,,No
610182,Hannah G Solomon Elementary School,6206 N Hamlin Ave,Chicago,IL,60659,(773) 534-5226,Network 1,77%,76%,69%,76%,83%,75%,28.00%,21.00%,59.10%,44%,4%,14%,LEVEL 1,NOT ON PROBATION,WELL-ORGANIZED,VERY STRONG,STRONG,STRONG,STRONG,99,99,93,95,0.3,,,95.10%,,No
610183,Spencer Technology Academy,214 N Lavergne Ave,Chicago,IL,60644,(773) 534-6150,Network 3,17%,17%,50%,55%,19%,41%,0.00%,11.90%,99.10%,0%,99%,1%,LEVEL 3,ON PROBATION,WELL-ORGANIZED,NEUTRAL,STRONG,NEUTRAL,WEAK,0,2,0,2,38.2,95.20%,3.4,93.10%,,No
610184,John Spry Elementary Community School,2400 S Marshall Blvd,Chicago,IL,60623,(773) 534-1700,Network 7,37%,42%,70%,74%,18%,29%,47.10%,11.30%,98.90%,1%,0%,98%,LEVEL 2,NOT ON PROBATION,ORGANIZED,NEUTRAL,NEUTRAL,NEUTRAL,NEUTRAL,92,93,23,43,2.5,59.40%,2.6,95.30%,,No
610185,Adlai E Stevenson Elementary School,8010 S Kostner Ave,Chicago,IL,60652,(773) 535-2280,Network 10,48%,45%,59%,68%,53%,58%,36.10%,13.40%,94.50%,5%,5%,89%,LEVEL 1,NOT ON PROBATION,ORGANIZED,NOT ENOUGH DATA,NOT ENOUGH DATA,NEUTRAL,WEAK,44,76,50,47,2.3,19.50%,1.7,96%,,No
610188,Dunne Technology Academy,10845 S Union Ave,Chicago,IL,60628,(773) 535-5517,Network 13,37%,29%,63%,67%,36%,55%,0.00%,10.90%,93.20%,0%,98%,2%,LEVEL 2,NOT ON PROBATION,WELL-ORGANIZED,NEUTRAL,STRONG,NEUTRAL,WEAK,44,54,15,15,3.6,64.70%,2.6,95.20%,,No
610191,Stone Elementary Scholastic Academy,6239 N Leavitt St,Chicago,IL,60659,(773) 534-2045,Network 2,75%,63%,64%,66%,79%,69%,14.00%,10.90%,52.70%,35%,18%,19%,LEVEL 1,NOT ON PROBATION,ORGANIZED,STRONG,NEUTRAL,STRONG,WEAK,97,86,94,82,3.5,61.10%,1.2,96%,,No
610192,Harriet Beecher Stowe Elementary School,3444 W Wabansia Ave,Chicago,IL,60647,(773) 534-4175,Network 5,23%,38%,57%,77%,15%,38%,42.20%,15.50%,97.50%,1%,6%,91%,LEVEL 2,NOT ON PROBATION,NOT YET ORGANIZED,WEAK,VERY WEAK,WEAK,WEAK,2,98,3,27,15.8,64.80%,2.2,94.30%,,No
610193,William K New Sullivan Elementary School,8331 S Mackinaw,Chicago,IL,60617,(773) 535-6585,Network 12,29%,13%,56%,60%,33%,20%,10.80%,17.30%,98.60%,1%,73%,25%,LEVEL 2,ON PROBATION,ORGANIZED,NEUTRAL,NEUTRAL,STRONG,STRONG,5,18,3,1,30.1,75.60%,2,90.30%,,No
610194,Charles Sumner  Math & Science Community Acad ES,4320 W 5th Ave,Chicago,IL,60624,(773) 534-6730,Network 5,43%,47%,62%,77%,37%,52%,0.00%,8.20%,97.40%,0%,99%,1%,LEVEL 1,NOT ON PROBATION,WELL-ORGANIZED,STRONG,NEUTRAL,NEUTRAL,NEUTRAL,75,98,33,51,3.3,40%,2.4,94.70%,,No
610195,Elizabeth H Sutherland Elementary School,10015 S Leavitt St,Chicago,IL,60643,(773) 535-2580,Network 10,74%,64%,77%,79%,69%,64%,0.30%,12.30%,25.20%,40%,52%,6%,LEVEL 1,NOT ON PROBATION,MODERATELY ORGANIZED,NOT ENOUGH DATA,NOT ENOUGH DATA,VERY STRONG,NOT ENOUGH DATA,99,99,96,84,0.8,27.30%,1.2,95.10%,,No
610196,George B Swift Elementary Specialty School,5900 N Winthrop Ave,Chicago,IL,60660,(773) 534-2695,Network 2,53%,62%,73%,78%,44%,63%,44.30%,9.50%,89.40%,16%,33%,33%,LEVEL 1,NOT ON PROBATION,WELL-ORGANIZED,NEUTRAL,NEUTRAL,STRONG,VERY STRONG,98,99,56,82,1.9,25.90%,1.9,95.70%,,No
610197,Mancel Talcott Elementary School,1840 W Ohio St,Chicago,IL,60622,(773) 534-7130,Network 6,48%,48%,59%,76%,30%,38%,33.60%,17.90%,82.80%,8%,6%,83%,LEVEL 2,NOT ON PROBATION,WELL-ORGANIZED,STRONG,NEUTRAL,VERY STRONG,NEUTRAL,51,95,40,49,3.6,18%,2,95.40%,,No
610198,Douglas Taylor Elementary School,9912 S Avenue H,Chicago,IL,60617,(773) 535-6240,Network 13,35%,28%,62%,71%,27%,29%,36.40%,11.00%,98.00%,1%,10%,88%,LEVEL 3,ON PROBATION,PARTIALLY ORGANIZED,NEUTRAL,WEAK,NEUTRAL,NEUTRAL,29,79,12,15,3.4,26.70%,1.5,94.60%,,No
610199,Johnnie Colemon Elementary Academy,1441 W 119th St,Chicago,IL,60643,(773) 535-3975,Network 13,48%,29%,72%,58%,60%,42%,3.20%,11.80%,85.70%,0%,93%,7%,LEVEL 1,NOT ON PROBATION,ORGANIZED,STRONG,NEUTRAL,STRONG,STRONG,96,16,37,15,15.7,34.10%,1.8,95.50%,,No
610200,James N Thorp Elementary School,8914 S Buffalo Ave,Chicago,IL,60617,(773) 535-6250,Network 12,20%,24%,51%,62%,46%,38%,11.60%,25.90%,99.30%,1%,77%,22%,LEVEL 3,ON PROBATION,PARTIALLY ORGANIZED,NEUTRAL,NEUTRAL,WEAK,NEUTRAL,0,40,2,6,25.5,55.10%,2.5,90.90%,,No
610201,Ole A Thorp Elementary Scholastic Academy,6024 W Warwick Ave,Chicago,IL,60634,(773) 534-3640,Network 1,64%,67%,63%,68%,72%,71%,10.40%,10.20%,50.40%,29%,12%,40%,LEVEL 1,NOT ON PROBATION,WELL-ORGANIZED,VERY STRONG,STRONG,VERY STRONG,NEUTRAL,89,98,83,89,2.2,24.30%,1.1,95.70%,,No
610202,George W Tilton Elementary School,223 N Keeler Ave,Chicago,IL,60624,(773) 534-6746,Network 5,20%,28%,67%,60%,14%,40%,0.00%,10.00%,98.70%,0%,97%,1%,LEVEL 3,ON PROBATION,NOT YET ORGANIZED,WEAK,WEAK,VERY WEAK,STRONG,24,87,1,14,59.9,80.30%,2,91.80%,,No
610203,Enrico Tonti Elementary School,5815 S Homan Ave,Chicago,IL,60629,(773) 535-9280,Network 8,37%,44%,60%,69%,39%,53%,34.70%,7.80%,96.30%,1%,2%,96%,LEVEL 1,NOT ON PROBATION,ORGANIZED,STRONG,NEUTRAL,NOT ENOUGH DATA,NEUTRAL,23,84,25,45,1.1,33.30%,1.6,96.30%,,Yes
610206,Mark Twain Elementary School,5134 S Lotus Ave,Chicago,IL,60638,(773) 535-2290,Network 10,55%,46%,65%,72%,62%,66%,16.70%,8.20%,87.60%,19%,1%,79%,LEVEL 1,NOT ON PROBATION,WELL-ORGANIZED,VERY STRONG,VERY STRONG,VERY STRONG,VERY STRONG,86,92,65,54,1.3,23.80%,2.7,95.70%,,No
610207,John H Vanderpoel Elementary Magnet School,9510 S Prospect Ave,Chicago,IL,60643,(773) 535-2690,Network 10,53%,46%,66%,70%,66%,63%,0.00%,7.40%,66.80%,0%,98%,2%,LEVEL 2,NOT ON PROBATION,NOT YET ORGANIZED,NEUTRAL,WEAK,NEUTRAL,WEAK,96,86,66,45,4.3,68.40%,2.5,95.80%,,No
610208,Mildred I Lavizzo Elementary School,138 W 109th St,Chicago,IL,60628,(773) 535-5300,Network 13,32%,14%,60%,56%,18%,18%,0.00%,9.00%,97.80%,0%,99%,2%,LEVEL 3,ON PROBATION,MODERATELY ORGANIZED,WEAK,NEUTRAL,NEUTRAL,NOT ENOUGH DATA,56,1,8,1,7,63.60%,4,91.30%,,No
610209,Alessandro Volta Elementary School,4950 N Avers Ave,Chicago,IL,60625,(773) 534-5080,Network 1,43%,43%,68%,68%,31%,31%,52.90%,9.20%,94.00%,9%,3%,63%,LEVEL 1,NOT ON PROBATION,ORGANIZED,NEUTRAL,NEUTRAL,NEUTRAL,STRONG,91,94,33,45,0.2,3.70%,3,96.20%,,No
610212,Albany Park Multicultural Academy,4929 N Sawyer Ave,Chicago,IL,60625,(773) 534-5108,Network 1,49%,68%,57%,63%,-,-,16.10%,11.80%,96.40%,4%,6%,78%,LEVEL 2,NOT ON PROBATION,ORGANIZED,NEUTRAL,NEUTRAL,STRONG,VERY STRONG,47,87,46,89,,,,96.80%,,No
610213,James Wadsworth Elementary School,6650 S Ellis Ave,Chicago,IL,60637,(773) 535-0730,Network 9,29%,12%,52%,63%,33%,21%,0.00%,11.90%,93.10%,0%,99%,0%,LEVEL 3,ON PROBATION,PARTIALLY ORGANIZED,NEUTRAL,VERY WEAK,NOT ENOUGH DATA,NEUTRAL,1,14,5,3,21.6,40.20%,1.9,92.10%,,No
610215,Francisco I Madero Middle School,3202 W 28th St,Chicago,IL,60623,(773) 535-4466,Network 7,48%,42%,64%,67%,-,-,17.40%,12.70%,99.40%,1%,1%,98%,LEVEL 2,NOT ON PROBATION,WELL-ORGANIZED,STRONG,VERY STRONG,NEUTRAL,NEUTRAL,60,56,40,40,2.6,40%,3,93.60%,,No
610216,John A Walsh Elementary School,2015 S Peoria St,Chicago,IL,60608,(773) 534-7950,Network 7,50%,49%,61%,62%,46%,65%,27.30%,17.10%,92.20%,2%,6%,90%,LEVEL 1,NOT ON PROBATION,NOT YET ORGANIZED,WEAK,VERY WEAK,NEUTRAL,NEUTRAL,52,51,42,54,3.1,87.50%,2.1,94.10%,,No
610217,James Ward Elementary School,2701 S Shields Ave,Chicago,IL,60616,(773) 534-9050,Network 6,59%,78%,68%,86%,65%,62%,31.20%,9.40%,85.40%,4%,22%,12%,LEVEL 1,NOT ON PROBATION,ORGANIZED,STRONG,NEUTRAL,STRONG,WEAK,95,99,75,98,0.2,,,97.10%,,No
610218,Joseph Warren Elementary School,9239 S Jeffery Ave,Chicago,IL,60617,(773) 535-6625,Network 12,36%,27%,59%,80%,28%,47%,0.30%,9.60%,94.50%,0%,97%,2%,LEVEL 3,ON PROBATION,WELL-ORGANIZED,NEUTRAL,NEUTRAL,WEAK,NEUTRAL,60,99,11,10,13.3,79.60%,2.3,94%,,No
610219,George Washington Elementary School,3611 E 114th St,Chicago,IL,60617,(773) 535-5010,Network 13,57%,55%,78%,73%,62%,68%,10.40%,9.10%,78.60%,8%,1%,89%,LEVEL 1,NOT ON PROBATION,WELL-ORGANIZED,STRONG,STRONG,NEUTRAL,STRONG,99,97,68,70,0.9,25%,2.1,95.60%,,No
610220,Thomas J Waters Elementary School,4540 N Campbell Ave,Chicago,IL,60625,(773) 534-5090,Network 2,68%,52%,57%,58%,75%,60%,14.30%,7.60%,46.40%,45%,3%,40%,LEVEL 1,NOT ON PROBATION,WELL-ORGANIZED,VERY STRONG,STRONG,VERY STRONG,NOT ENOUGH DATA,50,26,86,59,0.8,,,95.80%,,No
610221,Daniel Webster Elementary School,4055 W Arthington St,Chicago,IL,60624,(773) 534-6925,Network 5,37%,34%,83%,76%,55%,83%,0.00%,10.10%,99.10%,0%,99%,0%,LEVEL 1,NOT ON PROBATION,WELL-ORGANIZED,STRONG,NEUTRAL,NEUTRAL,VERY STRONG,99,96,18,20,1.2,,,93.90%,,No
610223,Daniel S Wentworth Elementary School,1340 W 71st St,Chicago,IL,60636,(773) 535-3394,Network 11,31%,28%,70%,73%,35%,19%,0.30%,14.70%,98.40%,0%,98%,1%,LEVEL 2,ON PROBATION,ORGANIZED,NEUTRAL,NEUTRAL,NEUTRAL,STRONG,99,98,8,13,15.2,42.60%,4.2,91.30%,,No
610225,John Whistler Elementary School,11533 S Ada St,Chicago,IL,60643,(773) 535-5560,Network 13,35%,31%,66%,68%,47%,23%,0.00%,13.10%,96.70%,0%,99%,1%,LEVEL 3,ON PROBATION,WELL-ORGANIZED,STRONG,NEUTRAL,NEUTRAL,NEUTRAL,90,97,16,13,29.7,88.20%,2.2,92.40%,,No
610226,Socorro Sandoval Elementary School,5534 S Saint Louis Ave,Chicago,IL,60629,(773) 535-0457,Network 8,41%,49%,57%,67%,39%,51%,47.50%,6.90%,97.90%,1%,1%,96%,LEVEL 1,NOT ON PROBATION,ORGANIZED,STRONG,NEUTRAL,NOT ENOUGH DATA,NEUTRAL,22,70,34,53,1.8,22.90%,3,95.60%,,No
610227,Eli Whitney Elementary School,2815 S Komensky Ave,Chicago,IL,60623,(773) 534-1560,Network 7,41%,36%,61%,75%,34%,42%,52.50%,7.90%,98.50%,1%,0%,96%,LEVEL 1,NOT ON PROBATION,NOT YET ORGANIZED,WEAK,VERY WEAK,NEUTRAL,WEAK,36,88,32,33,5.6,52.60%,1.6,95.30%,,No
610228,John Greenleaf Whittier Elementary School,1900 W 23rd St,Chicago,IL,60608,(773) 535-4590,Network 7,32%,35%,60%,65%,27%,19%,70.70%,13.50%,98.60%,1%,0%,99%,LEVEL 3,ON PROBATION,ORGANIZED,NOT ENOUGH DATA,NOT ENOUGH DATA,NEUTRAL,VERY WEAK,42,60,23,32,7.6,70.70%,2,94.20%,,No
610229,A.N. Pritzker School,2009 W Schiller St,Chicago,IL,60622,(773) 534-4415,Network 6,63%,61%,56%,69%,69%,71%,7.60%,9.70%,55.80%,24%,37%,31%,LEVEL 1,NOT ON PROBATION,ORGANIZED,STRONG,NEUTRAL,NEUTRAL,NOT ENOUGH DATA,71,96,83,85,14.3,35.80%,2.5,94.20%,,No
610230,Wildwood Elementary School,6950 N Hiawatha Ave,Chicago,IL,60646,(773) 534-1188,Network 1,78%,82%,64%,85%,86%,81%,9.20%,12.00%,17.50%,59%,4%,22%,LEVEL 1,NOT ON PROBATION,WELL-ORGANIZED,VERY STRONG,VERY STRONG,VERY STRONG,VERY WEAK,99,99,98,99,,,,95.60%,,No
610231,National Teachers Elementary Academy,55 W Cermak Rd,Chicago,IL,60616,(773) 534-9970,AUSL,34%,32%,59%,51%,29%,31%,0.70%,13.00%,90.40%,2%,92%,3%,LEVEL 3,ON PROBATION,NOT YET ORGANIZED,WEAK,WEAK,NEUTRAL,VERY STRONG,35,1,15,13,56.4,88.40%,2.3,94.40%,,No
610234,Richard Yates Elementary School,1839 N Richmond St,Chicago,IL,60647,(773) 534-4550,Network 5,30%,32%,58%,55%,32%,36%,35.00%,25.90%,97.30%,3%,13%,83%,LEVEL 3,ON PROBATION,NOT YET ORGANIZED,WEAK,WEAK,WEAK,NEUTRAL,13,5,12,23,6.9,50.50%,1.7,94.20%,,No
610235,Ella Flagg Young Elementary School,1434 N Parkside Ave,Chicago,IL,60651,(773) 534-6200,Network 3,23%,27%,53%,58%,50%,38%,4.40%,12.30%,98.00%,1%,88%,9%,LEVEL 3,ON PROBATION,PARTIALLY ORGANIZED,NEUTRAL,NEUTRAL,WEAK,NEUTRAL,9,35,3,9,3,70.20%,3.4,93.50%,,No
610237,Ludwig Van Beethoven Elementary School,25 W 47th St,Chicago,IL,60609,(773) 535-1480,Network 9,25%,26%,60%,65%,39%,10%,0.30%,15.20%,98.00%,0%,97%,1%,LEVEL 3,ON PROBATION,MODERATELY ORGANIZED,NEUTRAL,WEAK,WEAK,NEUTRAL,12,53,2,9,3.2,28.60%,2.6,91.80%,,No
610238,Carrie Jacobs Bond Elementary School,7050 S May St,Chicago,IL,60621,(773) 535-3480,Network 11,14%,10%,73%,59%,11%,15%,0.20%,18.80%,98.60%,0%,98%,1%,LEVEL 3,ON PROBATION,ORGANIZED,STRONG,NEUTRAL,NEUTRAL,NEUTRAL,88,2,0,0,68.5,81.30%,2.4,89.80%,,No
610239,Richard J Daley Elementary Academy,5024 S Wolcott Ave,Chicago,IL,60609,(773) 535-9091,Network 8,29%,43%,67%,73%,18%,33%,44.70%,7.80%,99.60%,0%,11%,88%,LEVEL 2,NOT ON PROBATION,PARTIALLY ORGANIZED,NEUTRAL,NEUTRAL,WEAK,NEUTRAL,70,98,15,53,9.4,17.60%,1.4,94.90%,,No
610242,Joseph Brennemann Elementary School,4251 N Clarendon Ave,Chicago,IL,60613,(773) 534-5766,Network 2,47%,34%,66%,58%,77%,60%,33.50%,21.50%,95.60%,3%,63%,27%,LEVEL 1,NOT ON PROBATION,PARTIALLY ORGANIZED,WEAK,WEAK,STRONG,STRONG,64,21,36,16,4.3,54.20%,3,95.70%,,No
610246,Edward Beasley Elementary Magnet Academic Center,5255 S State St,Chicago,IL,60609,(773) 535-1230,Network 9,45%,39%,57%,60%,56%,44%,0.10%,4.10%,79.50%,0%,97%,2%,LEVEL 2,NOT ON PROBATION,PARTIALLY ORGANIZED,NEUTRAL,NEUTRAL,NEUTRAL,NEUTRAL,33,29,41,38,25,67.70%,2.3,94.40%,,No
610248,Chicago Academy Elementary School,3400 N Austin Ave,Chicago,IL,60634,(773) 534-3885,AUSL,58%,61%,66%,69%,47%,70%,26.00%,10.50%,74.70%,25%,5%,65%,LEVEL 1,NOT ON PROBATION,ORGANIZED,STRONG,STRONG,STRONG,NOT ENOUGH DATA,84,90,69,77,5.8,43.80%,1.7,96.50%,,No
610249,Talman Elementary School,5450 S Talman Ave,Chicago,IL,60632,(773) 535-7850,Network 8,49%,48%,73%,76%,50%,44%,44.90%,15.80%,91.60%,0%,1%,98%,LEVEL 2,NOT ON PROBATION,WELL-ORGANIZED,VERY STRONG,STRONG,VERY STRONG,WEAK,99,99,52,66,3.2,19.70%,1.1,95.40%,,Yes
610250,Rueben Salazar Elementary Bilingual Center,160 W Wendell St,Chicago,IL,60610,(773) 534-8310,Network 6,58%,60%,75%,76%,23%,63%,36.00%,13.80%,79.80%,2%,19%,77%,LEVEL 1,NOT ON PROBATION,ORGANIZED,NEUTRAL,STRONG,STRONG,WEAK,99,99,67,78,8.1,71.40%,2.1,95.30%,,No
610251,Willa Cather Elementary School,2908 W Washington Blvd,Chicago,IL,60612,(773) 534-6780,Network 5,28%,33%,65%,69%,44%,69%,0.00%,14.40%,98.00%,0%,98%,2%,LEVEL 2,NOT ON PROBATION,WELL-ORGANIZED,STRONG,STRONG,NEUTRAL,VERY STRONG,88,99,8,17,34.5,67.80%,1.8,95.40%,,No
610252,Robert Nathaniel Dett Elementary School,2131 W Monroe St,Chicago,IL,60612,(773) 534-7160,Network 6,18%,23%,45%,47%,65%,29%,1.50%,27.40%,95.10%,1%,93%,3%,LEVEL 3,ON PROBATION,WELL-ORGANIZED,STRONG,STRONG,STRONG,NEUTRAL,0,0,1,3,9.4,95%,3,95%,,No
610254,Dvorak Technology Academy,3615 W 16th St,Chicago,IL,60623,(773) 534-1690,Network 5,22%,13%,58%,51%,26%,21%,0.00%,13.20%,100.00%,0%,98%,2%,LEVEL 3,ON PROBATION,WELL-ORGANIZED,NEUTRAL,NEUTRAL,WEAK,NEUTRAL,2,1,1,1,3.3,39.50%,2.1,92.80%,,No
610256,Jackie Robinson Elementary School,4225 S Lake Park Ave,Chicago,IL,60653,(773) 535-1777,OS4,18%,18%,86%,78%,41%,-,1.50%,3.00%,96.30%,0%,99%,1%,LEVEL 3,ON PROBATION,MODERATELY ORGANIZED,NEUTRAL,NEUTRAL,NOT ENOUGH DATA,STRONG,94,91,1,4,15.4,29.20%,1.6,88.80%,,No
610257,Morton School of Excellence,431 N Troy St,Chicago,IL,60612,(773) 534-6791,AUSL,45%,75%,71%,85%,22%,54%,0.20%,8.70%,99.80%,0%,94%,5%,LEVEL 1,ON PROBATION,WELL-ORGANIZED,NEUTRAL,STRONG,NEUTRAL,VERY STRONG,99,99,55,96,91.7,96.50%,1.8,94.20%,,No
610263,John Foster Dulles Elementary School,6311 S Calumet Ave,Chicago,IL,60637,(773) 535-0690,AUSL,17%,24%,61%,70%,31%,26%,0.00%,11.70%,99.60%,0%,98%,1%,LEVEL 3,ON PROBATION,NOT YET ORGANIZED,WEAK,WEAK,WEAK,NOT ENOUGH DATA,21,96,2,13,46.1,91%,2.5,93.30%,,No
610268,Arthur R Ashe Elementary School,8505 S Ingleside Ave,Chicago,IL,60619,(773) 535-3550,OS4,26%,29%,68%,64%,31%,46%,0.00%,11.70%,94.90%,0%,99%,2%,LEVEL 3,ON PROBATION,MODERATELY ORGANIZED,WEAK,WEAK,NEUTRAL,NOT ENOUGH DATA,52,89,3,13,53,66.80%,2.9,88.20%,,No
610269,John T McCutcheon Elementary School,4865 N Sheridan Rd,Chicago,IL,60640,(773) 534-2680,Network 2,40%,32%,67%,79%,32%,49%,32.90%,18.10%,99.20%,5%,47%,25%,LEVEL 2,NOT ON PROBATION,ORGANIZED,NEUTRAL,NEUTRAL,STRONG,STRONG,75,96,24,25,10.4,43.50%,1.8,93.80%,,No
610271,Jensen Elementary Scholastic Academy,3030 W Harrison St,Chicago,IL,60612,(773) 534-6840,Network 5,33%,39%,75%,66%,52%,64%,0.80%,11.30%,82.30%,0%,92%,3%,LEVEL 3,ON PROBATION,NOT YET ORGANIZED,VERY WEAK,VERY WEAK,WEAK,NEUTRAL,95,98,14,26,26.2,87.30%,1.8,92.80%,,No
610274,James Weldon Johnson Elementary School,1420 S Albany Ave,Chicago,IL,60623,(773) 534-1829,AUSL,25%,14%,67%,62%,13%,25%,0.00%,10.10%,98.20%,0%,99%,1%,LEVEL 3,ON PROBATION,PARTIALLY ORGANIZED,WEAK,STRONG,WEAK,STRONG,53,13,3,3,15.8,74.10%,2.2,95%,,No
610276,Irvin C Mollison Elementary School,4415 S Dr Martin L King Jr Dr,Chicago,IL,60653,(773) 535-1804,Network 9,28%,45%,66%,89%,55%,39%,0.40%,9.70%,74.30%,0%,99%,0%,LEVEL 2,ON PROBATION,WELL-ORGANIZED,NEUTRAL,STRONG,WEAK,NEUTRAL,56,99,7,35,11,65.90%,3.1,93.50%,,No
610279,Henry O Tanner Elementary School,7350 S Evans Ave,Chicago,IL,60619,(773) 535-3870,Network 12,28%,31%,60%,72%,38%,26%,0.00%,17.10%,85.40%,0%,98%,1%,LEVEL 2,NOT ON PROBATION,MODERATELY ORGANIZED,NEUTRAL,NEUTRAL,WEAK,NEUTRAL,16,81,7,13,28,45.20%,3.4,91.70%,,No
610281,Adam Clayton Powell Paideia Community Academy ES,7511 S South Shore Dr,Chicago,IL,60649,(773) 535-6650,Network 12,39%,41%,66%,70%,67%,69%,2.70%,11.70%,95.70%,0%,98%,2%,LEVEL 1,NOT ON PROBATION,WELL-ORGANIZED,NEUTRAL,STRONG,NEUTRAL,STRONG,77,98,14,31,8.5,60%,1.5,95.50%,,No
610282,Ronald E McNair Elementary School,4820 W Walton St,Chicago,IL,60651,(773) 534-8980,Network 3,28%,29%,57%,66%,18%,30%,3.70%,21.70%,97.60%,0%,93%,6%,LEVEL 3,ON PROBATION,PARTIALLY ORGANIZED,WEAK,WEAK,NEUTRAL,NOT ENOUGH DATA,4,76,3,5,61.1,81.10%,1.6,90.30%,,No
610284,New Field Elementary School,1707 W Morse Ave,Chicago,IL,60626,(773) 534-2760,Network 2,63%,66%,67%,87%,51%,-,61.00%,11.90%,93.50%,8%,21%,59%,LEVEL 1,NOT ON PROBATION,ORGANIZED,NEUTRAL,STRONG,NOT ENOUGH DATA,VERY STRONG,91,98,84,78,0.5,13%,1,96.20%,,No
610287,Ashburn Community Elementary School,8300 S Saint Louis Ave,Chicago,IL,60652,(773) 535-7860,Network 10,46%,44%,66%,78%,75%,36%,8.20%,16.80%,88.00%,1%,82%,16%,LEVEL 2,NOT ON PROBATION,ORGANIZED,VERY STRONG,NEUTRAL,NOT ENOUGH DATA,NOT ENOUGH DATA,85,97,32,35,9.1,20.80%,2.8,94.20%,,Yes
610290,Benjamin E Mays Elementary Academy,6656 S Normal Blvd,Chicago,IL,60621,(773) 535-3892,Network 11,35%,35%,59%,64%,35%,50%,0.20%,10.90%,96.50%,0%,97%,2%,LEVEL 2,NOT ON PROBATION,PARTIALLY ORGANIZED,WEAK,WEAK,WEAK,VERY STRONG,71,61,25,22,1.3,2.80%,4,95%,,No
610291,Richard Henry Lee Elementary School,6448 S Tripp Ave,Chicago,IL,60629,(773) 535-2255,Network 10,38%,48%,60%,77%,36%,43%,32.30%,11.40%,95.40%,3%,1%,96%,LEVEL 2,NOT ON PROBATION,ORGANIZED,NEUTRAL,STRONG,STRONG,WEAK,49,93,30,52,2.4,58.30%,2.2,95.10%,,Yes
610293,Genevieve Melody Elementary School,3937 W Wilcox St,Chicago,IL,60624,(773) 534-6850,Network 5,31%,27%,66%,61%,27%,26%,0.20%,10.00%,98.50%,0%,97%,2%,LEVEL 2,NOT ON PROBATION,ORGANIZED,NEUTRAL,STRONG,NEUTRAL,NEUTRAL,47,26,14,15,6.4,78.30%,2.9,92.90%,,No
610295,Thomas J Higgins Elementary Community Academy,11710 S Morgan St,Chicago,IL,60643,(773) 535-5625,Network 13,43%,37%,67%,78%,53%,59%,0.20%,10.20%,95.40%,0%,98%,2%,LEVEL 1,NOT ON PROBATION,WELL-ORGANIZED,NEUTRAL,NEUTRAL,WEAK,NEUTRAL,94,99,23,22,9.6,48.60%,2.2,95.40%,,No
610298,Lenart Elementary Regional Gifted Center,8101 S LaSalle St,Chicago,IL,60620,(773) 535-0040,Network 11,97%,96%,71%,72%,100%,94%,0.70%,4.00%,31.70%,16%,59%,5%,LEVEL 1,NOT ON PROBATION,PARTIALLY ORGANIZED,NEUTRAL,VERY WEAK,STRONG,NEUTRAL,99,99,99,99,0.6,9.10%,5,96.90%,,No
610299,William A Hinton Elementary School,644 W 71st St,Chicago,IL,60621,(773) 535-3875,Network 11,18%,20%,63%,79%,16%,28%,0.00%,10.50%,99.60%,0%,98%,2%,LEVEL 2,NOT ON PROBATION,WELL-ORGANIZED,STRONG,STRONG,NEUTRAL,STRONG,16,94,1,4,26.6,67.60%,2.5,93.50%,,No
610300,Oliver S Westcott Elementary School,409 W 80th St,Chicago,IL,60620,(773) 535-3090,Network 11,23%,14%,53%,56%,29%,26%,0.70%,12.90%,98.10%,0%,96%,3%,LEVEL 3,ON PROBATION,ORGANIZED,NEUTRAL,NEUTRAL,WEAK,NEUTRAL,0,7,1,5,21.1,72.70%,2.1,93.10%,,No
610305,George Leland Elementary School,512 S Lavergne Ave,Chicago,IL,60644,(773) 534-6340,Network 3,44%,45%,86%,90%,68%,-,0.10%,12.90%,93.20%,0%,98%,1%,LEVEL 1,NOT ON PROBATION,ORGANIZED,STRONG,NEUTRAL,NOT ENOUGH DATA,NOT ENOUGH DATA,95,98,34,46,4.5,80%,1.4,94.20%,,No
610308,Wilma Rudolph Elementary Learning Center,110 N Paulina St,Chicago,IL,60612,(773) 534-7460,Network 6,-,-,-,-,-,-,45.00%,89.90%,84.40%,8%,40%,46%,,,NOT ENOUGH DATA,NOT ENOUGH DATA,NOT ENOUGH DATA,NOT ENOUGH DATA,NOT ENOUGH DATA,,,,,,,,79.70%,,No
610312,Mary E McDowell Elementary School,1419 E 89th St,Chicago,IL,60619,(773) 535-6404,Network 12,43%,43%,68%,75%,68%,31%,0.00%,7.20%,91.80%,1%,93%,3%,LEVEL 2,NOT ON PROBATION,WELL-ORGANIZED,STRONG,STRONG,NOT ENOUGH DATA,NOT ENOUGH DATA,78,96,35,41,1.1,15.40%,1,94.80%,,No
610313,Jose De Diego Elementary Community Academy,1313 N Claremont Ave,Chicago,IL,60622,(773) 534-4451,Network 5,37%,31%,48%,65%,46%,41%,10.90%,12.70%,90.90%,2%,23%,72%,LEVEL 3,ON PROBATION,PARTIALLY ORGANIZED,NEUTRAL,WEAK,NEUTRAL,NOT ENOUGH DATA,4,46,20,20,10.3,64.50%,2.1,94%,,No
610315,Edward White Elementary Career Academy,1136 W 122nd St,Chicago,IL,60643,(773) 535-5672,Network 13,37%,11%,61%,68%,31%,38%,0.00%,13.10%,98.40%,0%,98%,1%,LEVEL 2,ON PROBATION,WELL-ORGANIZED,VERY STRONG,STRONG,STRONG,NEUTRAL,47,38,30,8,14.9,57.10%,1.9,94.40%,,No
610316,Amelia Earhart Options for Knowledge ES,1710 E 93rd St,Chicago,IL,60617,(773) 535-6416,Network 12,63%,59%,63%,68%,66%,75%,0.00%,8.40%,74.90%,0%,98%,0%,LEVEL 1,NOT ON PROBATION,ORGANIZED,NEUTRAL,NEUTRAL,NEUTRAL,STRONG,85,73,69,63,13.5,55.90%,1.8,96.80%,,No
610317,Brighton Park Elementary School,3825 S Washtenaw Ave,Chicago,IL,60632,(773) 535-7237,Network 8,42%,48%,60%,71%,41%,47%,39.10%,9.80%,98.70%,2%,1%,96%,LEVEL 2,NOT ON PROBATION,PARTIALLY ORGANIZED,NEUTRAL,NEUTRAL,NEUTRAL,NEUTRAL,43,94,27,57,6.9,93.60%,2,95.60%,,No
610319,Evergreen Academy Middle School,3537 S Paulina St,Chicago,IL,60609,(773) 535-4836,Network 8,46%,37%,67%,65%,-,-,13.90%,13.90%,94.30%,3%,2%,91%,LEVEL 2,NOT ON PROBATION,WELL-ORGANIZED,VERY STRONG,VERY STRONG,VERY STRONG,NEUTRAL,84,59,47,34,3,70.60%,4.2,95.80%,,No
610321,Thurgood Marshall Middle School,3900 N Lawndale Ave,Chicago,IL,60618,(773) 534-5200,Network 1,38%,38%,61%,71%,-,-,20.00%,17.50%,96.70%,5%,4%,86%,LEVEL 3,ON PROBATION,NOT YET ORGANIZED,WEAK,NEUTRAL,NEUTRAL,NOT ENOUGH DATA,43,95,22,33,55.7,43.80%,2.5,91.50%,,No
610325,Logandale Middle School,3212 W George St,Chicago,IL,60618,(773) 534-5350,Network 4,25%,33%,52%,82%,33%,37%,37.10%,9.70%,95.90%,2%,5%,91%,LEVEL 3,ON PROBATION,PARTIALLY ORGANIZED,NEUTRAL,NEUTRAL,NEUTRAL,NEUTRAL,3,99,7,28,14.1,40.70%,1.7,94.40%,,No
610329,Orozco Fine Arts & Sciences Elementary School,1940 W 18th St,Chicago,IL,60608,(773) 534-7215,Network 7,63%,59%,66%,70%,83%,97%,28.70%,9.30%,97.10%,1%,1%,96%,LEVEL 1,NOT ON PROBATION,PARTIALLY ORGANIZED,NEUTRAL,WEAK,NEUTRAL,STRONG,93,92,74,72,8.3,77.30%,2.2,96.70%,,No
610339,Amos Alonzo Stagg Elementary School,7424 S Morgan St,Chicago,IL,60621,(773) 535-3565,AUSL,24%,24%,70%,77%,28%,21%,0.20%,14.60%,98.10%,0%,99%,1%,LEVEL 3,ON PROBATION,MODERATELY ORGANIZED,NEUTRAL,NEUTRAL,NEUTRAL,VERY STRONG,68,99,2,6,63,79.40%,2.2,93.20%,,No
610342,Albert R Sabin Elementary Magnet School,2216 W Hirsch St,Chicago,IL,60622,(773) 534-4491,Network 5,38%,47%,66%,76%,43%,61%,17.70%,11.20%,90.70%,1%,16%,79%,LEVEL 2,NOT ON PROBATION,WELL-ORGANIZED,STRONG,NEUTRAL,VERY STRONG,NEUTRAL,87,99,30,49,9.3,39%,1.9,94.60%,,No
610345,Carter G Woodson South Elementary School,4414 S Evans,Chicago,IL,60653,(773) 535-1280,Network 9,18%,15%,58%,68%,9%,31%,1.30%,14.60%,82.30%,0%,93%,3%,LEVEL 3,ON PROBATION,NOT YET ORGANIZED,WEAK,WEAK,VERY WEAK,NOT ENOUGH DATA,5,40,1,2,115.9,81.10%,1.7,87.90%,,No
610347,Claremont Academy Elementary School,2300 W 64th St,Chicago,IL,60636,(773) 535-8110,Network 10,30%,30%,71%,80%,26%,36%,3.60%,17.80%,98.70%,0%,94%,5%,LEVEL 2,ON PROBATION,WELL-ORGANIZED,NEUTRAL,STRONG,WEAK,VERY STRONG,96,99,10,17,62.6,85.30%,1.7,91%,,Yes
610350,Robert A Black Magnet Elementary School,9101 S Euclid Ave,Chicago,IL,60619,(773) 535-6390,Network 12,59%,37%,66%,61%,61%,63%,0.00%,6.10%,83.10%,0%,96%,1%,LEVEL 1,NOT ON PROBATION,ORGANIZED,NEUTRAL,STRONG,NEUTRAL,NEUTRAL,79,38,69,37,5.8,62.80%,2,95.60%,,No
610352,Durkin Park Elementary School,8445 S Kolin Ave,Chicago,IL,60652,(773) 535-2322,Network 10,42%,32%,55%,52%,36%,63%,35.80%,11.50%,90.50%,6%,13%,79%,LEVEL 3,ON PROBATION,WELL-ORGANIZED,STRONG,STRONG,STRONG,WEAK,43,3,41,24,1.3,,,94.60%,,Yes
610353,Calmeca Academy of Fine Arts and Dual Language,3456 W 38th St,Chicago,IL,60632,(773) 535-7000,Network 8,40%,36%,67%,73%,35%,43%,52.40%,10.90%,96.90%,1%,1%,90%,LEVEL 3,ON PROBATION,WELL-ORGANIZED,STRONG,STRONG,NEUTRAL,STRONG,89,95,28,30,1.4,40%,1.3,95.30%,,No
610354,North River Elementary School,4416 N Troy St,Chicago,IL,60625,(773) 534-0590,Network 1,55%,46%,63%,57%,40%,42%,53.60%,16.10%,93.30%,2%,2%,91%,LEVEL 2,NOT ON PROBATION,PARTIALLY ORGANIZED,NEUTRAL,WEAK,NEUTRAL,WEAK,84,37,50,53,6.6,61%,2,96.60%,,No
610355,Mary E Courtenay Elementary Language Arts Center,4420 N Beacon St,Chicago,IL,60640,(773) 534-5790,Network 2,66%,67%,77%,86%,70%,52%,22.00%,30.70%,82.90%,11%,40%,39%,LEVEL 1,NOT ON PROBATION,WELL-ORGANIZED,VERY STRONG,STRONG,VERY STRONG,WEAK,99,99,84,80,0.7,,,95.10%,,No
610362,Medgar Evers Elementary School,9811 S Lowe Ave,Chicago,IL,60628,(773) 535-2565,Network 11,38%,27%,62%,57%,49%,44%,0.00%,14.70%,55.20%,0%,100%,0%,LEVEL 3,ON PROBATION,WELL-ORGANIZED,VERY STRONG,STRONG,STRONG,NEUTRAL,58,23,30,15,12.6,72.30%,1.6,95.30%,,No
610363,Walt Disney Magnet Elementary School,4140 N Marine Dr,Chicago,IL,60613,(773) 534-5840,Network 2,70%,72%,68%,83%,75%,69%,10.00%,7.70%,63.60%,23%,38%,23%,LEVEL 1,NOT ON PROBATION,PARTIALLY ORGANIZED,NEUTRAL,WEAK,STRONG,NOT ENOUGH DATA,99,99,91,94,4.5,73.50%,1.4,96.10%,,No
610364,William E B Dubois Elementary School,330 E 133rd St,Chicago,IL,60827,(773) 535-5582,Network 13,25%,28%,65%,63%,32%,25%,1.00%,12.70%,99.50%,1%,93%,4%,LEVEL 1,ON PROBATION,MODERATELY ORGANIZED,WEAK,STRONG,NEUTRAL,NEUTRAL,14,32,5,8,12.7,62.90%,2.2,94.40%,,No
610366,Charles H Wacker Elementary School,9746 S Morgan St,Chicago,IL,60643,(773) 535-2821,Network 11,44%,38%,52%,70%,52%,26%,0.40%,13.10%,90.20%,0%,100%,0%,LEVEL 2,NOT ON PROBATION,PARTIALLY ORGANIZED,NEUTRAL,WEAK,NEUTRAL,NEUTRAL,16,76,28,25,17.2,89.10%,1.8,93.20%,,No
610367,Oscar DePriest Elementary School,139 S Parkside Ave,Chicago,IL,60644,(773) 534-6800,Network 3,26%,27%,68%,73%,33%,41%,0.70%,16.30%,95.60%,0%,97%,2%,LEVEL 2,NOT ON PROBATION,WELL-ORGANIZED,STRONG,NEUTRAL,NEUTRAL,VERY STRONG,50,84,7,13,6.6,50.70%,2,94.50%,,No
610368,Langston Hughes Elementary School,240 W 104th St,Chicago,IL,60628,(773) 535-5075,Network 13,24%,17%,62%,62%,33%,19%,0.00%,18.60%,97.00%,0%,99%,1%,LEVEL 3,ON PROBATION,PARTIALLY ORGANIZED,NEUTRAL,NEUTRAL,WEAK,VERY STRONG,53,22,4,3,7.7,47.80%,2.3,90.50%,,No
610369,Mahalia Jackson Elementary School,917 W 88th St,Chicago,IL,60620,(773) 535-3341,Network 11,23%,12%,49%,48%,28%,24%,0.00%,18.30%,97.10%,0%,99%,1%,LEVEL 3,ON PROBATION,MODERATELY ORGANIZED,NEUTRAL,WEAK,NEUTRAL,VERY STRONG,1,0,1,1,49.1,41.90%,2.4,90.80%,,No
610396,Tarkington School of Excellence ES,3330 W 71st St,Chicago,IL,60629,(773) 535-4700,AUSL,35%,43%,66%,73%,40%,34%,34.10%,8.50%,96.80%,0%,20%,78%,LEVEL 2,NOT ON PROBATION,PARTIALLY ORGANIZED,WEAK,WEAK,NEUTRAL,NOT ENOUGH DATA,56,88,21,37,7.4,92.90%,1.7,95.60%,,No
610405,Suder Montessori Magnet ES,2022 W Washington Blvd,Chicago,IL,60612,(773) 534-7685,Network 6,58%,48%,53%,56%,74%,60%,6.00%,8.90%,51.60%,17%,61%,13%,LEVEL 2,NOT ON PROBATION,PARTIALLY ORGANIZED,WEAK,WEAK,STRONG,NOT ENOUGH DATA,35,20,71,51,3.1,60%,2.4,96.10%,,No
610503,Frazier Prospective IB Magnet ES,4027 W Grenshaw St,Chicago,IL,60624,(773) 534-6880,Network 5,57%,60%,66%,69%,72%,86%,0.00%,10.20%,90.90%,0%,98%,1%,LEVEL 1,NOT ON PROBATION,PARTIALLY ORGANIZED,WEAK,VERY WEAK,NEUTRAL,NEUTRAL,93,96,72,79,33,30.10%,1.5,96.20%,,No
610504,Velma F Thomas Early Childhood Center,3625 S Hoyne Ave,Chicago,IL,60609,(773) 535-4088,Network 8,-,-,-,-,-,-,23.90%,25.60%,92.00%,6%,3%,85%,,,NOT ENOUGH DATA,NOT ENOUGH DATA,NOT ENOUGH DATA,NOT ENOUGH DATA,STRONG,,,,,,,,,,No
610515,Disney II Magnet School,3815 N Kedvale Ave,Chicago,IL,60641,(773) 534-3750,Network 1,78%,79%,58%,63%,83%,83%,1.70%,8.50%,28.30%,45%,8%,36%,LEVEL 1,NOT ON PROBATION,WELL-ORGANIZED,VERY STRONG,VERY STRONG,VERY STRONG,NOT ENOUGH DATA,94,59,98,96,,,,97.10%,,No
610520,LaSalle II Magnet Elementary School,1148 N Honore St,Chicago,IL,60622,(773) 534-0490,Network 6,65%,61%,64%,73%,80%,62%,9.50%,14.60%,52.50%,27%,21%,45%,LEVEL 1,NOT ON PROBATION,ORGANIZED,STRONG,STRONG,STRONG,NEUTRAL,91,97,86,78,6.7,56%,2.2,94.90%,,No
610521,Sir Miles Davis Magnet Elementary Academy,6730 S Paulina St,Chicago,IL,60636,(773) 535-9120,Network 11,31%,39%,73%,78%,34%,26%,0.30%,9.80%,96.10%,0%,98%,1%,LEVEL 2,NOT ON PROBATION,WELL-ORGANIZED,STRONG,STRONG,NEUTRAL,VERY STRONG,99,99,16,36,43.7,78.30%,1.9,91.80%,,No
610523,Edison Park Elementary School,6220 N Olcott Ave,Chicago,IL,60631,(773) 534-0960,Network 1,74%,70%,59%,72%,80%,73%,6.00%,12.30%,11.70%,72%,1%,21%,LEVEL 1,NOT ON PROBATION,WELL-ORGANIZED,VERY STRONG,VERY STRONG,VERY STRONG,VERY WEAK,76,91,92,87,1.6,70%,1.6,95.30%,,No
610530,South Shore Fine Arts Academy,1415 E 70th St,Chicago,IL,60637,(773) 535-8340,Network 12,40%,30%,70%,66%,51%,40%,0.40%,17.70%,88.50%,0%,97%,1%,LEVEL 3,ON PROBATION,NOT YET ORGANIZED,WEAK,WEAK,NOT ENOUGH DATA,NEUTRAL,70,79,34,30,19.3,54.90%,1.2,92.70%,,No
610532,Irene C. Hernandez Middle School for the Advancem,3510 W 55th St,Chicago,IL,60632,(773) 535-8850,Network 8,40%,45%,76%,74%,-,-,19.10%,8.50%,98.40%,1%,2%,96%,LEVEL 1,NOT ON PROBATION,PARTIALLY ORGANIZED,NEUTRAL,WEAK,NEUTRAL,STRONG,98,96,32,41,10.1,17.30%,1.9,95.90%,,Yes
610533,Dr Jorge Prieto Math and Science,2231 N Central Ave,Chicago,IL,60639,(773) 534-0210,Network 3,29%,36%,51%,60%,28%,43%,34.00%,15.90%,96.20%,2%,3%,95%,LEVEL 3,ON PROBATION,MODERATELY ORGANIZED,NEUTRAL,NEUTRAL,NEUTRAL,NOT ENOUGH DATA,1,49,9,24,5.2,82.80%,3.2,93.40%,,No
610534,Skinner North Classical School,640 W Scott St,Chicago,IL,60610,(773) 534-8500,Network 4,99%,100%,65%,81%,100%,100%,0.80%,4.10%,20.10%,41%,15%,11%,LEVEL 1,NOT ON PROBATION,WELL-ORGANIZED,VERY STRONG,VERY STRONG,NOT ENOUGH DATA,STRONG,99,99,99,99,4,29.30%,1.3,96.40%,,No
610539,Marvin Camras Elementary School,3000 N Mango Ave,Chicago,IL,60634,(773) 534-2960 ,Network 3,36%,38%,55%,57%,42%,39%,35.80%,11.20%,90.30%,6%,1%,91%,LEVEL 2,NOT ON PROBATION,ORGANIZED,NEUTRAL,STRONG,NEUTRAL,NEUTRAL,9,22,22,33,1.3,81.30%,3,94.20%,,No
610541,Federico Garcia Lorca Elementary School,3231 N Springfield Ave,Chicago,IL,60618,(773) 534-0950,Network 4,38%,38%,66%,68%,28%,49%,44.10%,12.80%,97.00%,4%,1%,89%,LEVEL 2,NOT ON PROBATION,MODERATELY ORGANIZED,NEUTRAL,NEUTRAL,NEUTRAL,STRONG,77,82,22,30,1.9,16.80%,1.1,95.30%,,No
610542,West Ridge Elementary School,6700 N Whipple St,Chicago,IL,60645,(773) 534-8250,Network 2,53%,55%,68%,79%,51%,59%,42.40%,9.20%,90.40%,30%,7%,25%,LEVEL 1,NOT ON PROBATION,MODERATELY ORGANIZED,NEUTRAL,NEUTRAL,NEUTRAL,VERY STRONG,94,99,61,70,2.4,68%,2.5,94.60%,,No
610544,Mariano Azuela Elementary School,4707 W Marquette Rd,Chicago,IL,60629,(773) 535-7395,Network 10,45%,42%,66%,68%,51%,56%,27.90%,7.40%,90.50%,3%,1%,94%,LEVEL 1,NOT ON PROBATION,WELL-ORGANIZED,STRONG,NEUTRAL,NEUTRAL,STRONG,89,77,40,41,2.4,34.40%,2.8,95.50%,,No
610548,STEM Magnet Academy,1522 W Fillmore St,Chicago,IL,60607,(773) 534-7300 ,Network 6,80%,80%,76%,95%,84%,-,12.90%,5.10%,49.70%,18%,33%,27%,NOT ENOUGH DATA,NOT ON PROBATION,MODERATELY ORGANIZED,WEAK,STRONG,NOT ENOUGH DATA,STRONG,99,99,99,97,2.1,60%,2.2,96.70%,,No
610559,James Shields Middle School,2611 W 48th St,Chicago,IL,60632,(773) 535-7115 ,Network 8,35%,32%,57%,58%,-,44%,18.30%,15.80%,98.50%,1%,1%,97%,NOT ENOUGH DATA,NOT ON PROBATION,PARTIALLY ORGANIZED,NEUTRAL,WEAK,NEUTRAL,STRONG,33,40,21,24,10.2,47.60%,3.4,95.60%,,No
